{
"type": "FeatureCollection",
"name": "bavs_sp_rich_2011",
"crs": { "type": "name", "properties": { "name": "urn:ogc:def:crs:OGC:1.3:CRS84" } },
"features": [
{ "type": "Feature", "properties": { "plot": "BK_100_a", "year": 2011, "species_richness": 31, "subregion": "baviaanskloof" }, "geometry": { "type": "Point", "coordinates": [ 24.4833, -33.66145 ] } },
{ "type": "Feature", "properties": { "plot": "BK_100_b", "year": 2011, "species_richness": 31, "subregion": "baviaanskloof" }, "geometry": { "type": "Point", "coordinates": [ 24.4833, -33.66145 ] } },
{ "type": "Feature", "properties": { "plot": "BK_101_a", "year": 2011, "species_richness": 13, "subregion": "baviaanskloof" }, "geometry": { "type": "Point", "coordinates": [ 24.39066, -33.67216 ] } },
{ "type": "Feature", "properties": { "plot": "BK_101_b", "year": 2011, "species_richness": 13, "subregion": "baviaanskloof" }, "geometry": { "type": "Point", "coordinates": [ 24.39066, -33.67216 ] } },
{ "type": "Feature", "properties": { "plot": "BK_102_a", "year": 2011, "species_richness": 20, "subregion": "baviaanskloof" }, "geometry": { "type": "Point", "coordinates": [ 24.36608, -33.66683 ] } },
{ "type": "Feature", "properties": { "plot": "BK_102_b", "year": 2011, "species_richness": 15, "subregion": "baviaanskloof" }, "geometry": { "type": "Point", "coordinates": [ 24.36608, -33.66683 ] } },
{ "type": "Feature", "properties": { "plot": "BK_103_a", "year": 2011, "species_richness": 11, "subregion": "baviaanskloof" }, "geometry": { "type": "Point", "coordinates": [ 24.36945, -33.66551 ] } },
{ "type": "Feature", "properties": { "plot": "BK_103_b", "year": 2011, "species_richness": 13, "subregion": "baviaanskloof" }, "geometry": { "type": "Point", "coordinates": [ 24.36945, -33.66551 ] } },
{ "type": "Feature", "properties": { "plot": "BK_104_a", "year": 2011, "species_richness": 31, "subregion": "baviaanskloof" }, "geometry": { "type": "Point", "coordinates": [ 24.17238, -33.6191 ] } },
{ "type": "Feature", "properties": { "plot": "BK_104_b", "year": 2011, "species_richness": 27, "subregion": "baviaanskloof" }, "geometry": { "type": "Point", "coordinates": [ 24.17238, -33.6191 ] } },
{ "type": "Feature", "properties": { "plot": "BK_105_a", "year": 2011, "species_richness": 36, "subregion": "baviaanskloof" }, "geometry": { "type": "Point", "coordinates": [ 24.15371, -33.57785 ] } },
{ "type": "Feature", "properties": { "plot": "BK_105_b", "year": 2011, "species_richness": 28, "subregion": "baviaanskloof" }, "geometry": { "type": "Point", "coordinates": [ 24.15371, -33.57785 ] } },
{ "type": "Feature", "properties": { "plot": "BK_106_a", "year": 2011, "species_richness": 32, "subregion": "baviaanskloof" }, "geometry": { "type": "Point", "coordinates": [ 24.1993, -33.70317 ] } },
{ "type": "Feature", "properties": { "plot": "BK_106_b", "year": 2011, "species_richness": 35, "subregion": "baviaanskloof" }, "geometry": { "type": "Point", "coordinates": [ 24.1993, -33.70317 ] } },
{ "type": "Feature", "properties": { "plot": "BK_107_a", "year": 2011, "species_richness": 34, "subregion": "baviaanskloof" }, "geometry": { "type": "Point", "coordinates": [ 24.18902, -33.70514 ] } },
{ "type": "Feature", "properties": { "plot": "BK_107_b", "year": 2011, "species_richness": 32, "subregion": "baviaanskloof" }, "geometry": { "type": "Point", "coordinates": [ 24.18902, -33.70514 ] } },
{ "type": "Feature", "properties": { "plot": "BK_108_a", "year": 2011, "species_richness": 25, "subregion": "baviaanskloof" }, "geometry": { "type": "Point", "coordinates": [ 24.09185, -33.51758 ] } },
{ "type": "Feature", "properties": { "plot": "BK_108_b", "year": 2011, "species_richness": 27, "subregion": "baviaanskloof" }, "geometry": { "type": "Point", "coordinates": [ 24.09185, -33.51758 ] } },
{ "type": "Feature", "properties": { "plot": "BK_109_a", "year": 2011, "species_richness": 46, "subregion": "baviaanskloof" }, "geometry": { "type": "Point", "coordinates": [ 24.10178, -33.53253 ] } },
{ "type": "Feature", "properties": { "plot": "BK_109_b", "year": 2011, "species_richness": 48, "subregion": "baviaanskloof" }, "geometry": { "type": "Point", "coordinates": [ 24.10178, -33.53253 ] } },
{ "type": "Feature", "properties": { "plot": "BK_10_a", "year": 2011, "species_richness": 53, "subregion": "baviaanskloof" }, "geometry": { "type": "Point", "coordinates": [ 24.20001, -33.70192 ] } },
{ "type": "Feature", "properties": { "plot": "BK_10_b", "year": 2011, "species_richness": 52, "subregion": "baviaanskloof" }, "geometry": { "type": "Point", "coordinates": [ 24.20001, -33.70192 ] } },
{ "type": "Feature", "properties": { "plot": "BK_110_a", "year": 2011, "species_richness": 37, "subregion": "baviaanskloof" }, "geometry": { "type": "Point", "coordinates": [ 24.10235, -33.5309 ] } },
{ "type": "Feature", "properties": { "plot": "BK_110_b", "year": 2011, "species_richness": 40, "subregion": "baviaanskloof" }, "geometry": { "type": "Point", "coordinates": [ 24.10235, -33.5309 ] } },
{ "type": "Feature", "properties": { "plot": "BK_111_a", "year": 2011, "species_richness": 31, "subregion": "baviaanskloof" }, "geometry": { "type": "Point", "coordinates": [ 24.03919, -33.51077 ] } },
{ "type": "Feature", "properties": { "plot": "BK_111_b", "year": 2011, "species_richness": 28, "subregion": "baviaanskloof" }, "geometry": { "type": "Point", "coordinates": [ 24.03919, -33.51077 ] } },
{ "type": "Feature", "properties": { "plot": "BK_112_a", "year": 2011, "species_richness": 39, "subregion": "baviaanskloof" }, "geometry": { "type": "Point", "coordinates": [ 24.0405, -33.51227 ] } },
{ "type": "Feature", "properties": { "plot": "BK_112_b", "year": 2011, "species_richness": 36, "subregion": "baviaanskloof" }, "geometry": { "type": "Point", "coordinates": [ 24.0405, -33.51227 ] } },
{ "type": "Feature", "properties": { "plot": "BK_113_a", "year": 2011, "species_richness": 33, "subregion": "baviaanskloof" }, "geometry": { "type": "Point", "coordinates": [ 24.04631, -33.51437 ] } },
{ "type": "Feature", "properties": { "plot": "BK_113_b", "year": 2011, "species_richness": 36, "subregion": "baviaanskloof" }, "geometry": { "type": "Point", "coordinates": [ 24.04631, -33.51437 ] } },
{ "type": "Feature", "properties": { "plot": "BK_114_a", "year": 2011, "species_richness": 35, "subregion": "baviaanskloof" }, "geometry": { "type": "Point", "coordinates": [ 24.04928, -33.51602 ] } },
{ "type": "Feature", "properties": { "plot": "BK_114_b", "year": 2011, "species_richness": 32, "subregion": "baviaanskloof" }, "geometry": { "type": "Point", "coordinates": [ 24.04928, -33.51602 ] } },
{ "type": "Feature", "properties": { "plot": "BK_115_a", "year": 2011, "species_richness": 30, "subregion": "baviaanskloof" }, "geometry": { "type": "Point", "coordinates": [ 24.08624, -33.52293 ] } },
{ "type": "Feature", "properties": { "plot": "BK_115_b", "year": 2011, "species_richness": 29, "subregion": "baviaanskloof" }, "geometry": { "type": "Point", "coordinates": [ 24.08624, -33.52293 ] } },
{ "type": "Feature", "properties": { "plot": "BK_116_a", "year": 2011, "species_richness": 30, "subregion": "baviaanskloof" }, "geometry": { "type": "Point", "coordinates": [ 24.0846, -33.52069 ] } },
{ "type": "Feature", "properties": { "plot": "BK_116_b", "year": 2011, "species_richness": 33, "subregion": "baviaanskloof" }, "geometry": { "type": "Point", "coordinates": [ 24.0846, -33.52069 ] } },
{ "type": "Feature", "properties": { "plot": "BK_117_a", "year": 2011, "species_richness": 30, "subregion": "baviaanskloof" }, "geometry": { "type": "Point", "coordinates": [ 24.08591, -33.52574 ] } },
{ "type": "Feature", "properties": { "plot": "BK_117_b", "year": 2011, "species_richness": 35, "subregion": "baviaanskloof" }, "geometry": { "type": "Point", "coordinates": [ 24.08591, -33.52574 ] } },
{ "type": "Feature", "properties": { "plot": "BK_118_a", "year": 2011, "species_richness": 21, "subregion": "baviaanskloof" }, "geometry": { "type": "Point", "coordinates": [ 24.1092, -33.69292 ] } },
{ "type": "Feature", "properties": { "plot": "BK_118_b", "year": 2011, "species_richness": 21, "subregion": "baviaanskloof" }, "geometry": { "type": "Point", "coordinates": [ 24.1092, -33.69292 ] } },
{ "type": "Feature", "properties": { "plot": "BK_119_a", "year": 2011, "species_richness": 50, "subregion": "baviaanskloof" }, "geometry": { "type": "Point", "coordinates": [ 24.1253, -33.69193 ] } },
{ "type": "Feature", "properties": { "plot": "BK_119_b", "year": 2011, "species_richness": 53, "subregion": "baviaanskloof" }, "geometry": { "type": "Point", "coordinates": [ 24.1253, -33.69193 ] } },
{ "type": "Feature", "properties": { "plot": "BK_11_a", "year": 2011, "species_richness": 44, "subregion": "baviaanskloof" }, "geometry": { "type": "Point", "coordinates": [ 24.20953, -33.66927 ] } },
{ "type": "Feature", "properties": { "plot": "BK_11_b", "year": 2011, "species_richness": 41, "subregion": "baviaanskloof" }, "geometry": { "type": "Point", "coordinates": [ 24.20953, -33.66927 ] } },
{ "type": "Feature", "properties": { "plot": "BK_120_a", "year": 2011, "species_richness": 35, "subregion": "baviaanskloof" }, "geometry": { "type": "Point", "coordinates": [ 24.13811, -33.70414 ] } },
{ "type": "Feature", "properties": { "plot": "BK_120_b", "year": 2011, "species_richness": 39, "subregion": "baviaanskloof" }, "geometry": { "type": "Point", "coordinates": [ 24.13811, -33.70414 ] } },
{ "type": "Feature", "properties": { "plot": "BK_121_a", "year": 2011, "species_richness": 35, "subregion": "baviaanskloof" }, "geometry": { "type": "Point", "coordinates": [ 24.25176, -33.61015 ] } },
{ "type": "Feature", "properties": { "plot": "BK_121_b", "year": 2011, "species_richness": 27, "subregion": "baviaanskloof" }, "geometry": { "type": "Point", "coordinates": [ 24.25176, -33.61015 ] } },
{ "type": "Feature", "properties": { "plot": "BK_12_a", "year": 2011, "species_richness": 23, "subregion": "baviaanskloof" }, "geometry": { "type": "Point", "coordinates": [ 24.40065, -33.6336 ] } },
{ "type": "Feature", "properties": { "plot": "BK_12_b", "year": 2011, "species_richness": 20, "subregion": "baviaanskloof" }, "geometry": { "type": "Point", "coordinates": [ 24.40065, -33.6336 ] } },
{ "type": "Feature", "properties": { "plot": "BK_13_a", "year": 2011, "species_richness": 25, "subregion": "baviaanskloof" }, "geometry": { "type": "Point", "coordinates": [ 24.39659, -33.63117 ] } },
{ "type": "Feature", "properties": { "plot": "BK_13_b", "year": 2011, "species_richness": 26, "subregion": "baviaanskloof" }, "geometry": { "type": "Point", "coordinates": [ 24.39659, -33.63117 ] } },
{ "type": "Feature", "properties": { "plot": "BK_14_a", "year": 2011, "species_richness": 27, "subregion": "baviaanskloof" }, "geometry": { "type": "Point", "coordinates": [ 24.40565, -33.63738 ] } },
{ "type": "Feature", "properties": { "plot": "BK_14_b", "year": 2011, "species_richness": 30, "subregion": "baviaanskloof" }, "geometry": { "type": "Point", "coordinates": [ 24.40565, -33.63738 ] } },
{ "type": "Feature", "properties": { "plot": "BK_15_a", "year": 2011, "species_richness": 22, "subregion": "baviaanskloof" }, "geometry": { "type": "Point", "coordinates": [ 24.22482, -33.64486 ] } },
{ "type": "Feature", "properties": { "plot": "BK_15_b", "year": 2011, "species_richness": 21, "subregion": "baviaanskloof" }, "geometry": { "type": "Point", "coordinates": [ 24.22482, -33.64486 ] } },
{ "type": "Feature", "properties": { "plot": "BK_16_a", "year": 2011, "species_richness": 30, "subregion": "baviaanskloof" }, "geometry": { "type": "Point", "coordinates": [ 24.37745, -33.58535 ] } },
{ "type": "Feature", "properties": { "plot": "BK_16_b", "year": 2011, "species_richness": 33, "subregion": "baviaanskloof" }, "geometry": { "type": "Point", "coordinates": [ 24.37745, -33.58535 ] } },
{ "type": "Feature", "properties": { "plot": "BK_17_a", "year": 2011, "species_richness": 45, "subregion": "baviaanskloof" }, "geometry": { "type": "Point", "coordinates": [ 24.19966, -33.70426 ] } },
{ "type": "Feature", "properties": { "plot": "BK_17_b", "year": 2011, "species_richness": 38, "subregion": "baviaanskloof" }, "geometry": { "type": "Point", "coordinates": [ 24.19966, -33.70426 ] } },
{ "type": "Feature", "properties": { "plot": "BK_18_a", "year": 2011, "species_richness": 55, "subregion": "baviaanskloof" }, "geometry": { "type": "Point", "coordinates": [ 24.21023, -33.67944 ] } },
{ "type": "Feature", "properties": { "plot": "BK_18_b", "year": 2011, "species_richness": 55, "subregion": "baviaanskloof" }, "geometry": { "type": "Point", "coordinates": [ 24.21023, -33.67944 ] } },
{ "type": "Feature", "properties": { "plot": "BK_19_a", "year": 2011, "species_richness": 23, "subregion": "baviaanskloof" }, "geometry": { "type": "Point", "coordinates": [ 24.19981, -33.651 ] } },
{ "type": "Feature", "properties": { "plot": "BK_19_b", "year": 2011, "species_richness": 28, "subregion": "baviaanskloof" }, "geometry": { "type": "Point", "coordinates": [ 24.19981, -33.651 ] } },
{ "type": "Feature", "properties": { "plot": "BK_1_a", "year": 2011, "species_richness": 24, "subregion": "baviaanskloof" }, "geometry": { "type": "Point", "coordinates": [ 24.24838, -33.60279 ] } },
{ "type": "Feature", "properties": { "plot": "BK_1_b", "year": 2011, "species_richness": 27, "subregion": "baviaanskloof" }, "geometry": { "type": "Point", "coordinates": [ 24.24838, -33.60279 ] } },
{ "type": "Feature", "properties": { "plot": "BK_20_a", "year": 2011, "species_richness": 33, "subregion": "baviaanskloof" }, "geometry": { "type": "Point", "coordinates": [ 24.19973, -33.64916 ] } },
{ "type": "Feature", "properties": { "plot": "BK_20_b", "year": 2011, "species_richness": 33, "subregion": "baviaanskloof" }, "geometry": { "type": "Point", "coordinates": [ 24.19973, -33.64916 ] } },
{ "type": "Feature", "properties": { "plot": "BK_21_a", "year": 2011, "species_richness": 34, "subregion": "baviaanskloof" }, "geometry": { "type": "Point", "coordinates": [ 24.20092, -33.62723 ] } },
{ "type": "Feature", "properties": { "plot": "BK_21_b", "year": 2011, "species_richness": 37, "subregion": "baviaanskloof" }, "geometry": { "type": "Point", "coordinates": [ 24.20092, -33.62723 ] } },
{ "type": "Feature", "properties": { "plot": "BK_22_a", "year": 2011, "species_richness": 18, "subregion": "baviaanskloof" }, "geometry": { "type": "Point", "coordinates": [ 24.24317, -33.6379 ] } },
{ "type": "Feature", "properties": { "plot": "BK_22_b", "year": 2011, "species_richness": 12, "subregion": "baviaanskloof" }, "geometry": { "type": "Point", "coordinates": [ 24.24317, -33.6379 ] } },
{ "type": "Feature", "properties": { "plot": "BK_23_a", "year": 2011, "species_richness": 27, "subregion": "baviaanskloof" }, "geometry": { "type": "Point", "coordinates": [ 24.23986, -33.63739 ] } },
{ "type": "Feature", "properties": { "plot": "BK_23_b", "year": 2011, "species_richness": 32, "subregion": "baviaanskloof" }, "geometry": { "type": "Point", "coordinates": [ 24.23986, -33.63739 ] } },
{ "type": "Feature", "properties": { "plot": "BK_24_a", "year": 2011, "species_richness": 35, "subregion": "baviaanskloof" }, "geometry": { "type": "Point", "coordinates": [ 24.21761, -33.67187 ] } },
{ "type": "Feature", "properties": { "plot": "BK_24_b", "year": 2011, "species_richness": 34, "subregion": "baviaanskloof" }, "geometry": { "type": "Point", "coordinates": [ 24.21761, -33.67187 ] } },
{ "type": "Feature", "properties": { "plot": "BK_25_a", "year": 2011, "species_richness": 19, "subregion": "baviaanskloof" }, "geometry": { "type": "Point", "coordinates": [ 24.41662, -33.66336 ] } },
{ "type": "Feature", "properties": { "plot": "BK_25_b", "year": 2011, "species_richness": 19, "subregion": "baviaanskloof" }, "geometry": { "type": "Point", "coordinates": [ 24.41662, -33.66336 ] } },
{ "type": "Feature", "properties": { "plot": "BK_26_a", "year": 2011, "species_richness": 47, "subregion": "baviaanskloof" }, "geometry": { "type": "Point", "coordinates": [ 24.22911, -33.75011 ] } },
{ "type": "Feature", "properties": { "plot": "BK_26_b", "year": 2011, "species_richness": 42, "subregion": "baviaanskloof" }, "geometry": { "type": "Point", "coordinates": [ 24.22911, -33.75011 ] } },
{ "type": "Feature", "properties": { "plot": "BK_27_a", "year": 2011, "species_richness": 38, "subregion": "baviaanskloof" }, "geometry": { "type": "Point", "coordinates": [ 24.22858, -33.75221 ] } },
{ "type": "Feature", "properties": { "plot": "BK_27_b", "year": 2011, "species_richness": 41, "subregion": "baviaanskloof" }, "geometry": { "type": "Point", "coordinates": [ 24.22858, -33.75221 ] } },
{ "type": "Feature", "properties": { "plot": "BK_28_a", "year": 2011, "species_richness": 23, "subregion": "baviaanskloof" }, "geometry": { "type": "Point", "coordinates": [ 24.26591, -33.74482 ] } },
{ "type": "Feature", "properties": { "plot": "BK_28_b", "year": 2011, "species_richness": 22, "subregion": "baviaanskloof" }, "geometry": { "type": "Point", "coordinates": [ 24.26591, -33.74482 ] } },
{ "type": "Feature", "properties": { "plot": "BK_29_a", "year": 2011, "species_richness": 35, "subregion": "baviaanskloof" }, "geometry": { "type": "Point", "coordinates": [ 24.27407, -33.72327 ] } },
{ "type": "Feature", "properties": { "plot": "BK_29_b", "year": 2011, "species_richness": 35, "subregion": "baviaanskloof" }, "geometry": { "type": "Point", "coordinates": [ 24.27407, -33.72327 ] } },
{ "type": "Feature", "properties": { "plot": "BK_2_a", "year": 2011, "species_richness": 21, "subregion": "baviaanskloof" }, "geometry": { "type": "Point", "coordinates": [ 24.25466, -33.59977 ] } },
{ "type": "Feature", "properties": { "plot": "BK_2_b", "year": 2011, "species_richness": 20, "subregion": "baviaanskloof" }, "geometry": { "type": "Point", "coordinates": [ 24.25466, -33.59977 ] } },
{ "type": "Feature", "properties": { "plot": "BK_30_a", "year": 2011, "species_richness": 26, "subregion": "baviaanskloof" }, "geometry": { "type": "Point", "coordinates": [ 24.30316, -33.66398 ] } },
{ "type": "Feature", "properties": { "plot": "BK_30_b", "year": 2011, "species_richness": 28, "subregion": "baviaanskloof" }, "geometry": { "type": "Point", "coordinates": [ 24.30316, -33.66398 ] } },
{ "type": "Feature", "properties": { "plot": "BK_31_a", "year": 2011, "species_richness": 11, "subregion": "baviaanskloof" }, "geometry": { "type": "Point", "coordinates": [ 24.24608, -33.63341 ] } },
{ "type": "Feature", "properties": { "plot": "BK_31_b", "year": 2011, "species_richness": 13, "subregion": "baviaanskloof" }, "geometry": { "type": "Point", "coordinates": [ 24.24608, -33.63341 ] } },
{ "type": "Feature", "properties": { "plot": "BK_32_a", "year": 2011, "species_richness": 35, "subregion": "baviaanskloof" }, "geometry": { "type": "Point", "coordinates": [ 24.21739, -33.65758 ] } },
{ "type": "Feature", "properties": { "plot": "BK_32_b", "year": 2011, "species_richness": 36, "subregion": "baviaanskloof" }, "geometry": { "type": "Point", "coordinates": [ 24.21739, -33.65758 ] } },
{ "type": "Feature", "properties": { "plot": "BK_33_a", "year": 2011, "species_richness": 28, "subregion": "baviaanskloof" }, "geometry": { "type": "Point", "coordinates": [ 24.34128, -33.65209 ] } },
{ "type": "Feature", "properties": { "plot": "BK_33_b", "year": 2011, "species_richness": 33, "subregion": "baviaanskloof" }, "geometry": { "type": "Point", "coordinates": [ 24.34128, -33.65209 ] } },
{ "type": "Feature", "properties": { "plot": "BK_34_a", "year": 2011, "species_richness": 13, "subregion": "baviaanskloof" }, "geometry": { "type": "Point", "coordinates": [ 24.34396, -33.64986 ] } },
{ "type": "Feature", "properties": { "plot": "BK_34_b", "year": 2011, "species_richness": 19, "subregion": "baviaanskloof" }, "geometry": { "type": "Point", "coordinates": [ 24.34396, -33.64986 ] } },
{ "type": "Feature", "properties": { "plot": "BK_35_a", "year": 2011, "species_richness": 23, "subregion": "baviaanskloof" }, "geometry": { "type": "Point", "coordinates": [ 24.27173, -33.58969 ] } },
{ "type": "Feature", "properties": { "plot": "BK_35_b", "year": 2011, "species_richness": 27, "subregion": "baviaanskloof" }, "geometry": { "type": "Point", "coordinates": [ 24.27173, -33.58969 ] } },
{ "type": "Feature", "properties": { "plot": "BK_36_a", "year": 2011, "species_richness": 26, "subregion": "baviaanskloof" }, "geometry": { "type": "Point", "coordinates": [ 24.26399, -33.59569 ] } },
{ "type": "Feature", "properties": { "plot": "BK_36_b", "year": 2011, "species_richness": 28, "subregion": "baviaanskloof" }, "geometry": { "type": "Point", "coordinates": [ 24.26399, -33.59569 ] } },
{ "type": "Feature", "properties": { "plot": "BK_37_a", "year": 2011, "species_richness": 42, "subregion": "baviaanskloof" }, "geometry": { "type": "Point", "coordinates": [ 24.23676, -33.72465 ] } },
{ "type": "Feature", "properties": { "plot": "BK_37_b", "year": 2011, "species_richness": 52, "subregion": "baviaanskloof" }, "geometry": { "type": "Point", "coordinates": [ 24.23676, -33.72465 ] } },
{ "type": "Feature", "properties": { "plot": "BK_38_a", "year": 2011, "species_richness": 37, "subregion": "baviaanskloof" }, "geometry": { "type": "Point", "coordinates": [ 24.28278, -33.71956 ] } },
{ "type": "Feature", "properties": { "plot": "BK_38_b", "year": 2011, "species_richness": 42, "subregion": "baviaanskloof" }, "geometry": { "type": "Point", "coordinates": [ 24.28278, -33.71956 ] } },
{ "type": "Feature", "properties": { "plot": "BK_39_a", "year": 2011, "species_richness": 33, "subregion": "baviaanskloof" }, "geometry": { "type": "Point", "coordinates": [ 24.18503, -33.7052 ] } },
{ "type": "Feature", "properties": { "plot": "BK_39_b", "year": 2011, "species_richness": 37, "subregion": "baviaanskloof" }, "geometry": { "type": "Point", "coordinates": [ 24.18503, -33.7052 ] } },
{ "type": "Feature", "properties": { "plot": "BK_3_a", "year": 2011, "species_richness": 29, "subregion": "baviaanskloof" }, "geometry": { "type": "Point", "coordinates": [ 24.08495, -33.52111 ] } },
{ "type": "Feature", "properties": { "plot": "BK_3_b", "year": 2011, "species_richness": 30, "subregion": "baviaanskloof" }, "geometry": { "type": "Point", "coordinates": [ 24.08495, -33.52111 ] } },
{ "type": "Feature", "properties": { "plot": "BK_40_a", "year": 2011, "species_richness": 11, "subregion": "baviaanskloof" }, "geometry": { "type": "Point", "coordinates": [ 24.35937, -33.6822 ] } },
{ "type": "Feature", "properties": { "plot": "BK_40_b", "year": 2011, "species_richness": 12, "subregion": "baviaanskloof" }, "geometry": { "type": "Point", "coordinates": [ 24.35937, -33.6822 ] } },
{ "type": "Feature", "properties": { "plot": "BK_41_a", "year": 2011, "species_richness": 30, "subregion": "baviaanskloof" }, "geometry": { "type": "Point", "coordinates": [ 24.34299, -33.68663 ] } },
{ "type": "Feature", "properties": { "plot": "BK_41_b", "year": 2011, "species_richness": 31, "subregion": "baviaanskloof" }, "geometry": { "type": "Point", "coordinates": [ 24.34299, -33.68663 ] } },
{ "type": "Feature", "properties": { "plot": "BK_42_a", "year": 2011, "species_richness": 18, "subregion": "baviaanskloof" }, "geometry": { "type": "Point", "coordinates": [ 24.36402, -33.65513 ] } },
{ "type": "Feature", "properties": { "plot": "BK_42_b", "year": 2011, "species_richness": 21, "subregion": "baviaanskloof" }, "geometry": { "type": "Point", "coordinates": [ 24.36402, -33.65513 ] } },
{ "type": "Feature", "properties": { "plot": "BK_43_a", "year": 2011, "species_richness": 35, "subregion": "baviaanskloof" }, "geometry": { "type": "Point", "coordinates": [ 24.33995, -33.64763 ] } },
{ "type": "Feature", "properties": { "plot": "BK_43_b", "year": 2011, "species_richness": 29, "subregion": "baviaanskloof" }, "geometry": { "type": "Point", "coordinates": [ 24.33995, -33.64763 ] } },
{ "type": "Feature", "properties": { "plot": "BK_45_a", "year": 2011, "species_richness": 40, "subregion": "baviaanskloof" }, "geometry": { "type": "Point", "coordinates": [ 24.29177, -33.62244 ] } },
{ "type": "Feature", "properties": { "plot": "BK_45_b", "year": 2011, "species_richness": 29, "subregion": "baviaanskloof" }, "geometry": { "type": "Point", "coordinates": [ 24.29177, -33.62244 ] } },
{ "type": "Feature", "properties": { "plot": "BK_46_a", "year": 2011, "species_richness": 42, "subregion": "baviaanskloof" }, "geometry": { "type": "Point", "coordinates": [ 24.30676, -33.68273 ] } },
{ "type": "Feature", "properties": { "plot": "BK_46_b", "year": 2011, "species_richness": 42, "subregion": "baviaanskloof" }, "geometry": { "type": "Point", "coordinates": [ 24.30676, -33.68273 ] } },
{ "type": "Feature", "properties": { "plot": "BK_47_a", "year": 2011, "species_richness": 26, "subregion": "baviaanskloof" }, "geometry": { "type": "Point", "coordinates": [ 24.30244, -33.66678 ] } },
{ "type": "Feature", "properties": { "plot": "BK_47_b", "year": 2011, "species_richness": 28, "subregion": "baviaanskloof" }, "geometry": { "type": "Point", "coordinates": [ 24.30244, -33.66678 ] } },
{ "type": "Feature", "properties": { "plot": "BK_48_a", "year": 2011, "species_richness": 33, "subregion": "baviaanskloof" }, "geometry": { "type": "Point", "coordinates": [ 24.29209, -33.65251 ] } },
{ "type": "Feature", "properties": { "plot": "BK_48_b", "year": 2011, "species_richness": 27, "subregion": "baviaanskloof" }, "geometry": { "type": "Point", "coordinates": [ 24.29209, -33.65251 ] } },
{ "type": "Feature", "properties": { "plot": "BK_49_a", "year": 2011, "species_richness": 25, "subregion": "baviaanskloof" }, "geometry": { "type": "Point", "coordinates": [ 24.29744, -33.653 ] } },
{ "type": "Feature", "properties": { "plot": "BK_49_b", "year": 2011, "species_richness": 24, "subregion": "baviaanskloof" }, "geometry": { "type": "Point", "coordinates": [ 24.29744, -33.653 ] } },
{ "type": "Feature", "properties": { "plot": "BK_4_a", "year": 2011, "species_richness": 31, "subregion": "baviaanskloof" }, "geometry": { "type": "Point", "coordinates": [ 24.07987, -33.53914 ] } },
{ "type": "Feature", "properties": { "plot": "BK_4_b", "year": 2011, "species_richness": 34, "subregion": "baviaanskloof" }, "geometry": { "type": "Point", "coordinates": [ 24.07987, -33.53914 ] } },
{ "type": "Feature", "properties": { "plot": "BK_50_a", "year": 2011, "species_richness": 39, "subregion": "baviaanskloof" }, "geometry": { "type": "Point", "coordinates": [ 24.29486, -33.62402 ] } },
{ "type": "Feature", "properties": { "plot": "BK_50_b", "year": 2011, "species_richness": 43, "subregion": "baviaanskloof" }, "geometry": { "type": "Point", "coordinates": [ 24.29486, -33.62402 ] } },
{ "type": "Feature", "properties": { "plot": "BK_51_a", "year": 2011, "species_richness": 45, "subregion": "baviaanskloof" }, "geometry": { "type": "Point", "coordinates": [ 24.2954, -33.6214 ] } },
{ "type": "Feature", "properties": { "plot": "BK_51_b", "year": 2011, "species_richness": 44, "subregion": "baviaanskloof" }, "geometry": { "type": "Point", "coordinates": [ 24.2954, -33.6214 ] } },
{ "type": "Feature", "properties": { "plot": "BK_52_a", "year": 2011, "species_richness": 28, "subregion": "baviaanskloof" }, "geometry": { "type": "Point", "coordinates": [ 24.28483, -33.63819 ] } },
{ "type": "Feature", "properties": { "plot": "BK_52_b", "year": 2011, "species_richness": 24, "subregion": "baviaanskloof" }, "geometry": { "type": "Point", "coordinates": [ 24.28483, -33.63819 ] } },
{ "type": "Feature", "properties": { "plot": "BK_53_a", "year": 2011, "species_richness": 25, "subregion": "baviaanskloof" }, "geometry": { "type": "Point", "coordinates": [ 24.40624, -33.6695 ] } },
{ "type": "Feature", "properties": { "plot": "BK_53_b", "year": 2011, "species_richness": 24, "subregion": "baviaanskloof" }, "geometry": { "type": "Point", "coordinates": [ 24.40624, -33.6695 ] } },
{ "type": "Feature", "properties": { "plot": "BK_54_a", "year": 2011, "species_richness": 44, "subregion": "baviaanskloof" }, "geometry": { "type": "Point", "coordinates": [ 24.41637, -33.6685 ] } },
{ "type": "Feature", "properties": { "plot": "BK_54_b", "year": 2011, "species_richness": 40, "subregion": "baviaanskloof" }, "geometry": { "type": "Point", "coordinates": [ 24.41637, -33.6685 ] } },
{ "type": "Feature", "properties": { "plot": "BK_55_a", "year": 2011, "species_richness": 38, "subregion": "baviaanskloof" }, "geometry": { "type": "Point", "coordinates": [ 24.4156, -33.67716 ] } },
{ "type": "Feature", "properties": { "plot": "BK_55_b", "year": 2011, "species_richness": 37, "subregion": "baviaanskloof" }, "geometry": { "type": "Point", "coordinates": [ 24.4156, -33.67716 ] } },
{ "type": "Feature", "properties": { "plot": "BK_56_a", "year": 2011, "species_richness": 24, "subregion": "baviaanskloof" }, "geometry": { "type": "Point", "coordinates": [ 24.40588, -33.65346 ] } },
{ "type": "Feature", "properties": { "plot": "BK_56_b", "year": 2011, "species_richness": 29, "subregion": "baviaanskloof" }, "geometry": { "type": "Point", "coordinates": [ 24.40588, -33.65346 ] } },
{ "type": "Feature", "properties": { "plot": "BK_57_a", "year": 2011, "species_richness": 25, "subregion": "baviaanskloof" }, "geometry": { "type": "Point", "coordinates": [ 24.38193, -33.64951 ] } },
{ "type": "Feature", "properties": { "plot": "BK_57_b", "year": 2011, "species_richness": 29, "subregion": "baviaanskloof" }, "geometry": { "type": "Point", "coordinates": [ 24.38193, -33.64951 ] } },
{ "type": "Feature", "properties": { "plot": "BK_58_a", "year": 2011, "species_richness": 22, "subregion": "baviaanskloof" }, "geometry": { "type": "Point", "coordinates": [ 24.38775, -33.61798 ] } },
{ "type": "Feature", "properties": { "plot": "BK_58_b", "year": 2011, "species_richness": 33, "subregion": "baviaanskloof" }, "geometry": { "type": "Point", "coordinates": [ 24.38775, -33.61798 ] } },
{ "type": "Feature", "properties": { "plot": "BK_59_a", "year": 2011, "species_richness": 29, "subregion": "baviaanskloof" }, "geometry": { "type": "Point", "coordinates": [ 24.22004, -33.65139 ] } },
{ "type": "Feature", "properties": { "plot": "BK_59_b", "year": 2011, "species_richness": 29, "subregion": "baviaanskloof" }, "geometry": { "type": "Point", "coordinates": [ 24.22004, -33.65139 ] } },
{ "type": "Feature", "properties": { "plot": "BK_5_a", "year": 2011, "species_richness": 34, "subregion": "baviaanskloof" }, "geometry": { "type": "Point", "coordinates": [ 24.07313, -33.55304 ] } },
{ "type": "Feature", "properties": { "plot": "BK_5_b", "year": 2011, "species_richness": 30, "subregion": "baviaanskloof" }, "geometry": { "type": "Point", "coordinates": [ 24.07313, -33.55304 ] } },
{ "type": "Feature", "properties": { "plot": "BK_60_a", "year": 2011, "species_richness": 37, "subregion": "baviaanskloof" }, "geometry": { "type": "Point", "coordinates": [ 24.20772, -33.67188 ] } },
{ "type": "Feature", "properties": { "plot": "BK_60_b", "year": 2011, "species_richness": 35, "subregion": "baviaanskloof" }, "geometry": { "type": "Point", "coordinates": [ 24.20772, -33.67188 ] } },
{ "type": "Feature", "properties": { "plot": "BK_61_a", "year": 2011, "species_richness": 27, "subregion": "baviaanskloof" }, "geometry": { "type": "Point", "coordinates": [ 24.2313, -33.73091 ] } },
{ "type": "Feature", "properties": { "plot": "BK_61_b", "year": 2011, "species_richness": 26, "subregion": "baviaanskloof" }, "geometry": { "type": "Point", "coordinates": [ 24.2313, -33.73091 ] } },
{ "type": "Feature", "properties": { "plot": "BK_62_a", "year": 2011, "species_richness": 53, "subregion": "baviaanskloof" }, "geometry": { "type": "Point", "coordinates": [ 24.22993, -33.73249 ] } },
{ "type": "Feature", "properties": { "plot": "BK_62_b", "year": 2011, "species_richness": 54, "subregion": "baviaanskloof" }, "geometry": { "type": "Point", "coordinates": [ 24.22993, -33.73249 ] } },
{ "type": "Feature", "properties": { "plot": "BK_63_a", "year": 2011, "species_richness": 38, "subregion": "baviaanskloof" }, "geometry": { "type": "Point", "coordinates": [ 24.30695, -33.71314 ] } },
{ "type": "Feature", "properties": { "plot": "BK_63_b", "year": 2011, "species_richness": 36, "subregion": "baviaanskloof" }, "geometry": { "type": "Point", "coordinates": [ 24.30695, -33.71314 ] } },
{ "type": "Feature", "properties": { "plot": "BK_64_a", "year": 2011, "species_richness": 38, "subregion": "baviaanskloof" }, "geometry": { "type": "Point", "coordinates": [ 24.31314, -33.69961 ] } },
{ "type": "Feature", "properties": { "plot": "BK_64_b", "year": 2011, "species_richness": 40, "subregion": "baviaanskloof" }, "geometry": { "type": "Point", "coordinates": [ 24.31314, -33.69961 ] } },
{ "type": "Feature", "properties": { "plot": "BK_65_a", "year": 2011, "species_richness": 62, "subregion": "baviaanskloof" }, "geometry": { "type": "Point", "coordinates": [ 24.31308, -33.69904 ] } },
{ "type": "Feature", "properties": { "plot": "BK_65_b", "year": 2011, "species_richness": 52, "subregion": "baviaanskloof" }, "geometry": { "type": "Point", "coordinates": [ 24.31308, -33.69904 ] } },
{ "type": "Feature", "properties": { "plot": "BK_66_a", "year": 2011, "species_richness": 31, "subregion": "baviaanskloof" }, "geometry": { "type": "Point", "coordinates": [ 24.34016, -33.68671 ] } },
{ "type": "Feature", "properties": { "plot": "BK_66_b", "year": 2011, "species_richness": 27, "subregion": "baviaanskloof" }, "geometry": { "type": "Point", "coordinates": [ 24.34016, -33.68671 ] } },
{ "type": "Feature", "properties": { "plot": "BK_67_a", "year": 2011, "species_richness": 21, "subregion": "baviaanskloof" }, "geometry": { "type": "Point", "coordinates": [ 24.37822, -33.69824 ] } },
{ "type": "Feature", "properties": { "plot": "BK_67_b", "year": 2011, "species_richness": 19, "subregion": "baviaanskloof" }, "geometry": { "type": "Point", "coordinates": [ 24.37822, -33.69824 ] } },
{ "type": "Feature", "properties": { "plot": "BK_68_a", "year": 2011, "species_richness": 22, "subregion": "baviaanskloof" }, "geometry": { "type": "Point", "coordinates": [ 24.3977, -33.6829 ] } },
{ "type": "Feature", "properties": { "plot": "BK_68_b", "year": 2011, "species_richness": 19, "subregion": "baviaanskloof" }, "geometry": { "type": "Point", "coordinates": [ 24.3977, -33.6829 ] } },
{ "type": "Feature", "properties": { "plot": "BK_69_a", "year": 2011, "species_richness": 18, "subregion": "baviaanskloof" }, "geometry": { "type": "Point", "coordinates": [ 24.36728, -33.69079 ] } },
{ "type": "Feature", "properties": { "plot": "BK_69_b", "year": 2011, "species_richness": 21, "subregion": "baviaanskloof" }, "geometry": { "type": "Point", "coordinates": [ 24.36728, -33.69079 ] } },
{ "type": "Feature", "properties": { "plot": "BK_6_a", "year": 2011, "species_richness": 47, "subregion": "baviaanskloof" }, "geometry": { "type": "Point", "coordinates": [ 24.20012, -33.70197 ] } },
{ "type": "Feature", "properties": { "plot": "BK_6_b", "year": 2011, "species_richness": 54, "subregion": "baviaanskloof" }, "geometry": { "type": "Point", "coordinates": [ 24.20012, -33.70197 ] } },
{ "type": "Feature", "properties": { "plot": "BK_70_a", "year": 2011, "species_richness": 18, "subregion": "baviaanskloof" }, "geometry": { "type": "Point", "coordinates": [ 24.38852, -33.67412 ] } },
{ "type": "Feature", "properties": { "plot": "BK_70_b", "year": 2011, "species_richness": 19, "subregion": "baviaanskloof" }, "geometry": { "type": "Point", "coordinates": [ 24.38852, -33.67412 ] } },
{ "type": "Feature", "properties": { "plot": "BK_71_a", "year": 2011, "species_richness": 31, "subregion": "baviaanskloof" }, "geometry": { "type": "Point", "coordinates": [ 24.42672, -33.61435 ] } },
{ "type": "Feature", "properties": { "plot": "BK_71_b", "year": 2011, "species_richness": 36, "subregion": "baviaanskloof" }, "geometry": { "type": "Point", "coordinates": [ 24.42672, -33.61435 ] } },
{ "type": "Feature", "properties": { "plot": "BK_72_a", "year": 2011, "species_richness": 33, "subregion": "baviaanskloof" }, "geometry": { "type": "Point", "coordinates": [ 24.40376, -33.60805 ] } },
{ "type": "Feature", "properties": { "plot": "BK_72_b", "year": 2011, "species_richness": 40, "subregion": "baviaanskloof" }, "geometry": { "type": "Point", "coordinates": [ 24.40376, -33.60805 ] } },
{ "type": "Feature", "properties": { "plot": "BK_73_a", "year": 2011, "species_richness": 30, "subregion": "baviaanskloof" }, "geometry": { "type": "Point", "coordinates": [ 24.40376, -33.60805 ] } },
{ "type": "Feature", "properties": { "plot": "BK_73_b", "year": 2011, "species_richness": 30, "subregion": "baviaanskloof" }, "geometry": { "type": "Point", "coordinates": [ 24.40376, -33.60805 ] } },
{ "type": "Feature", "properties": { "plot": "BK_74_a", "year": 2011, "species_richness": 35, "subregion": "baviaanskloof" }, "geometry": { "type": "Point", "coordinates": [ 24.39289, -33.58899 ] } },
{ "type": "Feature", "properties": { "plot": "BK_74_b", "year": 2011, "species_richness": 37, "subregion": "baviaanskloof" }, "geometry": { "type": "Point", "coordinates": [ 24.39289, -33.58899 ] } },
{ "type": "Feature", "properties": { "plot": "BK_75_a", "year": 2011, "species_richness": 34, "subregion": "baviaanskloof" }, "geometry": { "type": "Point", "coordinates": [ 24.39782, -33.59084 ] } },
{ "type": "Feature", "properties": { "plot": "BK_75_b", "year": 2011, "species_richness": 36, "subregion": "baviaanskloof" }, "geometry": { "type": "Point", "coordinates": [ 24.39782, -33.59084 ] } },
{ "type": "Feature", "properties": { "plot": "BK_76_a", "year": 2011, "species_richness": 34, "subregion": "baviaanskloof" }, "geometry": { "type": "Point", "coordinates": [ 24.37764, -33.5931 ] } },
{ "type": "Feature", "properties": { "plot": "BK_76_b", "year": 2011, "species_richness": 32, "subregion": "baviaanskloof" }, "geometry": { "type": "Point", "coordinates": [ 24.37764, -33.5931 ] } },
{ "type": "Feature", "properties": { "plot": "BK_77_a", "year": 2011, "species_richness": 26, "subregion": "baviaanskloof" }, "geometry": { "type": "Point", "coordinates": [ 24.1727, -33.63519 ] } },
{ "type": "Feature", "properties": { "plot": "BK_77_b", "year": 2011, "species_richness": 23, "subregion": "baviaanskloof" }, "geometry": { "type": "Point", "coordinates": [ 24.1727, -33.63519 ] } },
{ "type": "Feature", "properties": { "plot": "BK_78_a", "year": 2011, "species_richness": 30, "subregion": "baviaanskloof" }, "geometry": { "type": "Point", "coordinates": [ 24.33325, -33.75193 ] } },
{ "type": "Feature", "properties": { "plot": "BK_78_b", "year": 2011, "species_richness": 33, "subregion": "baviaanskloof" }, "geometry": { "type": "Point", "coordinates": [ 24.33325, -33.75193 ] } },
{ "type": "Feature", "properties": { "plot": "BK_79_a", "year": 2011, "species_richness": 32, "subregion": "baviaanskloof" }, "geometry": { "type": "Point", "coordinates": [ 24.33234, -33.7523 ] } },
{ "type": "Feature", "properties": { "plot": "BK_79_b", "year": 2011, "species_richness": 32, "subregion": "baviaanskloof" }, "geometry": { "type": "Point", "coordinates": [ 24.33234, -33.7523 ] } },
{ "type": "Feature", "properties": { "plot": "BK_7_a", "year": 2011, "species_richness": 36, "subregion": "baviaanskloof" }, "geometry": { "type": "Point", "coordinates": [ 24.23439, -33.63822 ] } },
{ "type": "Feature", "properties": { "plot": "BK_7_b", "year": 2011, "species_richness": 33, "subregion": "baviaanskloof" }, "geometry": { "type": "Point", "coordinates": [ 24.23439, -33.63822 ] } },
{ "type": "Feature", "properties": { "plot": "BK_80_a", "year": 2011, "species_richness": 16, "subregion": "baviaanskloof" }, "geometry": { "type": "Point", "coordinates": [ 24.31542, -33.7325 ] } },
{ "type": "Feature", "properties": { "plot": "BK_80_b", "year": 2011, "species_richness": 17, "subregion": "baviaanskloof" }, "geometry": { "type": "Point", "coordinates": [ 24.31542, -33.7325 ] } },
{ "type": "Feature", "properties": { "plot": "BK_81_a", "year": 2011, "species_richness": 35, "subregion": "baviaanskloof" }, "geometry": { "type": "Point", "coordinates": [ 24.31602, -33.73702 ] } },
{ "type": "Feature", "properties": { "plot": "BK_81_b", "year": 2011, "species_richness": 37, "subregion": "baviaanskloof" }, "geometry": { "type": "Point", "coordinates": [ 24.31602, -33.73702 ] } },
{ "type": "Feature", "properties": { "plot": "BK_82_a", "year": 2011, "species_richness": 46, "subregion": "baviaanskloof" }, "geometry": { "type": "Point", "coordinates": [ 24.20083, -33.77616 ] } },
{ "type": "Feature", "properties": { "plot": "BK_82_b", "year": 2011, "species_richness": 50, "subregion": "baviaanskloof" }, "geometry": { "type": "Point", "coordinates": [ 24.20083, -33.77616 ] } },
{ "type": "Feature", "properties": { "plot": "BK_83_a", "year": 2011, "species_richness": 47, "subregion": "baviaanskloof" }, "geometry": { "type": "Point", "coordinates": [ 24.20293, -33.77403 ] } },
{ "type": "Feature", "properties": { "plot": "BK_83_b", "year": 2011, "species_richness": 39, "subregion": "baviaanskloof" }, "geometry": { "type": "Point", "coordinates": [ 24.20293, -33.77403 ] } },
{ "type": "Feature", "properties": { "plot": "BK_84_a", "year": 2011, "species_richness": 39, "subregion": "baviaanskloof" }, "geometry": { "type": "Point", "coordinates": [ 24.20085, -33.74554 ] } },
{ "type": "Feature", "properties": { "plot": "BK_84_b", "year": 2011, "species_richness": 38, "subregion": "baviaanskloof" }, "geometry": { "type": "Point", "coordinates": [ 24.20085, -33.74554 ] } },
{ "type": "Feature", "properties": { "plot": "BK_85_a", "year": 2011, "species_richness": 42, "subregion": "baviaanskloof" }, "geometry": { "type": "Point", "coordinates": [ 24.05616, -33.64116 ] } },
{ "type": "Feature", "properties": { "plot": "BK_85_b", "year": 2011, "species_richness": 43, "subregion": "baviaanskloof" }, "geometry": { "type": "Point", "coordinates": [ 24.05616, -33.64116 ] } },
{ "type": "Feature", "properties": { "plot": "BK_86_a", "year": 2011, "species_richness": 29, "subregion": "baviaanskloof" }, "geometry": { "type": "Point", "coordinates": [ 24.05593, -33.63649 ] } },
{ "type": "Feature", "properties": { "plot": "BK_86_b", "year": 2011, "species_richness": 32, "subregion": "baviaanskloof" }, "geometry": { "type": "Point", "coordinates": [ 24.05593, -33.63649 ] } },
{ "type": "Feature", "properties": { "plot": "BK_87_a", "year": 2011, "species_richness": 24, "subregion": "baviaanskloof" }, "geometry": { "type": "Point", "coordinates": [ 24.05559, -33.62191 ] } },
{ "type": "Feature", "properties": { "plot": "BK_87_b", "year": 2011, "species_richness": 26, "subregion": "baviaanskloof" }, "geometry": { "type": "Point", "coordinates": [ 24.05559, -33.62191 ] } },
{ "type": "Feature", "properties": { "plot": "BK_88_a", "year": 2011, "species_richness": 37, "subregion": "baviaanskloof" }, "geometry": { "type": "Point", "coordinates": [ 24.2173, -33.57244 ] } },
{ "type": "Feature", "properties": { "plot": "BK_88_b", "year": 2011, "species_richness": 35, "subregion": "baviaanskloof" }, "geometry": { "type": "Point", "coordinates": [ 24.2173, -33.57244 ] } },
{ "type": "Feature", "properties": { "plot": "BK_89_a", "year": 2011, "species_richness": 33, "subregion": "baviaanskloof" }, "geometry": { "type": "Point", "coordinates": [ 24.21766, -33.57191 ] } },
{ "type": "Feature", "properties": { "plot": "BK_89_b", "year": 2011, "species_richness": 30, "subregion": "baviaanskloof" }, "geometry": { "type": "Point", "coordinates": [ 24.21766, -33.57191 ] } },
{ "type": "Feature", "properties": { "plot": "BK_8_a", "year": 2011, "species_richness": 61, "subregion": "baviaanskloof" }, "geometry": { "type": "Point", "coordinates": [ 24.20916, -33.67001 ] } },
{ "type": "Feature", "properties": { "plot": "BK_8_b", "year": 2011, "species_richness": 52, "subregion": "baviaanskloof" }, "geometry": { "type": "Point", "coordinates": [ 24.20916, -33.67001 ] } },
{ "type": "Feature", "properties": { "plot": "BK_90_a", "year": 2011, "species_richness": 44, "subregion": "baviaanskloof" }, "geometry": { "type": "Point", "coordinates": [ 24.10639, -33.67619 ] } },
{ "type": "Feature", "properties": { "plot": "BK_90_b", "year": 2011, "species_richness": 44, "subregion": "baviaanskloof" }, "geometry": { "type": "Point", "coordinates": [ 24.10639, -33.67619 ] } },
{ "type": "Feature", "properties": { "plot": "BK_91_a", "year": 2011, "species_richness": 22, "subregion": "baviaanskloof" }, "geometry": { "type": "Point", "coordinates": [ 24.06475, -33.69482 ] } },
{ "type": "Feature", "properties": { "plot": "BK_91_b", "year": 2011, "species_richness": 22, "subregion": "baviaanskloof" }, "geometry": { "type": "Point", "coordinates": [ 24.06475, -33.69482 ] } },
{ "type": "Feature", "properties": { "plot": "BK_92_a", "year": 2011, "species_richness": 34, "subregion": "baviaanskloof" }, "geometry": { "type": "Point", "coordinates": [ 24.06479, -33.69536 ] } },
{ "type": "Feature", "properties": { "plot": "BK_92_b", "year": 2011, "species_richness": 27, "subregion": "baviaanskloof" }, "geometry": { "type": "Point", "coordinates": [ 24.06479, -33.69536 ] } },
{ "type": "Feature", "properties": { "plot": "BK_93_a", "year": 2011, "species_richness": 18, "subregion": "baviaanskloof" }, "geometry": { "type": "Point", "coordinates": [ 24.0653, -33.6924 ] } },
{ "type": "Feature", "properties": { "plot": "BK_93_b", "year": 2011, "species_richness": 18, "subregion": "baviaanskloof" }, "geometry": { "type": "Point", "coordinates": [ 24.0653, -33.6924 ] } },
{ "type": "Feature", "properties": { "plot": "BK_94_a", "year": 2011, "species_richness": 31, "subregion": "baviaanskloof" }, "geometry": { "type": "Point", "coordinates": [ 24.07276, -33.69355 ] } },
{ "type": "Feature", "properties": { "plot": "BK_94_b", "year": 2011, "species_richness": 33, "subregion": "baviaanskloof" }, "geometry": { "type": "Point", "coordinates": [ 24.07276, -33.69355 ] } },
{ "type": "Feature", "properties": { "plot": "BK_95_a", "year": 2011, "species_richness": 32, "subregion": "baviaanskloof" }, "geometry": { "type": "Point", "coordinates": [ 24.37709, -33.60734 ] } },
{ "type": "Feature", "properties": { "plot": "BK_95_b", "year": 2011, "species_richness": 31, "subregion": "baviaanskloof" }, "geometry": { "type": "Point", "coordinates": [ 24.37709, -33.60734 ] } },
{ "type": "Feature", "properties": { "plot": "BK_96_a", "year": 2011, "species_richness": 35, "subregion": "baviaanskloof" }, "geometry": { "type": "Point", "coordinates": [ 24.3587, -33.60444 ] } },
{ "type": "Feature", "properties": { "plot": "BK_96_b", "year": 2011, "species_richness": 36, "subregion": "baviaanskloof" }, "geometry": { "type": "Point", "coordinates": [ 24.3587, -33.60444 ] } },
{ "type": "Feature", "properties": { "plot": "BK_97_a", "year": 2011, "species_richness": 25, "subregion": "baviaanskloof" }, "geometry": { "type": "Point", "coordinates": [ 24.35771, -33.60305 ] } },
{ "type": "Feature", "properties": { "plot": "BK_97_b", "year": 2011, "species_richness": 29, "subregion": "baviaanskloof" }, "geometry": { "type": "Point", "coordinates": [ 24.35771, -33.60305 ] } },
{ "type": "Feature", "properties": { "plot": "BK_98_a", "year": 2011, "species_richness": 42, "subregion": "baviaanskloof" }, "geometry": { "type": "Point", "coordinates": [ 24.35669, -33.5916 ] } },
{ "type": "Feature", "properties": { "plot": "BK_98_b", "year": 2011, "species_richness": 50, "subregion": "baviaanskloof" }, "geometry": { "type": "Point", "coordinates": [ 24.35669, -33.5916 ] } },
{ "type": "Feature", "properties": { "plot": "BK_99_a", "year": 2011, "species_richness": 37, "subregion": "baviaanskloof" }, "geometry": { "type": "Point", "coordinates": [ 24.47795, -33.66263 ] } },
{ "type": "Feature", "properties": { "plot": "BK_99_b", "year": 2011, "species_richness": 39, "subregion": "baviaanskloof" }, "geometry": { "type": "Point", "coordinates": [ 24.47795, -33.66263 ] } },
{ "type": "Feature", "properties": { "plot": "BK_9_a", "year": 2011, "species_richness": 16, "subregion": "baviaanskloof" }, "geometry": { "type": "Point", "coordinates": [ 24.23571, -33.63897 ] } },
{ "type": "Feature", "properties": { "plot": "BK_9_b", "year": 2011, "species_richness": 18, "subregion": "baviaanskloof" }, "geometry": { "type": "Point", "coordinates": [ 24.23571, -33.63897 ] } }
]
}
