{
"type": "FeatureCollection",
"name": "cederberg_releve",
"crs": { "type": "name", "properties": { "name": "urn:ogc:def:crs:OGC:1.3:CRS84" } },
"features": [
{ "type": "Feature", "properties": { "plot": "CB_1", "year": 1996, "species_richness": 24, "subregion": "cederberg" }, "geometry": { "type": "Point", "coordinates": [ 19.03111111, -32.14972222 ] } },
{ "type": "Feature", "properties": { "plot": "CB_10", "year": 1996, "species_richness": 21, "subregion": "cederberg" }, "geometry": { "type": "Point", "coordinates": [ 18.99027778, -32.13527778 ] } },
{ "type": "Feature", "properties": { "plot": "CB_100", "year": 1996, "species_richness": 5, "subregion": "cederberg" }, "geometry": { "type": "Point", "coordinates": [ 19.07972222, -32.22333333 ] } },
{ "type": "Feature", "properties": { "plot": "CB_101", "year": 1996, "species_richness": 11, "subregion": "cederberg" }, "geometry": { "type": "Point", "coordinates": [ 19.07694444, -32.22333333 ] } },
{ "type": "Feature", "properties": { "plot": "CB_102", "year": 1996, "species_richness": 14, "subregion": "cederberg" }, "geometry": { "type": "Point", "coordinates": [ 19.07527778, -32.22222222 ] } },
{ "type": "Feature", "properties": { "plot": "CB_103", "year": 1996, "species_richness": 11, "subregion": "cederberg" }, "geometry": { "type": "Point", "coordinates": [ 19.07638889, -32.22083333 ] } },
{ "type": "Feature", "properties": { "plot": "CB_104", "year": 1996, "species_richness": 8, "subregion": "cederberg" }, "geometry": { "type": "Point", "coordinates": [ 19.0775, -32.22138889 ] } },
{ "type": "Feature", "properties": { "plot": "CB_105", "year": 1996, "species_richness": 10, "subregion": "cederberg" }, "geometry": { "type": "Point", "coordinates": [ 19.08055556, -32.22083333 ] } },
{ "type": "Feature", "properties": { "plot": "CB_106", "year": 1996, "species_richness": 11, "subregion": "cederberg" }, "geometry": { "type": "Point", "coordinates": [ 19.08083333, -32.21972222 ] } },
{ "type": "Feature", "properties": { "plot": "CB_107", "year": 1996, "species_richness": 28, "subregion": "cederberg" }, "geometry": { "type": "Point", "coordinates": [ 19.20611111, -32.43166667 ] } },
{ "type": "Feature", "properties": { "plot": "CB_108", "year": 1996, "species_richness": 15, "subregion": "cederberg" }, "geometry": { "type": "Point", "coordinates": [ 19.20638889, -32.43027778 ] } },
{ "type": "Feature", "properties": { "plot": "CB_109", "year": 1996, "species_richness": 23, "subregion": "cederberg" }, "geometry": { "type": "Point", "coordinates": [ 19.21416667, -32.43361111 ] } },
{ "type": "Feature", "properties": { "plot": "CB_11", "year": 1996, "species_richness": 17, "subregion": "cederberg" }, "geometry": { "type": "Point", "coordinates": [ 19.03222222, -32.15194444 ] } },
{ "type": "Feature", "properties": { "plot": "CB_110", "year": 1996, "species_richness": 8, "subregion": "cederberg" }, "geometry": { "type": "Point", "coordinates": [ 19.16555556, -32.39916667 ] } },
{ "type": "Feature", "properties": { "plot": "CB_111", "year": 1996, "species_richness": 10, "subregion": "cederberg" }, "geometry": { "type": "Point", "coordinates": [ 19.16, -32.40083333 ] } },
{ "type": "Feature", "properties": { "plot": "CB_112", "year": 1996, "species_richness": 10, "subregion": "cederberg" }, "geometry": { "type": "Point", "coordinates": [ 19.15944444, -32.40222222 ] } },
{ "type": "Feature", "properties": { "plot": "CB_113", "year": 1996, "species_richness": 17, "subregion": "cederberg" }, "geometry": { "type": "Point", "coordinates": [ 19.15555556, -32.39888889 ] } },
{ "type": "Feature", "properties": { "plot": "CB_114", "year": 1996, "species_richness": 11, "subregion": "cederberg" }, "geometry": { "type": "Point", "coordinates": [ 19.15277778, -32.39472222 ] } },
{ "type": "Feature", "properties": { "plot": "CB_115", "year": 1996, "species_richness": 15, "subregion": "cederberg" }, "geometry": { "type": "Point", "coordinates": [ 19.18944444, -32.41388889 ] } },
{ "type": "Feature", "properties": { "plot": "CB_116", "year": 1996, "species_richness": 9, "subregion": "cederberg" }, "geometry": { "type": "Point", "coordinates": [ 19.225, -32.44333333 ] } },
{ "type": "Feature", "properties": { "plot": "CB_117", "year": 1996, "species_richness": 13, "subregion": "cederberg" }, "geometry": { "type": "Point", "coordinates": [ 19.22194444, -32.44638889 ] } },
{ "type": "Feature", "properties": { "plot": "CB_118", "year": 1996, "species_richness": 19, "subregion": "cederberg" }, "geometry": { "type": "Point", "coordinates": [ 19.235, -32.44972222 ] } },
{ "type": "Feature", "properties": { "plot": "CB_119", "year": 1996, "species_richness": 12, "subregion": "cederberg" }, "geometry": { "type": "Point", "coordinates": [ 19.18416667, -32.4125 ] } },
{ "type": "Feature", "properties": { "plot": "CB_12", "year": 1996, "species_richness": 25, "subregion": "cederberg" }, "geometry": { "type": "Point", "coordinates": [ 19.03277778, -32.15638889 ] } },
{ "type": "Feature", "properties": { "plot": "CB_120", "year": 1996, "species_richness": 18, "subregion": "cederberg" }, "geometry": { "type": "Point", "coordinates": [ 19.18722222, -32.41083333 ] } },
{ "type": "Feature", "properties": { "plot": "CB_121", "year": 1996, "species_richness": 18, "subregion": "cederberg" }, "geometry": { "type": "Point", "coordinates": [ 19.165, -32.39861111 ] } },
{ "type": "Feature", "properties": { "plot": "CB_122", "year": 1996, "species_richness": 11, "subregion": "cederberg" }, "geometry": { "type": "Point", "coordinates": [ 19.18222222, -32.405 ] } },
{ "type": "Feature", "properties": { "plot": "CB_123", "year": 1996, "species_richness": 22, "subregion": "cederberg" }, "geometry": { "type": "Point", "coordinates": [ 19.17222222, -32.41305556 ] } },
{ "type": "Feature", "properties": { "plot": "CB_124", "year": 1996, "species_richness": 23, "subregion": "cederberg" }, "geometry": { "type": "Point", "coordinates": [ 19.015, -32.1325 ] } },
{ "type": "Feature", "properties": { "plot": "CB_126", "year": 1996, "species_richness": 18, "subregion": "cederberg" }, "geometry": { "type": "Point", "coordinates": [ 19.01222222, -32.13 ] } },
{ "type": "Feature", "properties": { "plot": "CB_127", "year": 1996, "species_richness": 26, "subregion": "cederberg" }, "geometry": { "type": "Point", "coordinates": [ 19.01333333, -32.12805556 ] } },
{ "type": "Feature", "properties": { "plot": "CB_128", "year": 1996, "species_richness": 24, "subregion": "cederberg" }, "geometry": { "type": "Point", "coordinates": [ 19.01583333, -32.12888889 ] } },
{ "type": "Feature", "properties": { "plot": "CB_129", "year": 1996, "species_richness": 28, "subregion": "cederberg" }, "geometry": { "type": "Point", "coordinates": [ 19.01777778, -32.12583333 ] } },
{ "type": "Feature", "properties": { "plot": "CB_130", "year": 1996, "species_richness": 21, "subregion": "cederberg" }, "geometry": { "type": "Point", "coordinates": [ 19.01333333, -32.12666667 ] } },
{ "type": "Feature", "properties": { "plot": "CB_131", "year": 1996, "species_richness": 37, "subregion": "cederberg" }, "geometry": { "type": "Point", "coordinates": [ 19.01361111, -32.12527778 ] } },
{ "type": "Feature", "properties": { "plot": "CB_132", "year": 1996, "species_richness": 28, "subregion": "cederberg" }, "geometry": { "type": "Point", "coordinates": [ 19.01083333, -32.12388889 ] } },
{ "type": "Feature", "properties": { "plot": "CB_133", "year": 1996, "species_richness": 16, "subregion": "cederberg" }, "geometry": { "type": "Point", "coordinates": [ 19.00916667, -32.12222222 ] } },
{ "type": "Feature", "properties": { "plot": "CB_134", "year": 1996, "species_richness": 23, "subregion": "cederberg" }, "geometry": { "type": "Point", "coordinates": [ 19.0075, -32.11972222 ] } },
{ "type": "Feature", "properties": { "plot": "CB_135", "year": 1996, "species_richness": 19, "subregion": "cederberg" }, "geometry": { "type": "Point", "coordinates": [ 19.0025, -32.1175 ] } },
{ "type": "Feature", "properties": { "plot": "CB_136", "year": 1996, "species_richness": 17, "subregion": "cederberg" }, "geometry": { "type": "Point", "coordinates": [ 19.01305556, -32.12138889 ] } },
{ "type": "Feature", "properties": { "plot": "CB_137", "year": 1996, "species_richness": 21, "subregion": "cederberg" }, "geometry": { "type": "Point", "coordinates": [ 19.00722222, -32.11777778 ] } },
{ "type": "Feature", "properties": { "plot": "CB_138", "year": 1996, "species_richness": 21, "subregion": "cederberg" }, "geometry": { "type": "Point", "coordinates": [ 19.00166667, -32.11472222 ] } },
{ "type": "Feature", "properties": { "plot": "CB_139", "year": 1996, "species_richness": 17, "subregion": "cederberg" }, "geometry": { "type": "Point", "coordinates": [ 19.00111111, -32.11638889 ] } },
{ "type": "Feature", "properties": { "plot": "CB_14", "year": 1996, "species_richness": 28, "subregion": "cederberg" }, "geometry": { "type": "Point", "coordinates": [ 19.00944444, -32.15305556 ] } },
{ "type": "Feature", "properties": { "plot": "CB_140", "year": 1996, "species_richness": 18, "subregion": "cederberg" }, "geometry": { "type": "Point", "coordinates": [ 19.03222222, -32.11416667 ] } },
{ "type": "Feature", "properties": { "plot": "CB_141", "year": 1996, "species_richness": 19, "subregion": "cederberg" }, "geometry": { "type": "Point", "coordinates": [ 18.96777778, -32.10333333 ] } },
{ "type": "Feature", "properties": { "plot": "CB_142", "year": 1996, "species_richness": 27, "subregion": "cederberg" }, "geometry": { "type": "Point", "coordinates": [ 19.03666667, -32.135 ] } },
{ "type": "Feature", "properties": { "plot": "CB_143", "year": 1996, "species_richness": 16, "subregion": "cederberg" }, "geometry": { "type": "Point", "coordinates": [ 19.03472222, -32.13416667 ] } },
{ "type": "Feature", "properties": { "plot": "CB_144", "year": 1996, "species_richness": 29, "subregion": "cederberg" }, "geometry": { "type": "Point", "coordinates": [ 19.0325, -32.13416667 ] } },
{ "type": "Feature", "properties": { "plot": "CB_145", "year": 1996, "species_richness": 23, "subregion": "cederberg" }, "geometry": { "type": "Point", "coordinates": [ 19.07361111, -32.21833333 ] } },
{ "type": "Feature", "properties": { "plot": "CB_146", "year": 1996, "species_richness": 29, "subregion": "cederberg" }, "geometry": { "type": "Point", "coordinates": [ 19.07666667, -32.21472222 ] } },
{ "type": "Feature", "properties": { "plot": "CB_147", "year": 1996, "species_richness": 3, "subregion": "cederberg" }, "geometry": { "type": "Point", "coordinates": [ 19.06861111, -32.23777778 ] } },
{ "type": "Feature", "properties": { "plot": "CB_148", "year": 1996, "species_richness": 8, "subregion": "cederberg" }, "geometry": { "type": "Point", "coordinates": [ 19.06583333, -32.23361111 ] } },
{ "type": "Feature", "properties": { "plot": "CB_149", "year": 1996, "species_richness": 2, "subregion": "cederberg" }, "geometry": { "type": "Point", "coordinates": [ 19.065, -32.23388889 ] } },
{ "type": "Feature", "properties": { "plot": "CB_15", "year": 1996, "species_richness": 22, "subregion": "cederberg" }, "geometry": { "type": "Point", "coordinates": [ 19.00972222, -32.15444444 ] } },
{ "type": "Feature", "properties": { "plot": "CB_150", "year": 1996, "species_richness": 5, "subregion": "cederberg" }, "geometry": { "type": "Point", "coordinates": [ 19.06777778, -32.23472222 ] } },
{ "type": "Feature", "properties": { "plot": "CB_151", "year": 1996, "species_richness": 11, "subregion": "cederberg" }, "geometry": { "type": "Point", "coordinates": [ 19.02666667, -32.11805556 ] } },
{ "type": "Feature", "properties": { "plot": "CB_152", "year": 1996, "species_richness": 15, "subregion": "cederberg" }, "geometry": { "type": "Point", "coordinates": [ 19.02472222, -32.11805556 ] } },
{ "type": "Feature", "properties": { "plot": "CB_153", "year": 1996, "species_richness": 19, "subregion": "cederberg" }, "geometry": { "type": "Point", "coordinates": [ 19.02027778, -32.11805556 ] } },
{ "type": "Feature", "properties": { "plot": "CB_154", "year": 1996, "species_richness": 17, "subregion": "cederberg" }, "geometry": { "type": "Point", "coordinates": [ 19.08027778, -32.22138889 ] } },
{ "type": "Feature", "properties": { "plot": "CB_155", "year": 1996, "species_richness": 21, "subregion": "cederberg" }, "geometry": { "type": "Point", "coordinates": [ 19.08583333, -32.21361111 ] } },
{ "type": "Feature", "properties": { "plot": "CB_156", "year": 1996, "species_richness": 27, "subregion": "cederberg" }, "geometry": { "type": "Point", "coordinates": [ 19.08361111, -32.20805556 ] } },
{ "type": "Feature", "properties": { "plot": "CB_157", "year": 1996, "species_richness": 12, "subregion": "cederberg" }, "geometry": { "type": "Point", "coordinates": [ 19.09, -32.21111111 ] } },
{ "type": "Feature", "properties": { "plot": "CB_16", "year": 1996, "species_richness": 26, "subregion": "cederberg" }, "geometry": { "type": "Point", "coordinates": [ 19.0175, -32.15305556 ] } },
{ "type": "Feature", "properties": { "plot": "CB_161", "year": 1996, "species_richness": 5, "subregion": "cederberg" }, "geometry": { "type": "Point", "coordinates": [ 19.08527778, -32.22833333 ] } },
{ "type": "Feature", "properties": { "plot": "CB_164", "year": 1996, "species_richness": 10, "subregion": "cederberg" }, "geometry": { "type": "Point", "coordinates": [ 19.07388889, -32.23527778 ] } },
{ "type": "Feature", "properties": { "plot": "CB_165", "year": 1996, "species_richness": 3, "subregion": "cederberg" }, "geometry": { "type": "Point", "coordinates": [ 19.09972222, -32.26222222 ] } },
{ "type": "Feature", "properties": { "plot": "CB_166", "year": 1996, "species_richness": 5, "subregion": "cederberg" }, "geometry": { "type": "Point", "coordinates": [ 19.08694444, -32.25833333 ] } },
{ "type": "Feature", "properties": { "plot": "CB_168", "year": 1996, "species_richness": 10, "subregion": "cederberg" }, "geometry": { "type": "Point", "coordinates": [ 19.07166667, -32.22472222 ] } },
{ "type": "Feature", "properties": { "plot": "CB_169", "year": 1996, "species_richness": 6, "subregion": "cederberg" }, "geometry": { "type": "Point", "coordinates": [ 19.05944444, -32.22666667 ] } },
{ "type": "Feature", "properties": { "plot": "CB_17", "year": 1996, "species_richness": 15, "subregion": "cederberg" }, "geometry": { "type": "Point", "coordinates": [ 18.98277778, -32.18444444 ] } },
{ "type": "Feature", "properties": { "plot": "CB_170", "year": 1996, "species_richness": 1, "subregion": "cederberg" }, "geometry": { "type": "Point", "coordinates": [ 19.06388889, -32.22777778 ] } },
{ "type": "Feature", "properties": { "plot": "CB_177", "year": 1996, "species_richness": 17, "subregion": "cederberg" }, "geometry": { "type": "Point", "coordinates": [ 19.24027778, -32.43916667 ] } },
{ "type": "Feature", "properties": { "plot": "CB_18", "year": 1996, "species_richness": 19, "subregion": "cederberg" }, "geometry": { "type": "Point", "coordinates": [ 18.99833333, -32.16833333 ] } },
{ "type": "Feature", "properties": { "plot": "CB_181", "year": 1996, "species_richness": 9, "subregion": "cederberg" }, "geometry": { "type": "Point", "coordinates": [ 18.96527778, -32.12194444 ] } },
{ "type": "Feature", "properties": { "plot": "CB_182", "year": 1996, "species_richness": 11, "subregion": "cederberg" }, "geometry": { "type": "Point", "coordinates": [ 18.95722222, -32.11972222 ] } },
{ "type": "Feature", "properties": { "plot": "CB_183", "year": 1996, "species_richness": 11, "subregion": "cederberg" }, "geometry": { "type": "Point", "coordinates": [ 18.95361111, -32.12055556 ] } },
{ "type": "Feature", "properties": { "plot": "CB_184", "year": 1996, "species_richness": 19, "subregion": "cederberg" }, "geometry": { "type": "Point", "coordinates": [ 18.99861111, -32.12916667 ] } },
{ "type": "Feature", "properties": { "plot": "CB_185", "year": 1996, "species_richness": 12, "subregion": "cederberg" }, "geometry": { "type": "Point", "coordinates": [ 18.98611111, -32.12722222 ] } },
{ "type": "Feature", "properties": { "plot": "CB_186", "year": 1996, "species_richness": 11, "subregion": "cederberg" }, "geometry": { "type": "Point", "coordinates": [ 18.9775, -32.12555556 ] } },
{ "type": "Feature", "properties": { "plot": "CB_187", "year": 1996, "species_richness": 13, "subregion": "cederberg" }, "geometry": { "type": "Point", "coordinates": [ 18.97277778, -32.12361111 ] } },
{ "type": "Feature", "properties": { "plot": "CB_189", "year": 1996, "species_richness": 9, "subregion": "cederberg" }, "geometry": { "type": "Point", "coordinates": [ 18.99888889, -32.165 ] } },
{ "type": "Feature", "properties": { "plot": "CB_190", "year": 1996, "species_richness": 18, "subregion": "cederberg" }, "geometry": { "type": "Point", "coordinates": [ 18.98555556, -32.16861111 ] } },
{ "type": "Feature", "properties": { "plot": "CB_191", "year": 1996, "species_richness": 13, "subregion": "cederberg" }, "geometry": { "type": "Point", "coordinates": [ 18.99555556, -32.16611111 ] } },
{ "type": "Feature", "properties": { "plot": "CB_2", "year": 1996, "species_richness": 15, "subregion": "cederberg" }, "geometry": { "type": "Point", "coordinates": [ 19.0375, -32.16333333 ] } },
{ "type": "Feature", "properties": { "plot": "CB_20", "year": 1996, "species_richness": 22, "subregion": "cederberg" }, "geometry": { "type": "Point", "coordinates": [ 18.99416667, -32.17388889 ] } },
{ "type": "Feature", "properties": { "plot": "CB_21", "year": 1996, "species_richness": 8, "subregion": "cederberg" }, "geometry": { "type": "Point", "coordinates": [ 18.99361111, -32.17277778 ] } },
{ "type": "Feature", "properties": { "plot": "CB_22", "year": 1996, "species_richness": 28, "subregion": "cederberg" }, "geometry": { "type": "Point", "coordinates": [ 19.15361111, -32.40666667 ] } },
{ "type": "Feature", "properties": { "plot": "CB_23", "year": 1996, "species_richness": 15, "subregion": "cederberg" }, "geometry": { "type": "Point", "coordinates": [ 19.16083333, -32.41166667 ] } },
{ "type": "Feature", "properties": { "plot": "CB_24", "year": 1996, "species_richness": 19, "subregion": "cederberg" }, "geometry": { "type": "Point", "coordinates": [ 19.15027778, -32.40305556 ] } },
{ "type": "Feature", "properties": { "plot": "CB_25", "year": 1996, "species_richness": 19, "subregion": "cederberg" }, "geometry": { "type": "Point", "coordinates": [ 19.16305556, -32.40722222 ] } },
{ "type": "Feature", "properties": { "plot": "CB_26", "year": 1996, "species_richness": 18, "subregion": "cederberg" }, "geometry": { "type": "Point", "coordinates": [ 19.17222222, -32.42055556 ] } },
{ "type": "Feature", "properties": { "plot": "CB_27", "year": 1996, "species_richness": 22, "subregion": "cederberg" }, "geometry": { "type": "Point", "coordinates": [ 19.17222222, -32.40777778 ] } },
{ "type": "Feature", "properties": { "plot": "CB_28", "year": 1996, "species_richness": 18, "subregion": "cederberg" }, "geometry": { "type": "Point", "coordinates": [ 19.17, -32.41027778 ] } },
{ "type": "Feature", "properties": { "plot": "CB_29", "year": 1996, "species_richness": 28, "subregion": "cederberg" }, "geometry": { "type": "Point", "coordinates": [ 19.17166667, -32.41916667 ] } },
{ "type": "Feature", "properties": { "plot": "CB_3", "year": 1996, "species_richness": 15, "subregion": "cederberg" }, "geometry": { "type": "Point", "coordinates": [ 19.04583333, -32.16861111 ] } },
{ "type": "Feature", "properties": { "plot": "CB_30", "year": 1996, "species_richness": 16, "subregion": "cederberg" }, "geometry": { "type": "Point", "coordinates": [ 19.21222222, -32.43472222 ] } },
{ "type": "Feature", "properties": { "plot": "CB_31", "year": 1996, "species_richness": 10, "subregion": "cederberg" }, "geometry": { "type": "Point", "coordinates": [ 19.17805556, -32.42888889 ] } },
{ "type": "Feature", "properties": { "plot": "CB_32", "year": 1996, "species_richness": 13, "subregion": "cederberg" }, "geometry": { "type": "Point", "coordinates": [ 19.18166667, -32.43166667 ] } },
{ "type": "Feature", "properties": { "plot": "CB_33", "year": 1996, "species_richness": 19, "subregion": "cederberg" }, "geometry": { "type": "Point", "coordinates": [ 19.18138889, -32.42388889 ] } },
{ "type": "Feature", "properties": { "plot": "CB_34", "year": 1996, "species_richness": 32, "subregion": "cederberg" }, "geometry": { "type": "Point", "coordinates": [ 19.18416667, -32.42027778 ] } },
{ "type": "Feature", "properties": { "plot": "CB_35", "year": 1996, "species_richness": 22, "subregion": "cederberg" }, "geometry": { "type": "Point", "coordinates": [ 19.18027778, -32.41638889 ] } },
{ "type": "Feature", "properties": { "plot": "CB_36", "year": 1996, "species_richness": 17, "subregion": "cederberg" }, "geometry": { "type": "Point", "coordinates": [ 19.17, -32.41305556 ] } },
{ "type": "Feature", "properties": { "plot": "CB_37", "year": 1996, "species_richness": 22, "subregion": "cederberg" }, "geometry": { "type": "Point", "coordinates": [ 19.22361111, -32.44611111 ] } },
{ "type": "Feature", "properties": { "plot": "CB_38", "year": 1996, "species_richness": 22, "subregion": "cederberg" }, "geometry": { "type": "Point", "coordinates": [ 19.22527778, -32.44472222 ] } },
{ "type": "Feature", "properties": { "plot": "CB_39", "year": 1996, "species_richness": 13, "subregion": "cederberg" }, "geometry": { "type": "Point", "coordinates": [ 19.21527778, -32.43694444 ] } },
{ "type": "Feature", "properties": { "plot": "CB_4", "year": 1996, "species_richness": 20, "subregion": "cederberg" }, "geometry": { "type": "Point", "coordinates": [ 18.98, -32.15 ] } },
{ "type": "Feature", "properties": { "plot": "CB_40", "year": 1996, "species_richness": 11, "subregion": "cederberg" }, "geometry": { "type": "Point", "coordinates": [ 19.21472222, -32.43972222 ] } },
{ "type": "Feature", "properties": { "plot": "CB_41", "year": 1996, "species_richness": 17, "subregion": "cederberg" }, "geometry": { "type": "Point", "coordinates": [ 19.22111111, -32.44194444 ] } },
{ "type": "Feature", "properties": { "plot": "CB_42", "year": 1996, "species_richness": 17, "subregion": "cederberg" }, "geometry": { "type": "Point", "coordinates": [ 19.20638889, -32.44472222 ] } },
{ "type": "Feature", "properties": { "plot": "CB_43", "year": 1996, "species_richness": 31, "subregion": "cederberg" }, "geometry": { "type": "Point", "coordinates": [ 19.20805556, -32.44305556 ] } },
{ "type": "Feature", "properties": { "plot": "CB_44", "year": 1996, "species_richness": 24, "subregion": "cederberg" }, "geometry": { "type": "Point", "coordinates": [ 19.05361111, -32.20694444 ] } },
{ "type": "Feature", "properties": { "plot": "CB_45", "year": 1996, "species_richness": 6, "subregion": "cederberg" }, "geometry": { "type": "Point", "coordinates": [ 19.09916667, -32.27277778 ] } },
{ "type": "Feature", "properties": { "plot": "CB_46", "year": 1996, "species_richness": 24, "subregion": "cederberg" }, "geometry": { "type": "Point", "coordinates": [ 19.08388889, -32.2125 ] } },
{ "type": "Feature", "properties": { "plot": "CB_47", "year": 1996, "species_richness": 12, "subregion": "cederberg" }, "geometry": { "type": "Point", "coordinates": [ 19.07833333, -32.19305556 ] } },
{ "type": "Feature", "properties": { "plot": "CB_48", "year": 1996, "species_richness": 18, "subregion": "cederberg" }, "geometry": { "type": "Point", "coordinates": [ 18.97972222, -32.13944444 ] } },
{ "type": "Feature", "properties": { "plot": "CB_49", "year": 1996, "species_richness": 12, "subregion": "cederberg" }, "geometry": { "type": "Point", "coordinates": [ 18.99666667, -32.18527778 ] } },
{ "type": "Feature", "properties": { "plot": "CB_5", "year": 1996, "species_richness": 18, "subregion": "cederberg" }, "geometry": { "type": "Point", "coordinates": [ 18.975, -32.14583333 ] } },
{ "type": "Feature", "properties": { "plot": "CB_50", "year": 1996, "species_richness": 9, "subregion": "cederberg" }, "geometry": { "type": "Point", "coordinates": [ 19.02666667, -32.17833333 ] } },
{ "type": "Feature", "properties": { "plot": "CB_51", "year": 1996, "species_richness": 5, "subregion": "cederberg" }, "geometry": { "type": "Point", "coordinates": [ 19.02472222, -32.17472222 ] } },
{ "type": "Feature", "properties": { "plot": "CB_52", "year": 1996, "species_richness": 12, "subregion": "cederberg" }, "geometry": { "type": "Point", "coordinates": [ 19.02333333, -32.17361111 ] } },
{ "type": "Feature", "properties": { "plot": "CB_53", "year": 1996, "species_richness": 19, "subregion": "cederberg" }, "geometry": { "type": "Point", "coordinates": [ 19.00638889, -32.15305556 ] } },
{ "type": "Feature", "properties": { "plot": "CB_54", "year": 1996, "species_richness": 29, "subregion": "cederberg" }, "geometry": { "type": "Point", "coordinates": [ 19.06222222, -32.1725 ] } },
{ "type": "Feature", "properties": { "plot": "CB_55", "year": 1996, "species_richness": 14, "subregion": "cederberg" }, "geometry": { "type": "Point", "coordinates": [ 19.06416667, -32.17277778 ] } },
{ "type": "Feature", "properties": { "plot": "CB_56", "year": 1996, "species_richness": 12, "subregion": "cederberg" }, "geometry": { "type": "Point", "coordinates": [ 19.02888889, -32.18277778 ] } },
{ "type": "Feature", "properties": { "plot": "CB_57", "year": 1996, "species_richness": 12, "subregion": "cederberg" }, "geometry": { "type": "Point", "coordinates": [ 19.03138889, -32.18333333 ] } },
{ "type": "Feature", "properties": { "plot": "CB_58", "year": 1996, "species_richness": 6, "subregion": "cederberg" }, "geometry": { "type": "Point", "coordinates": [ 19.04277778, -32.18277778 ] } },
{ "type": "Feature", "properties": { "plot": "CB_59", "year": 1996, "species_richness": 6, "subregion": "cederberg" }, "geometry": { "type": "Point", "coordinates": [ 19.04277778, -32.18361111 ] } },
{ "type": "Feature", "properties": { "plot": "CB_6", "year": 1996, "species_richness": 11, "subregion": "cederberg" }, "geometry": { "type": "Point", "coordinates": [ 18.98416667, -32.15083333 ] } },
{ "type": "Feature", "properties": { "plot": "CB_60", "year": 1996, "species_richness": 10, "subregion": "cederberg" }, "geometry": { "type": "Point", "coordinates": [ 19.03833333, -32.19194444 ] } },
{ "type": "Feature", "properties": { "plot": "CB_61", "year": 1996, "species_richness": 6, "subregion": "cederberg" }, "geometry": { "type": "Point", "coordinates": [ 19.03861111, -32.19444444 ] } },
{ "type": "Feature", "properties": { "plot": "CB_62", "year": 1996, "species_richness": 11, "subregion": "cederberg" }, "geometry": { "type": "Point", "coordinates": [ 19.0425, -32.19305556 ] } },
{ "type": "Feature", "properties": { "plot": "CB_63", "year": 1996, "species_richness": 13, "subregion": "cederberg" }, "geometry": { "type": "Point", "coordinates": [ 19.04416667, -32.19277778 ] } },
{ "type": "Feature", "properties": { "plot": "CB_64", "year": 1996, "species_richness": 23, "subregion": "cederberg" }, "geometry": { "type": "Point", "coordinates": [ 19.06277778, -32.17444444 ] } },
{ "type": "Feature", "properties": { "plot": "CB_65", "year": 1996, "species_richness": 27, "subregion": "cederberg" }, "geometry": { "type": "Point", "coordinates": [ 19.05444444, -32.16666667 ] } },
{ "type": "Feature", "properties": { "plot": "CB_66", "year": 1996, "species_richness": 27, "subregion": "cederberg" }, "geometry": { "type": "Point", "coordinates": [ 18.98055556, -32.14166667 ] } },
{ "type": "Feature", "properties": { "plot": "CB_67", "year": 1996, "species_richness": 18, "subregion": "cederberg" }, "geometry": { "type": "Point", "coordinates": [ 18.97888889, -32.14111111 ] } },
{ "type": "Feature", "properties": { "plot": "CB_68", "year": 1996, "species_richness": 17, "subregion": "cederberg" }, "geometry": { "type": "Point", "coordinates": [ 18.99666667, -32.1525 ] } },
{ "type": "Feature", "properties": { "plot": "CB_69", "year": 1996, "species_richness": 17, "subregion": "cederberg" }, "geometry": { "type": "Point", "coordinates": [ 18.99388889, -32.15138889 ] } },
{ "type": "Feature", "properties": { "plot": "CB_7", "year": 1996, "species_richness": 19, "subregion": "cederberg" }, "geometry": { "type": "Point", "coordinates": [ 19.05138889, -32.16861111 ] } },
{ "type": "Feature", "properties": { "plot": "CB_70", "year": 1996, "species_richness": 11, "subregion": "cederberg" }, "geometry": { "type": "Point", "coordinates": [ 18.9925, -32.15166667 ] } },
{ "type": "Feature", "properties": { "plot": "CB_71", "year": 1996, "species_richness": 18, "subregion": "cederberg" }, "geometry": { "type": "Point", "coordinates": [ 19.01638889, -32.15 ] } },
{ "type": "Feature", "properties": { "plot": "CB_72", "year": 1996, "species_richness": 18, "subregion": "cederberg" }, "geometry": { "type": "Point", "coordinates": [ 19.01694444, -32.15027778 ] } },
{ "type": "Feature", "properties": { "plot": "CB_73", "year": 1996, "species_richness": 9, "subregion": "cederberg" }, "geometry": { "type": "Point", "coordinates": [ 19.00944444, -32.15194444 ] } },
{ "type": "Feature", "properties": { "plot": "CB_74", "year": 1996, "species_richness": 16, "subregion": "cederberg" }, "geometry": { "type": "Point", "coordinates": [ 19.00166667, -32.15222222 ] } },
{ "type": "Feature", "properties": { "plot": "CB_76", "year": 1996, "species_richness": 19, "subregion": "cederberg" }, "geometry": { "type": "Point", "coordinates": [ 18.97638889, -32.1475 ] } },
{ "type": "Feature", "properties": { "plot": "CB_77", "year": 1996, "species_richness": 10, "subregion": "cederberg" }, "geometry": { "type": "Point", "coordinates": [ 18.9775, -32.14111111 ] } },
{ "type": "Feature", "properties": { "plot": "CB_78", "year": 1996, "species_richness": 15, "subregion": "cederberg" }, "geometry": { "type": "Point", "coordinates": [ 18.97722222, -32.14222222 ] } },
{ "type": "Feature", "properties": { "plot": "CB_79", "year": 1996, "species_richness": 22, "subregion": "cederberg" }, "geometry": { "type": "Point", "coordinates": [ 18.97388889, -32.14111111 ] } },
{ "type": "Feature", "properties": { "plot": "CB_8", "year": 1996, "species_richness": 10, "subregion": "cederberg" }, "geometry": { "type": "Point", "coordinates": [ 19.06111111, -32.175 ] } },
{ "type": "Feature", "properties": { "plot": "CB_80", "year": 1996, "species_richness": 23, "subregion": "cederberg" }, "geometry": { "type": "Point", "coordinates": [ 18.97694444, -32.14638889 ] } },
{ "type": "Feature", "properties": { "plot": "CB_81", "year": 1996, "species_richness": 15, "subregion": "cederberg" }, "geometry": { "type": "Point", "coordinates": [ 18.97777778, -32.14972222 ] } },
{ "type": "Feature", "properties": { "plot": "CB_82", "year": 1996, "species_richness": 19, "subregion": "cederberg" }, "geometry": { "type": "Point", "coordinates": [ 18.98694444, -32.16055556 ] } },
{ "type": "Feature", "properties": { "plot": "CB_83", "year": 1996, "species_richness": 19, "subregion": "cederberg" }, "geometry": { "type": "Point", "coordinates": [ 18.9825, -32.15888889 ] } },
{ "type": "Feature", "properties": { "plot": "CB_84", "year": 1996, "species_richness": 13, "subregion": "cederberg" }, "geometry": { "type": "Point", "coordinates": [ 18.99166667, -32.12777778 ] } },
{ "type": "Feature", "properties": { "plot": "CB_85", "year": 1996, "species_richness": 16, "subregion": "cederberg" }, "geometry": { "type": "Point", "coordinates": [ 18.98555556, -32.12638889 ] } },
{ "type": "Feature", "properties": { "plot": "CB_87", "year": 1996, "species_richness": 20, "subregion": "cederberg" }, "geometry": { "type": "Point", "coordinates": [ 19.01888889, -32.13888889 ] } },
{ "type": "Feature", "properties": { "plot": "CB_88", "year": 1996, "species_richness": 20, "subregion": "cederberg" }, "geometry": { "type": "Point", "coordinates": [ 19.02333333, -32.14 ] } },
{ "type": "Feature", "properties": { "plot": "CB_89", "year": 1996, "species_richness": 11, "subregion": "cederberg" }, "geometry": { "type": "Point", "coordinates": [ 19.03222222, -32.14833333 ] } },
{ "type": "Feature", "properties": { "plot": "CB_9", "year": 1996, "species_richness": 20, "subregion": "cederberg" }, "geometry": { "type": "Point", "coordinates": [ 18.98916667, -32.13527778 ] } },
{ "type": "Feature", "properties": { "plot": "CB_90", "year": 1996, "species_richness": 26, "subregion": "cederberg" }, "geometry": { "type": "Point", "coordinates": [ 19.03194444, -32.14638889 ] } },
{ "type": "Feature", "properties": { "plot": "CB_91", "year": 1996, "species_richness": 23, "subregion": "cederberg" }, "geometry": { "type": "Point", "coordinates": [ 19.02583333, -32.14305556 ] } },
{ "type": "Feature", "properties": { "plot": "CB_92", "year": 1996, "species_richness": 16, "subregion": "cederberg" }, "geometry": { "type": "Point", "coordinates": [ 19.02944444, -32.14611111 ] } },
{ "type": "Feature", "properties": { "plot": "CB_93", "year": 1996, "species_richness": 21, "subregion": "cederberg" }, "geometry": { "type": "Point", "coordinates": [ 19.03444444, -32.14805556 ] } },
{ "type": "Feature", "properties": { "plot": "CB_94", "year": 1996, "species_richness": 24, "subregion": "cederberg" }, "geometry": { "type": "Point", "coordinates": [ 19.03222222, -32.1425 ] } },
{ "type": "Feature", "properties": { "plot": "CB_95", "year": 1996, "species_richness": 24, "subregion": "cederberg" }, "geometry": { "type": "Point", "coordinates": [ 19.07861111, -32.18805556 ] } },
{ "type": "Feature", "properties": { "plot": "CB_96", "year": 1996, "species_richness": 20, "subregion": "cederberg" }, "geometry": { "type": "Point", "coordinates": [ 18.97611111, -32.12305556 ] } },
{ "type": "Feature", "properties": { "plot": "CB_97", "year": 1996, "species_richness": 5, "subregion": "cederberg" }, "geometry": { "type": "Point", "coordinates": [ 19.08333333, -32.22083333 ] } },
{ "type": "Feature", "properties": { "plot": "CB_98", "year": 1996, "species_richness": 6, "subregion": "cederberg" }, "geometry": { "type": "Point", "coordinates": [ 19.08277778, -32.22305556 ] } },
{ "type": "Feature", "properties": { "plot": "CB_99", "year": 1996, "species_richness": 18, "subregion": "cederberg" }, "geometry": { "type": "Point", "coordinates": [ 19.08444444, -32.22277778 ] } }
]
}
