{
"type": "FeatureCollection",
"name": "htr_releve",
"crs": { "type": "name", "properties": { "name": "urn:ogc:def:crs:OGC:1.3:CRS84" } },
"features": [
{ "type": "Feature", "properties": { "plot": "HTR_1", "year": 2004, "species_richness": 14, "subregion": "htr" }, "geometry": { "type": "Point", "coordinates": [ 19.29291667, -31.49552778 ] } },
{ "type": "Feature", "properties": { "plot": "HTR_10", "year": 2004, "species_richness": 4, "subregion": "htr" }, "geometry": { "type": "Point", "coordinates": [ 19.44197222, -31.43983333 ] } },
{ "type": "Feature", "properties": { "plot": "HTR_100", "year": 2004, "species_richness": 11, "subregion": "htr" }, "geometry": { "type": "Point", "coordinates": [ 20.08769444, -31.30288889 ] } },
{ "type": "Feature", "properties": { "plot": "HTR_100_ak", "year": 2013, "species_richness": 18, "subregion": "htr" }, "geometry": { "type": "Point", "coordinates": [ 19.77755556, -31.40775 ] } },
{ "type": "Feature", "properties": { "plot": "HTR_101", "year": 2004, "species_richness": 3, "subregion": "htr" }, "geometry": { "type": "Point", "coordinates": [ 20.07105556, -31.79638889 ] } },
{ "type": "Feature", "properties": { "plot": "HTR_102", "year": 2004, "species_richness": 6, "subregion": "htr" }, "geometry": { "type": "Point", "coordinates": [ 20.05358333, -31.73122222 ] } },
{ "type": "Feature", "properties": { "plot": "HTR_103", "year": 2004, "species_richness": 12, "subregion": "htr" }, "geometry": { "type": "Point", "coordinates": [ 20.01769444, -31.68766667 ] } },
{ "type": "Feature", "properties": { "plot": "HTR_104", "year": 2004, "species_richness": 8, "subregion": "htr" }, "geometry": { "type": "Point", "coordinates": [ 20.09805556, -32.25519444 ] } },
{ "type": "Feature", "properties": { "plot": "HTR_105", "year": 2004, "species_richness": 9, "subregion": "htr" }, "geometry": { "type": "Point", "coordinates": [ 20.08983333, -32.25925 ] } },
{ "type": "Feature", "properties": { "plot": "HTR_106", "year": 2004, "species_richness": 5, "subregion": "htr" }, "geometry": { "type": "Point", "coordinates": [ 20.06936111, -32.28902778 ] } },
{ "type": "Feature", "properties": { "plot": "HTR_107", "year": 2004, "species_richness": 6, "subregion": "htr" }, "geometry": { "type": "Point", "coordinates": [ 20.03194444, -32.34238889 ] } },
{ "type": "Feature", "properties": { "plot": "HTR_108", "year": 2004, "species_richness": 7, "subregion": "htr" }, "geometry": { "type": "Point", "coordinates": [ 20.01313889, -32.37947222 ] } },
{ "type": "Feature", "properties": { "plot": "HTR_109", "year": 2004, "species_richness": 8, "subregion": "htr" }, "geometry": { "type": "Point", "coordinates": [ 20.01305556, -32.38008333 ] } },
{ "type": "Feature", "properties": { "plot": "HTR_10_ak", "year": 2013, "species_richness": 24, "subregion": "htr" }, "geometry": { "type": "Point", "coordinates": [ 19.77711111, -31.44125 ] } },
{ "type": "Feature", "properties": { "plot": "HTR_11", "year": 2004, "species_richness": 10, "subregion": "htr" }, "geometry": { "type": "Point", "coordinates": [ 19.49883333, -31.44922222 ] } },
{ "type": "Feature", "properties": { "plot": "HTR_110", "year": 2004, "species_richness": 1, "subregion": "htr" }, "geometry": { "type": "Point", "coordinates": [ 19.82763889, -32.48958333 ] } },
{ "type": "Feature", "properties": { "plot": "HTR_111", "year": 2004, "species_richness": 4, "subregion": "htr" }, "geometry": { "type": "Point", "coordinates": [ 19.81058333, -32.59461111 ] } },
{ "type": "Feature", "properties": { "plot": "HTR_112", "year": 2004, "species_richness": 3, "subregion": "htr" }, "geometry": { "type": "Point", "coordinates": [ 19.75802778, -32.65141667 ] } },
{ "type": "Feature", "properties": { "plot": "HTR_113", "year": 2004, "species_richness": 4, "subregion": "htr" }, "geometry": { "type": "Point", "coordinates": [ 19.69261111, -32.60125 ] } },
{ "type": "Feature", "properties": { "plot": "HTR_114", "year": 2004, "species_richness": 4, "subregion": "htr" }, "geometry": { "type": "Point", "coordinates": [ 19.69163889, -32.56802778 ] } },
{ "type": "Feature", "properties": { "plot": "HTR_115", "year": 2004, "species_richness": 1, "subregion": "htr" }, "geometry": { "type": "Point", "coordinates": [ 19.67377778, -32.47961111 ] } },
{ "type": "Feature", "properties": { "plot": "HTR_116", "year": 2004, "species_richness": 2, "subregion": "htr" }, "geometry": { "type": "Point", "coordinates": [ 19.66222222, -32.46063889 ] } },
{ "type": "Feature", "properties": { "plot": "HTR_117", "year": 2004, "species_richness": 5, "subregion": "htr" }, "geometry": { "type": "Point", "coordinates": [ 19.70561111, -32.21780556 ] } },
{ "type": "Feature", "properties": { "plot": "HTR_118", "year": 2004, "species_richness": 1, "subregion": "htr" }, "geometry": { "type": "Point", "coordinates": [ 19.70975, -32.10238889 ] } },
{ "type": "Feature", "properties": { "plot": "HTR_119", "year": 2004, "species_richness": 7, "subregion": "htr" }, "geometry": { "type": "Point", "coordinates": [ 19.736, -31.97680556 ] } },
{ "type": "Feature", "properties": { "plot": "HTR_11_ak", "year": 2013, "species_richness": 19, "subregion": "htr" }, "geometry": { "type": "Point", "coordinates": [ 19.77502778, -31.44177778 ] } },
{ "type": "Feature", "properties": { "plot": "HTR_12", "year": 2004, "species_richness": 10, "subregion": "htr" }, "geometry": { "type": "Point", "coordinates": [ 19.50583333, -31.41716667 ] } },
{ "type": "Feature", "properties": { "plot": "HTR_120", "year": 2004, "species_richness": 7, "subregion": "htr" }, "geometry": { "type": "Point", "coordinates": [ 19.87325, -32.02397222 ] } },
{ "type": "Feature", "properties": { "plot": "HTR_121", "year": 2004, "species_richness": 3, "subregion": "htr" }, "geometry": { "type": "Point", "coordinates": [ 19.96238889, -32.42083333 ] } },
{ "type": "Feature", "properties": { "plot": "HTR_122", "year": 2004, "species_richness": 4, "subregion": "htr" }, "geometry": { "type": "Point", "coordinates": [ 20.03822222, -32.4155 ] } },
{ "type": "Feature", "properties": { "plot": "HTR_123", "year": 2004, "species_richness": 7, "subregion": "htr" }, "geometry": { "type": "Point", "coordinates": [ 20.10819444, -32.43813889 ] } },
{ "type": "Feature", "properties": { "plot": "HTR_124", "year": 2004, "species_richness": 6, "subregion": "htr" }, "geometry": { "type": "Point", "coordinates": [ 20.13980556, -32.45633333 ] } },
{ "type": "Feature", "properties": { "plot": "HTR_125", "year": 2004, "species_richness": 4, "subregion": "htr" }, "geometry": { "type": "Point", "coordinates": [ 20.21144444, -32.49936111 ] } },
{ "type": "Feature", "properties": { "plot": "HTR_126", "year": 2004, "species_richness": 6, "subregion": "htr" }, "geometry": { "type": "Point", "coordinates": [ 20.23936111, -32.51869444 ] } },
{ "type": "Feature", "properties": { "plot": "HTR_127", "year": 2004, "species_richness": 9, "subregion": "htr" }, "geometry": { "type": "Point", "coordinates": [ 20.27505556, -32.55941667 ] } },
{ "type": "Feature", "properties": { "plot": "HTR_128", "year": 2004, "species_richness": 11, "subregion": "htr" }, "geometry": { "type": "Point", "coordinates": [ 20.44519444, -32.69663889 ] } },
{ "type": "Feature", "properties": { "plot": "HTR_129", "year": 2004, "species_richness": 8, "subregion": "htr" }, "geometry": { "type": "Point", "coordinates": [ 20.50408333, -32.74419444 ] } },
{ "type": "Feature", "properties": { "plot": "HTR_12_ak", "year": 2013, "species_richness": 18, "subregion": "htr" }, "geometry": { "type": "Point", "coordinates": [ 19.77513889, -31.44252778 ] } },
{ "type": "Feature", "properties": { "plot": "HTR_13", "year": 2004, "species_richness": 12, "subregion": "htr" }, "geometry": { "type": "Point", "coordinates": [ 19.52522222, -31.39297222 ] } },
{ "type": "Feature", "properties": { "plot": "HTR_130", "year": 2004, "species_richness": 10, "subregion": "htr" }, "geometry": { "type": "Point", "coordinates": [ 20.55925, -32.84052778 ] } },
{ "type": "Feature", "properties": { "plot": "HTR_131", "year": 2004, "species_richness": 14, "subregion": "htr" }, "geometry": { "type": "Point", "coordinates": [ 20.56094444, -32.88775 ] } },
{ "type": "Feature", "properties": { "plot": "HTR_132", "year": 2004, "species_richness": 6, "subregion": "htr" }, "geometry": { "type": "Point", "coordinates": [ 20.56719444, -32.99247222 ] } },
{ "type": "Feature", "properties": { "plot": "HTR_133", "year": 2004, "species_richness": 7, "subregion": "htr" }, "geometry": { "type": "Point", "coordinates": [ 20.57175, -32.55863889 ] } },
{ "type": "Feature", "properties": { "plot": "HTR_134", "year": 2004, "species_richness": 11, "subregion": "htr" }, "geometry": { "type": "Point", "coordinates": [ 20.48038889, -31.82858333 ] } },
{ "type": "Feature", "properties": { "plot": "HTR_135", "year": 2004, "species_richness": 8, "subregion": "htr" }, "geometry": { "type": "Point", "coordinates": [ 20.49708333, -31.82111111 ] } },
{ "type": "Feature", "properties": { "plot": "HTR_136", "year": 2004, "species_richness": 9, "subregion": "htr" }, "geometry": { "type": "Point", "coordinates": [ 20.68825, -31.99075 ] } },
{ "type": "Feature", "properties": { "plot": "HTR_137", "year": 2004, "species_richness": 6, "subregion": "htr" }, "geometry": { "type": "Point", "coordinates": [ 20.67069444, -32.00116667 ] } },
{ "type": "Feature", "properties": { "plot": "HTR_138", "year": 2004, "species_richness": 10, "subregion": "htr" }, "geometry": { "type": "Point", "coordinates": [ 20.65233333, -32.00963889 ] } },
{ "type": "Feature", "properties": { "plot": "HTR_139", "year": 2004, "species_richness": 9, "subregion": "htr" }, "geometry": { "type": "Point", "coordinates": [ 20.61241667, -32.00880556 ] } },
{ "type": "Feature", "properties": { "plot": "HTR_13_ak", "year": 2013, "species_richness": 19, "subregion": "htr" }, "geometry": { "type": "Point", "coordinates": [ 19.77516667, -31.44338889 ] } },
{ "type": "Feature", "properties": { "plot": "HTR_14", "year": 2004, "species_richness": 8, "subregion": "htr" }, "geometry": { "type": "Point", "coordinates": [ 19.51844444, -31.34736111 ] } },
{ "type": "Feature", "properties": { "plot": "HTR_140", "year": 2004, "species_richness": 9, "subregion": "htr" }, "geometry": { "type": "Point", "coordinates": [ 20.59305556, -31.99177778 ] } },
{ "type": "Feature", "properties": { "plot": "HTR_141", "year": 2004, "species_richness": 6, "subregion": "htr" }, "geometry": { "type": "Point", "coordinates": [ 20.53144444, -31.96052778 ] } },
{ "type": "Feature", "properties": { "plot": "HTR_142", "year": 2004, "species_richness": 5, "subregion": "htr" }, "geometry": { "type": "Point", "coordinates": [ 20.47180556, -31.99672222 ] } },
{ "type": "Feature", "properties": { "plot": "HTR_143", "year": 2004, "species_richness": 9, "subregion": "htr" }, "geometry": { "type": "Point", "coordinates": [ 20.17725, -31.95455556 ] } },
{ "type": "Feature", "properties": { "plot": "HTR_144", "year": 2004, "species_richness": 13, "subregion": "htr" }, "geometry": { "type": "Point", "coordinates": [ 20.1245, -31.97530556 ] } },
{ "type": "Feature", "properties": { "plot": "HTR_145", "year": 2004, "species_richness": 8, "subregion": "htr" }, "geometry": { "type": "Point", "coordinates": [ 20.07858333, -31.97405556 ] } },
{ "type": "Feature", "properties": { "plot": "HTR_146", "year": 2004, "species_richness": 7, "subregion": "htr" }, "geometry": { "type": "Point", "coordinates": [ 20.048, -31.976 ] } },
{ "type": "Feature", "properties": { "plot": "HTR_147", "year": 2004, "species_richness": 12, "subregion": "htr" }, "geometry": { "type": "Point", "coordinates": [ 20.03988889, -31.97133333 ] } },
{ "type": "Feature", "properties": { "plot": "HTR_148", "year": 2004, "species_richness": 7, "subregion": "htr" }, "geometry": { "type": "Point", "coordinates": [ 20.01361111, -31.95183333 ] } },
{ "type": "Feature", "properties": { "plot": "HTR_149", "year": 2004, "species_richness": 9, "subregion": "htr" }, "geometry": { "type": "Point", "coordinates": [ 20.01891667, -31.84180556 ] } },
{ "type": "Feature", "properties": { "plot": "HTR_14_ak", "year": 2013, "species_richness": 23, "subregion": "htr" }, "geometry": { "type": "Point", "coordinates": [ 19.78425, -31.43394444 ] } },
{ "type": "Feature", "properties": { "plot": "HTR_15", "year": 2004, "species_richness": 11, "subregion": "htr" }, "geometry": { "type": "Point", "coordinates": [ 19.46138889, -31.30711111 ] } },
{ "type": "Feature", "properties": { "plot": "HTR_150", "year": 2004, "species_richness": 6, "subregion": "htr" }, "geometry": { "type": "Point", "coordinates": [ 19.96708333, -31.78252778 ] } },
{ "type": "Feature", "properties": { "plot": "HTR_151", "year": 2004, "species_richness": 10, "subregion": "htr" }, "geometry": { "type": "Point", "coordinates": [ 19.95872222, -31.74352778 ] } },
{ "type": "Feature", "properties": { "plot": "HTR_152", "year": 2004, "species_richness": 4, "subregion": "htr" }, "geometry": { "type": "Point", "coordinates": [ 19.85566667, -31.76602778 ] } },
{ "type": "Feature", "properties": { "plot": "HTR_153", "year": 2004, "species_richness": 9, "subregion": "htr" }, "geometry": { "type": "Point", "coordinates": [ 19.842, -31.75991667 ] } },
{ "type": "Feature", "properties": { "plot": "HTR_154", "year": 2004, "species_richness": 10, "subregion": "htr" }, "geometry": { "type": "Point", "coordinates": [ 19.85297222, -31.72975 ] } },
{ "type": "Feature", "properties": { "plot": "HTR_155", "year": 2004, "species_richness": 7, "subregion": "htr" }, "geometry": { "type": "Point", "coordinates": [ 19.80294444, -31.66180556 ] } },
{ "type": "Feature", "properties": { "plot": "HTR_156", "year": 2004, "species_richness": 9, "subregion": "htr" }, "geometry": { "type": "Point", "coordinates": [ 19.79469444, -31.65025 ] } },
{ "type": "Feature", "properties": { "plot": "HTR_157", "year": 2004, "species_richness": 10, "subregion": "htr" }, "geometry": { "type": "Point", "coordinates": [ 19.73336111, -31.58005556 ] } },
{ "type": "Feature", "properties": { "plot": "HTR_158", "year": 2004, "species_richness": 5, "subregion": "htr" }, "geometry": { "type": "Point", "coordinates": [ 19.58475, -31.49572222 ] } },
{ "type": "Feature", "properties": { "plot": "HTR_159", "year": 2004, "species_richness": 8, "subregion": "htr" }, "geometry": { "type": "Point", "coordinates": [ 19.54613889, -31.49530556 ] } },
{ "type": "Feature", "properties": { "plot": "HTR_15_ak", "year": 2013, "species_richness": 18, "subregion": "htr" }, "geometry": { "type": "Point", "coordinates": [ 19.78344444, -31.43402778 ] } },
{ "type": "Feature", "properties": { "plot": "HTR_16", "year": 2004, "species_richness": 12, "subregion": "htr" }, "geometry": { "type": "Point", "coordinates": [ 19.43186111, -31.317 ] } },
{ "type": "Feature", "properties": { "plot": "HTR_160", "year": 2004, "species_richness": 6, "subregion": "htr" }, "geometry": { "type": "Point", "coordinates": [ 19.36036111, -31.57383333 ] } },
{ "type": "Feature", "properties": { "plot": "HTR_161", "year": 2004, "species_richness": 9, "subregion": "htr" }, "geometry": { "type": "Point", "coordinates": [ 19.35316667, -31.58722222 ] } },
{ "type": "Feature", "properties": { "plot": "HTR_162", "year": 2004, "species_richness": 5, "subregion": "htr" }, "geometry": { "type": "Point", "coordinates": [ 19.354, -31.77277778 ] } },
{ "type": "Feature", "properties": { "plot": "HTR_163", "year": 2004, "species_richness": 2, "subregion": "htr" }, "geometry": { "type": "Point", "coordinates": [ 19.39258333, -31.81452778 ] } },
{ "type": "Feature", "properties": { "plot": "HTR_164", "year": 2004, "species_richness": 4, "subregion": "htr" }, "geometry": { "type": "Point", "coordinates": [ 19.4275, -31.84744444 ] } },
{ "type": "Feature", "properties": { "plot": "HTR_165", "year": 2004, "species_richness": 10, "subregion": "htr" }, "geometry": { "type": "Point", "coordinates": [ 19.44261111, -31.85286111 ] } },
{ "type": "Feature", "properties": { "plot": "HTR_166", "year": 2004, "species_richness": 2, "subregion": "htr" }, "geometry": { "type": "Point", "coordinates": [ 19.47125, -31.86916667 ] } },
{ "type": "Feature", "properties": { "plot": "HTR_167", "year": 2004, "species_richness": 9, "subregion": "htr" }, "geometry": { "type": "Point", "coordinates": [ 19.47413889, -31.87197222 ] } },
{ "type": "Feature", "properties": { "plot": "HTR_168", "year": 2004, "species_richness": 5, "subregion": "htr" }, "geometry": { "type": "Point", "coordinates": [ 19.49958333, -31.88311111 ] } },
{ "type": "Feature", "properties": { "plot": "HTR_169", "year": 2004, "species_richness": 5, "subregion": "htr" }, "geometry": { "type": "Point", "coordinates": [ 19.53125, -31.90711111 ] } },
{ "type": "Feature", "properties": { "plot": "HTR_16_ak", "year": 2013, "species_richness": 19, "subregion": "htr" }, "geometry": { "type": "Point", "coordinates": [ 19.78533333, -31.43180556 ] } },
{ "type": "Feature", "properties": { "plot": "HTR_17", "year": 2004, "species_richness": 11, "subregion": "htr" }, "geometry": { "type": "Point", "coordinates": [ 19.36977778, -31.30716667 ] } },
{ "type": "Feature", "properties": { "plot": "HTR_170", "year": 2004, "species_richness": 4, "subregion": "htr" }, "geometry": { "type": "Point", "coordinates": [ 19.54569444, -31.91591667 ] } },
{ "type": "Feature", "properties": { "plot": "HTR_171", "year": 2004, "species_richness": 2, "subregion": "htr" }, "geometry": { "type": "Point", "coordinates": [ 19.56336111, -31.87922222 ] } },
{ "type": "Feature", "properties": { "plot": "HTR_172", "year": 2004, "species_richness": 4, "subregion": "htr" }, "geometry": { "type": "Point", "coordinates": [ 19.57219444, -31.86066667 ] } },
{ "type": "Feature", "properties": { "plot": "HTR_173", "year": 2004, "species_richness": 4, "subregion": "htr" }, "geometry": { "type": "Point", "coordinates": [ 19.61175, -31.81861111 ] } },
{ "type": "Feature", "properties": { "plot": "HTR_174", "year": 2004, "species_richness": 4, "subregion": "htr" }, "geometry": { "type": "Point", "coordinates": [ 19.61938889, -31.82013889 ] } },
{ "type": "Feature", "properties": { "plot": "HTR_175", "year": 2004, "species_richness": 4, "subregion": "htr" }, "geometry": { "type": "Point", "coordinates": [ 19.684, -31.82147222 ] } },
{ "type": "Feature", "properties": { "plot": "HTR_176", "year": 2004, "species_richness": 3, "subregion": "htr" }, "geometry": { "type": "Point", "coordinates": [ 19.70308333, -31.81694444 ] } },
{ "type": "Feature", "properties": { "plot": "HTR_177", "year": 2004, "species_richness": 7, "subregion": "htr" }, "geometry": { "type": "Point", "coordinates": [ 19.74752778, -31.87533333 ] } },
{ "type": "Feature", "properties": { "plot": "HTR_178", "year": 2004, "species_richness": 8, "subregion": "htr" }, "geometry": { "type": "Point", "coordinates": [ 19.73413889, -31.85002778 ] } },
{ "type": "Feature", "properties": { "plot": "HTR_179", "year": 2004, "species_richness": 4, "subregion": "htr" }, "geometry": { "type": "Point", "coordinates": [ 19.73177778, -31.84180556 ] } },
{ "type": "Feature", "properties": { "plot": "HTR_17_ak", "year": 2013, "species_richness": 14, "subregion": "htr" }, "geometry": { "type": "Point", "coordinates": [ 19.78519444, -31.42966667 ] } },
{ "type": "Feature", "properties": { "plot": "HTR_18", "year": 2004, "species_richness": 9, "subregion": "htr" }, "geometry": { "type": "Point", "coordinates": [ 19.31536111, -31.3425 ] } },
{ "type": "Feature", "properties": { "plot": "HTR_180", "year": 2004, "species_richness": 6, "subregion": "htr" }, "geometry": { "type": "Point", "coordinates": [ 19.74116667, -31.69772222 ] } },
{ "type": "Feature", "properties": { "plot": "HTR_181", "year": 2004, "species_richness": 10, "subregion": "htr" }, "geometry": { "type": "Point", "coordinates": [ 19.75511111, -31.67711111 ] } },
{ "type": "Feature", "properties": { "plot": "HTR_182", "year": 2004, "species_richness": 8, "subregion": "htr" }, "geometry": { "type": "Point", "coordinates": [ 19.7475, -31.63816667 ] } },
{ "type": "Feature", "properties": { "plot": "HTR_183", "year": 2004, "species_richness": 5, "subregion": "htr" }, "geometry": { "type": "Point", "coordinates": [ 19.74863889, -31.62880556 ] } },
{ "type": "Feature", "properties": { "plot": "HTR_184", "year": 2004, "species_richness": 4, "subregion": "htr" }, "geometry": { "type": "Point", "coordinates": [ 19.77788889, -31.48194444 ] } },
{ "type": "Feature", "properties": { "plot": "HTR_185", "year": 2004, "species_richness": 4, "subregion": "htr" }, "geometry": { "type": "Point", "coordinates": [ 19.79491667, -31.49661111 ] } },
{ "type": "Feature", "properties": { "plot": "HTR_186", "year": 2004, "species_richness": 5, "subregion": "htr" }, "geometry": { "type": "Point", "coordinates": [ 19.81186111, -31.54769444 ] } },
{ "type": "Feature", "properties": { "plot": "HTR_187", "year": 2004, "species_richness": 4, "subregion": "htr" }, "geometry": { "type": "Point", "coordinates": [ 19.831, -31.56875 ] } },
{ "type": "Feature", "properties": { "plot": "HTR_188", "year": 2004, "species_richness": 7, "subregion": "htr" }, "geometry": { "type": "Point", "coordinates": [ 19.84188889, -31.58358333 ] } },
{ "type": "Feature", "properties": { "plot": "HTR_189", "year": 2004, "species_richness": 6, "subregion": "htr" }, "geometry": { "type": "Point", "coordinates": [ 19.85311111, -31.58863889 ] } },
{ "type": "Feature", "properties": { "plot": "HTR_18_ak", "year": 2013, "species_richness": 8, "subregion": "htr" }, "geometry": { "type": "Point", "coordinates": [ 19.78811111, -31.42919444 ] } },
{ "type": "Feature", "properties": { "plot": "HTR_19", "year": 2004, "species_richness": 7, "subregion": "htr" }, "geometry": { "type": "Point", "coordinates": [ 19.26736111, -31.35952778 ] } },
{ "type": "Feature", "properties": { "plot": "HTR_190", "year": 2004, "species_richness": 3, "subregion": "htr" }, "geometry": { "type": "Point", "coordinates": [ 19.86094444, -31.59047222 ] } },
{ "type": "Feature", "properties": { "plot": "HTR_191", "year": 2004, "species_richness": 5, "subregion": "htr" }, "geometry": { "type": "Point", "coordinates": [ 19.86525, -31.59208333 ] } },
{ "type": "Feature", "properties": { "plot": "HTR_192", "year": 2004, "species_richness": 3, "subregion": "htr" }, "geometry": { "type": "Point", "coordinates": [ 19.88022222, -31.60033333 ] } },
{ "type": "Feature", "properties": { "plot": "HTR_193", "year": 2004, "species_richness": 6, "subregion": "htr" }, "geometry": { "type": "Point", "coordinates": [ 19.88788889, -31.61113889 ] } },
{ "type": "Feature", "properties": { "plot": "HTR_194", "year": 2004, "species_richness": 7, "subregion": "htr" }, "geometry": { "type": "Point", "coordinates": [ 19.89719444, -31.63769444 ] } },
{ "type": "Feature", "properties": { "plot": "HTR_195", "year": 2004, "species_richness": 7, "subregion": "htr" }, "geometry": { "type": "Point", "coordinates": [ 19.89827778, -31.64380556 ] } },
{ "type": "Feature", "properties": { "plot": "HTR_196", "year": 2004, "species_richness": 13, "subregion": "htr" }, "geometry": { "type": "Point", "coordinates": [ 19.89702778, -31.65255556 ] } },
{ "type": "Feature", "properties": { "plot": "HTR_197", "year": 2004, "species_richness": 8, "subregion": "htr" }, "geometry": { "type": "Point", "coordinates": [ 19.89427778, -31.66411111 ] } },
{ "type": "Feature", "properties": { "plot": "HTR_198", "year": 2004, "species_richness": 8, "subregion": "htr" }, "geometry": { "type": "Point", "coordinates": [ 19.89297222, -31.69030556 ] } },
{ "type": "Feature", "properties": { "plot": "HTR_199", "year": 2004, "species_richness": 9, "subregion": "htr" }, "geometry": { "type": "Point", "coordinates": [ 19.96702778, -31.72902778 ] } },
{ "type": "Feature", "properties": { "plot": "HTR_19_ak", "year": 2013, "species_richness": 16, "subregion": "htr" }, "geometry": { "type": "Point", "coordinates": [ 19.77725, -31.43586111 ] } },
{ "type": "Feature", "properties": { "plot": "HTR_1_ak", "year": 2013, "species_richness": 23, "subregion": "htr" }, "geometry": { "type": "Point", "coordinates": [ 19.77230556, -31.45022222 ] } },
{ "type": "Feature", "properties": { "plot": "HTR_1_nieu", "year": 2014, "species_richness": 22, "subregion": "htr" }, "geometry": { "type": "Point", "coordinates": [ 19.03465, -31.28217 ] } },
{ "type": "Feature", "properties": { "plot": "HTR_2", "year": 2004, "species_richness": 12, "subregion": "htr" }, "geometry": { "type": "Point", "coordinates": [ 19.26311111, -31.53433333 ] } },
{ "type": "Feature", "properties": { "plot": "HTR_20", "year": 2004, "species_richness": 10, "subregion": "htr" }, "geometry": { "type": "Point", "coordinates": [ 19.22072222, -31.37794444 ] } },
{ "type": "Feature", "properties": { "plot": "HTR_200", "year": 2004, "species_richness": 7, "subregion": "htr" }, "geometry": { "type": "Point", "coordinates": [ 19.98308333, -31.67488889 ] } },
{ "type": "Feature", "properties": { "plot": "HTR_201", "year": 2004, "species_richness": 6, "subregion": "htr" }, "geometry": { "type": "Point", "coordinates": [ 19.98830556, -31.6475 ] } },
{ "type": "Feature", "properties": { "plot": "HTR_202", "year": 2004, "species_richness": 5, "subregion": "htr" }, "geometry": { "type": "Point", "coordinates": [ 19.96216667, -31.57522222 ] } },
{ "type": "Feature", "properties": { "plot": "HTR_203", "year": 2004, "species_richness": 7, "subregion": "htr" }, "geometry": { "type": "Point", "coordinates": [ 19.95566667, -31.55313889 ] } },
{ "type": "Feature", "properties": { "plot": "HTR_204", "year": 2004, "species_richness": 8, "subregion": "htr" }, "geometry": { "type": "Point", "coordinates": [ 19.93183333, -31.50222222 ] } },
{ "type": "Feature", "properties": { "plot": "HTR_205", "year": 2004, "species_richness": 8, "subregion": "htr" }, "geometry": { "type": "Point", "coordinates": [ 19.94169444, -31.49422222 ] } },
{ "type": "Feature", "properties": { "plot": "HTR_206", "year": 2004, "species_richness": 4, "subregion": "htr" }, "geometry": { "type": "Point", "coordinates": [ 19.94858333, -31.48830556 ] } },
{ "type": "Feature", "properties": { "plot": "HTR_207", "year": 2004, "species_richness": 6, "subregion": "htr" }, "geometry": { "type": "Point", "coordinates": [ 19.95169444, -31.46594444 ] } },
{ "type": "Feature", "properties": { "plot": "HTR_208", "year": 2004, "species_richness": 6, "subregion": "htr" }, "geometry": { "type": "Point", "coordinates": [ 19.94786111, -31.44311111 ] } },
{ "type": "Feature", "properties": { "plot": "HTR_209", "year": 2004, "species_richness": 5, "subregion": "htr" }, "geometry": { "type": "Point", "coordinates": [ 19.94361111, -31.40980556 ] } },
{ "type": "Feature", "properties": { "plot": "HTR_20_ak", "year": 2013, "species_richness": 13, "subregion": "htr" }, "geometry": { "type": "Point", "coordinates": [ 19.77405556, -31.43436111 ] } },
{ "type": "Feature", "properties": { "plot": "HTR_21", "year": 2004, "species_richness": 17, "subregion": "htr" }, "geometry": { "type": "Point", "coordinates": [ 19.20069444, -31.38311111 ] } },
{ "type": "Feature", "properties": { "plot": "HTR_210", "year": 2004, "species_richness": 7, "subregion": "htr" }, "geometry": { "type": "Point", "coordinates": [ 19.93094444, -31.31297222 ] } },
{ "type": "Feature", "properties": { "plot": "HTR_211", "year": 2004, "species_richness": 8, "subregion": "htr" }, "geometry": { "type": "Point", "coordinates": [ 19.93847222, -31.29586111 ] } },
{ "type": "Feature", "properties": { "plot": "HTR_212", "year": 2004, "species_richness": 9, "subregion": "htr" }, "geometry": { "type": "Point", "coordinates": [ 19.94627778, -31.18816667 ] } },
{ "type": "Feature", "properties": { "plot": "HTR_213", "year": 2004, "species_richness": 6, "subregion": "htr" }, "geometry": { "type": "Point", "coordinates": [ 19.72708333, -31.47041667 ] } },
{ "type": "Feature", "properties": { "plot": "HTR_214", "year": 2004, "species_richness": 5, "subregion": "htr" }, "geometry": { "type": "Point", "coordinates": [ 19.68905556, -31.46858333 ] } },
{ "type": "Feature", "properties": { "plot": "HTR_215", "year": 2004, "species_richness": 10, "subregion": "htr" }, "geometry": { "type": "Point", "coordinates": [ 19.49525, -31.26233333 ] } },
{ "type": "Feature", "properties": { "plot": "HTR_216", "year": 2004, "species_richness": 10, "subregion": "htr" }, "geometry": { "type": "Point", "coordinates": [ 19.48175, -31.25611111 ] } },
{ "type": "Feature", "properties": { "plot": "HTR_217", "year": 2004, "species_richness": 9, "subregion": "htr" }, "geometry": { "type": "Point", "coordinates": [ 19.45141667, -31.2255 ] } },
{ "type": "Feature", "properties": { "plot": "HTR_218", "year": 2004, "species_richness": 4, "subregion": "htr" }, "geometry": { "type": "Point", "coordinates": [ 19.44958333, -31.16916667 ] } },
{ "type": "Feature", "properties": { "plot": "HTR_219", "year": 2004, "species_richness": 5, "subregion": "htr" }, "geometry": { "type": "Point", "coordinates": [ 19.45888889, -31.13063889 ] } },
{ "type": "Feature", "properties": { "plot": "HTR_21_ak", "year": 2013, "species_richness": 14, "subregion": "htr" }, "geometry": { "type": "Point", "coordinates": [ 19.77119444, -31.43538889 ] } },
{ "type": "Feature", "properties": { "plot": "HTR_22", "year": 2004, "species_richness": 8, "subregion": "htr" }, "geometry": { "type": "Point", "coordinates": [ 19.18425, -31.38608333 ] } },
{ "type": "Feature", "properties": { "plot": "HTR_220", "year": 2004, "species_richness": 8, "subregion": "htr" }, "geometry": { "type": "Point", "coordinates": [ 19.46841667, -31.10561111 ] } },
{ "type": "Feature", "properties": { "plot": "HTR_221", "year": 2004, "species_richness": 8, "subregion": "htr" }, "geometry": { "type": "Point", "coordinates": [ 19.47158333, -30.98144444 ] } },
{ "type": "Feature", "properties": { "plot": "HTR_222", "year": 2004, "species_richness": 6, "subregion": "htr" }, "geometry": { "type": "Point", "coordinates": [ 19.46430556, -30.9725 ] } },
{ "type": "Feature", "properties": { "plot": "HTR_223", "year": 2004, "species_richness": 3, "subregion": "htr" }, "geometry": { "type": "Point", "coordinates": [ 19.83897222, -30.83419444 ] } },
{ "type": "Feature", "properties": { "plot": "HTR_224", "year": 2004, "species_richness": 5, "subregion": "htr" }, "geometry": { "type": "Point", "coordinates": [ 19.75411111, -30.86375 ] } },
{ "type": "Feature", "properties": { "plot": "HTR_225", "year": 2004, "species_richness": 2, "subregion": "htr" }, "geometry": { "type": "Point", "coordinates": [ 19.71294444, -30.86388889 ] } },
{ "type": "Feature", "properties": { "plot": "HTR_226", "year": 2004, "species_richness": 2, "subregion": "htr" }, "geometry": { "type": "Point", "coordinates": [ 19.63263889, -30.87394444 ] } },
{ "type": "Feature", "properties": { "plot": "HTR_227", "year": 2004, "species_richness": 3, "subregion": "htr" }, "geometry": { "type": "Point", "coordinates": [ 19.57252778, -30.91030556 ] } },
{ "type": "Feature", "properties": { "plot": "HTR_228", "year": 2004, "species_richness": 11, "subregion": "htr" }, "geometry": { "type": "Point", "coordinates": [ 19.41997222, -30.91258333 ] } },
{ "type": "Feature", "properties": { "plot": "HTR_229", "year": 2004, "species_richness": 7, "subregion": "htr" }, "geometry": { "type": "Point", "coordinates": [ 19.42655556, -30.90230556 ] } },
{ "type": "Feature", "properties": { "plot": "HTR_22_ak", "year": 2013, "species_richness": 10, "subregion": "htr" }, "geometry": { "type": "Point", "coordinates": [ 19.77072222, -31.43547222 ] } },
{ "type": "Feature", "properties": { "plot": "HTR_23", "year": 2004, "species_richness": 10, "subregion": "htr" }, "geometry": { "type": "Point", "coordinates": [ 19.13230556, -31.36819444 ] } },
{ "type": "Feature", "properties": { "plot": "HTR_230", "year": 2004, "species_richness": 4, "subregion": "htr" }, "geometry": { "type": "Point", "coordinates": [ 19.44894444, -30.84802778 ] } },
{ "type": "Feature", "properties": { "plot": "HTR_231", "year": 2004, "species_richness": 7, "subregion": "htr" }, "geometry": { "type": "Point", "coordinates": [ 19.53916667, -30.61036111 ] } },
{ "type": "Feature", "properties": { "plot": "HTR_232", "year": 2004, "species_richness": 3, "subregion": "htr" }, "geometry": { "type": "Point", "coordinates": [ 19.55475, -30.52588889 ] } },
{ "type": "Feature", "properties": { "plot": "HTR_233", "year": 2004, "species_richness": 7, "subregion": "htr" }, "geometry": { "type": "Point", "coordinates": [ 19.11272222, -31.32508333 ] } },
{ "type": "Feature", "properties": { "plot": "HTR_234", "year": 2004, "species_richness": 11, "subregion": "htr" }, "geometry": { "type": "Point", "coordinates": [ 19.12408333, -31.30119444 ] } },
{ "type": "Feature", "properties": { "plot": "HTR_235", "year": 2004, "species_richness": 5, "subregion": "htr" }, "geometry": { "type": "Point", "coordinates": [ 19.16558333, -31.26397222 ] } },
{ "type": "Feature", "properties": { "plot": "HTR_236", "year": 2004, "species_richness": 7, "subregion": "htr" }, "geometry": { "type": "Point", "coordinates": [ 19.18208333, -31.25527778 ] } },
{ "type": "Feature", "properties": { "plot": "HTR_237", "year": 2004, "species_richness": 4, "subregion": "htr" }, "geometry": { "type": "Point", "coordinates": [ 19.22552778, -31.18222222 ] } },
{ "type": "Feature", "properties": { "plot": "HTR_238", "year": 2004, "species_richness": 1, "subregion": "htr" }, "geometry": { "type": "Point", "coordinates": [ 19.22455556, -30.3925 ] } },
{ "type": "Feature", "properties": { "plot": "HTR_239", "year": 2004, "species_richness": 3, "subregion": "htr" }, "geometry": { "type": "Point", "coordinates": [ 19.25208333, -30.40402778 ] } },
{ "type": "Feature", "properties": { "plot": "HTR_23_ak", "year": 2013, "species_richness": 9, "subregion": "htr" }, "geometry": { "type": "Point", "coordinates": [ 19.76794444, -31.43458333 ] } },
{ "type": "Feature", "properties": { "plot": "HTR_24", "year": 2004, "species_richness": 4, "subregion": "htr" }, "geometry": { "type": "Point", "coordinates": [ 19.13677778, -31.36158333 ] } },
{ "type": "Feature", "properties": { "plot": "HTR_240", "year": 2004, "species_richness": 4, "subregion": "htr" }, "geometry": { "type": "Point", "coordinates": [ 19.29722222, -30.48813889 ] } },
{ "type": "Feature", "properties": { "plot": "HTR_241", "year": 2004, "species_richness": 3, "subregion": "htr" }, "geometry": { "type": "Point", "coordinates": [ 19.33902778, -30.57683333 ] } },
{ "type": "Feature", "properties": { "plot": "HTR_242", "year": 2004, "species_richness": 7, "subregion": "htr" }, "geometry": { "type": "Point", "coordinates": [ 19.38116667, -30.695 ] } },
{ "type": "Feature", "properties": { "plot": "HTR_243", "year": 2004, "species_richness": 9, "subregion": "htr" }, "geometry": { "type": "Point", "coordinates": [ 19.68605556, -32.00388889 ] } },
{ "type": "Feature", "properties": { "plot": "HTR_244", "year": 2004, "species_richness": 1, "subregion": "htr" }, "geometry": { "type": "Point", "coordinates": [ 19.6665, -32.00913889 ] } },
{ "type": "Feature", "properties": { "plot": "HTR_245", "year": 2004, "species_richness": 1, "subregion": "htr" }, "geometry": { "type": "Point", "coordinates": [ 19.58858333, -32.00430556 ] } },
{ "type": "Feature", "properties": { "plot": "HTR_246", "year": 2004, "species_richness": 7, "subregion": "htr" }, "geometry": { "type": "Point", "coordinates": [ 19.51661111, -32.00786111 ] } },
{ "type": "Feature", "properties": { "plot": "HTR_247", "year": 2004, "species_richness": 5, "subregion": "htr" }, "geometry": { "type": "Point", "coordinates": [ 19.44663889, -32.01819444 ] } },
{ "type": "Feature", "properties": { "plot": "HTR_248", "year": 2004, "species_richness": 10, "subregion": "htr" }, "geometry": { "type": "Point", "coordinates": [ 20.23347222, -32.47661111 ] } },
{ "type": "Feature", "properties": { "plot": "HTR_249", "year": 2004, "species_richness": 2, "subregion": "htr" }, "geometry": { "type": "Point", "coordinates": [ 20.25480556, -32.42866667 ] } },
{ "type": "Feature", "properties": { "plot": "HTR_24_ak", "year": 2013, "species_richness": 16, "subregion": "htr" }, "geometry": { "type": "Point", "coordinates": [ 19.7685, -31.4355 ] } },
{ "type": "Feature", "properties": { "plot": "HTR_25", "year": 2004, "species_richness": 7, "subregion": "htr" }, "geometry": { "type": "Point", "coordinates": [ 19.21125, -31.40152778 ] } },
{ "type": "Feature", "properties": { "plot": "HTR_250", "year": 2004, "species_richness": 12, "subregion": "htr" }, "geometry": { "type": "Point", "coordinates": [ 20.30408333, -32.40491667 ] } },
{ "type": "Feature", "properties": { "plot": "HTR_251", "year": 2004, "species_richness": 5, "subregion": "htr" }, "geometry": { "type": "Point", "coordinates": [ 20.34530556, -32.40725 ] } },
{ "type": "Feature", "properties": { "plot": "HTR_252", "year": 2004, "species_richness": 10, "subregion": "htr" }, "geometry": { "type": "Point", "coordinates": [ 20.35697222, -32.40913889 ] } },
{ "type": "Feature", "properties": { "plot": "HTR_253", "year": 2004, "species_richness": 3, "subregion": "htr" }, "geometry": { "type": "Point", "coordinates": [ 19.84341667, -31.47394444 ] } },
{ "type": "Feature", "properties": { "plot": "HTR_254", "year": 2004, "species_richness": 4, "subregion": "htr" }, "geometry": { "type": "Point", "coordinates": [ 19.98097222, -31.58616667 ] } },
{ "type": "Feature", "properties": { "plot": "HTR_255", "year": 2004, "species_richness": 6, "subregion": "htr" }, "geometry": { "type": "Point", "coordinates": [ 19.99816667, -31.58994444 ] } },
{ "type": "Feature", "properties": { "plot": "HTR_256", "year": 2004, "species_richness": 7, "subregion": "htr" }, "geometry": { "type": "Point", "coordinates": [ 20.05638889, -31.60430556 ] } },
{ "type": "Feature", "properties": { "plot": "HTR_257", "year": 2004, "species_richness": 5, "subregion": "htr" }, "geometry": { "type": "Point", "coordinates": [ 20.10252778, -31.61388889 ] } },
{ "type": "Feature", "properties": { "plot": "HTR_258", "year": 2004, "species_richness": 6, "subregion": "htr" }, "geometry": { "type": "Point", "coordinates": [ 20.1175, -31.62302778 ] } },
{ "type": "Feature", "properties": { "plot": "HTR_259", "year": 2004, "species_richness": 6, "subregion": "htr" }, "geometry": { "type": "Point", "coordinates": [ 20.20772222, -31.69480556 ] } },
{ "type": "Feature", "properties": { "plot": "HTR_25_ak", "year": 2013, "species_richness": 12, "subregion": "htr" }, "geometry": { "type": "Point", "coordinates": [ 19.76541667, -31.43752778 ] } },
{ "type": "Feature", "properties": { "plot": "HTR_26", "year": 2004, "species_richness": 11, "subregion": "htr" }, "geometry": { "type": "Point", "coordinates": [ 19.34294444, -31.48483333 ] } },
{ "type": "Feature", "properties": { "plot": "HTR_260", "year": 2004, "species_richness": 4, "subregion": "htr" }, "geometry": { "type": "Point", "coordinates": [ 20.26027778, -31.83988889 ] } },
{ "type": "Feature", "properties": { "plot": "HTR_261", "year": 2004, "species_richness": 6, "subregion": "htr" }, "geometry": { "type": "Point", "coordinates": [ 20.27363889, -31.93377778 ] } },
{ "type": "Feature", "properties": { "plot": "HTR_262", "year": 2004, "species_richness": 9, "subregion": "htr" }, "geometry": { "type": "Point", "coordinates": [ 20.34422222, -31.99475 ] } },
{ "type": "Feature", "properties": { "plot": "HTR_263", "year": 2004, "species_richness": 8, "subregion": "htr" }, "geometry": { "type": "Point", "coordinates": [ 20.34613889, -31.99663889 ] } },
{ "type": "Feature", "properties": { "plot": "HTR_264", "year": 2004, "species_richness": 7, "subregion": "htr" }, "geometry": { "type": "Point", "coordinates": [ 20.37733333, -32.01375 ] } },
{ "type": "Feature", "properties": { "plot": "HTR_265", "year": 2004, "species_richness": 6, "subregion": "htr" }, "geometry": { "type": "Point", "coordinates": [ 20.3875, -32.04527778 ] } },
{ "type": "Feature", "properties": { "plot": "HTR_266", "year": 2004, "species_richness": 5, "subregion": "htr" }, "geometry": { "type": "Point", "coordinates": [ 20.38030556, -32.04913889 ] } },
{ "type": "Feature", "properties": { "plot": "HTR_267", "year": 2004, "species_richness": 7, "subregion": "htr" }, "geometry": { "type": "Point", "coordinates": [ 20.3815, -32.11333333 ] } },
{ "type": "Feature", "properties": { "plot": "HTR_268", "year": 2004, "species_richness": 8, "subregion": "htr" }, "geometry": { "type": "Point", "coordinates": [ 20.42, -32.161 ] } },
{ "type": "Feature", "properties": { "plot": "HTR_269", "year": 2004, "species_richness": 9, "subregion": "htr" }, "geometry": { "type": "Point", "coordinates": [ 20.42619444, -32.16613889 ] } },
{ "type": "Feature", "properties": { "plot": "HTR_26_ak", "year": 2013, "species_richness": 17, "subregion": "htr" }, "geometry": { "type": "Point", "coordinates": [ 19.77411111, -31.43022222 ] } },
{ "type": "Feature", "properties": { "plot": "HTR_27", "year": 2004, "species_richness": 11, "subregion": "htr" }, "geometry": { "type": "Point", "coordinates": [ 19.38475, -31.49038889 ] } },
{ "type": "Feature", "properties": { "plot": "HTR_270", "year": 2004, "species_richness": 8, "subregion": "htr" }, "geometry": { "type": "Point", "coordinates": [ 20.47686111, -32.21363889 ] } },
{ "type": "Feature", "properties": { "plot": "HTR_271", "year": 2004, "species_richness": 7, "subregion": "htr" }, "geometry": { "type": "Point", "coordinates": [ 20.55338889, -32.23897222 ] } },
{ "type": "Feature", "properties": { "plot": "HTR_272", "year": 2004, "species_richness": 6, "subregion": "htr" }, "geometry": { "type": "Point", "coordinates": [ 20.55497222, -32.25038889 ] } },
{ "type": "Feature", "properties": { "plot": "HTR_273", "year": 2004, "species_richness": 10, "subregion": "htr" }, "geometry": { "type": "Point", "coordinates": [ 20.55527778, -32.25133333 ] } },
{ "type": "Feature", "properties": { "plot": "HTR_274", "year": 2004, "species_richness": 8, "subregion": "htr" }, "geometry": { "type": "Point", "coordinates": [ 20.68286111, -32.27983333 ] } },
{ "type": "Feature", "properties": { "plot": "HTR_275", "year": 2004, "species_richness": 6, "subregion": "htr" }, "geometry": { "type": "Point", "coordinates": [ 20.71158333, -32.17738889 ] } },
{ "type": "Feature", "properties": { "plot": "HTR_276", "year": 2004, "species_richness": 11, "subregion": "htr" }, "geometry": { "type": "Point", "coordinates": [ 20.6465, -32.0395 ] } },
{ "type": "Feature", "properties": { "plot": "HTR_277", "year": 2004, "species_richness": 9, "subregion": "htr" }, "geometry": { "type": "Point", "coordinates": [ 20.52613889, -32.02994444 ] } },
{ "type": "Feature", "properties": { "plot": "HTR_278", "year": 2004, "species_richness": 9, "subregion": "htr" }, "geometry": { "type": "Point", "coordinates": [ 20.52941667, -32.04119444 ] } },
{ "type": "Feature", "properties": { "plot": "HTR_279", "year": 2004, "species_richness": 6, "subregion": "htr" }, "geometry": { "type": "Point", "coordinates": [ 20.60938889, -32.1625 ] } },
{ "type": "Feature", "properties": { "plot": "HTR_27_ak", "year": 2013, "species_richness": 15, "subregion": "htr" }, "geometry": { "type": "Point", "coordinates": [ 19.774, -31.42875 ] } },
{ "type": "Feature", "properties": { "plot": "HTR_28", "year": 2004, "species_richness": 11, "subregion": "htr" }, "geometry": { "type": "Point", "coordinates": [ 19.40772222, -31.5035 ] } },
{ "type": "Feature", "properties": { "plot": "HTR_280", "year": 2004, "species_richness": 9, "subregion": "htr" }, "geometry": { "type": "Point", "coordinates": [ 20.60647222, -32.18186111 ] } },
{ "type": "Feature", "properties": { "plot": "HTR_281", "year": 2004, "species_richness": 6, "subregion": "htr" }, "geometry": { "type": "Point", "coordinates": [ 20.59619444, -32.22680556 ] } },
{ "type": "Feature", "properties": { "plot": "HTR_282", "year": 2004, "species_richness": 5, "subregion": "htr" }, "geometry": { "type": "Point", "coordinates": [ 20.66077778, -32.31863889 ] } },
{ "type": "Feature", "properties": { "plot": "HTR_283", "year": 2004, "species_richness": 7, "subregion": "htr" }, "geometry": { "type": "Point", "coordinates": [ 20.65813889, -32.41325 ] } },
{ "type": "Feature", "properties": { "plot": "HTR_284", "year": 2004, "species_richness": 9, "subregion": "htr" }, "geometry": { "type": "Point", "coordinates": [ 20.65786111, -32.41327778 ] } },
{ "type": "Feature", "properties": { "plot": "HTR_285", "year": 2004, "species_richness": 5, "subregion": "htr" }, "geometry": { "type": "Point", "coordinates": [ 20.61138889, -32.44841667 ] } },
{ "type": "Feature", "properties": { "plot": "HTR_286", "year": 2004, "species_richness": 9, "subregion": "htr" }, "geometry": { "type": "Point", "coordinates": [ 20.49816667, -32.36819444 ] } },
{ "type": "Feature", "properties": { "plot": "HTR_287", "year": 2004, "species_richness": 4, "subregion": "htr" }, "geometry": { "type": "Point", "coordinates": [ 20.49463889, -32.34616667 ] } },
{ "type": "Feature", "properties": { "plot": "HTR_288", "year": 2004, "species_richness": 8, "subregion": "htr" }, "geometry": { "type": "Point", "coordinates": [ 20.57094444, -32.45158333 ] } },
{ "type": "Feature", "properties": { "plot": "HTR_289", "year": 2004, "species_richness": 8, "subregion": "htr" }, "geometry": { "type": "Point", "coordinates": [ 20.49555556, -32.44833333 ] } },
{ "type": "Feature", "properties": { "plot": "HTR_28_ak", "year": 2013, "species_richness": 16, "subregion": "htr" }, "geometry": { "type": "Point", "coordinates": [ 19.77505556, -31.42833333 ] } },
{ "type": "Feature", "properties": { "plot": "HTR_29", "year": 2004, "species_richness": 5, "subregion": "htr" }, "geometry": { "type": "Point", "coordinates": [ 19.12861111, -31.42513889 ] } },
{ "type": "Feature", "properties": { "plot": "HTR_290", "year": 2004, "species_richness": 8, "subregion": "htr" }, "geometry": { "type": "Point", "coordinates": [ 20.40061111, -32.21469444 ] } },
{ "type": "Feature", "properties": { "plot": "HTR_291", "year": 2004, "species_richness": 6, "subregion": "htr" }, "geometry": { "type": "Point", "coordinates": [ 20.43644444, -32.206 ] } },
{ "type": "Feature", "properties": { "plot": "HTR_292", "year": 2004, "species_richness": 6, "subregion": "htr" }, "geometry": { "type": "Point", "coordinates": [ 20.39397222, -32.18577778 ] } },
{ "type": "Feature", "properties": { "plot": "HTR_293", "year": 2004, "species_richness": 5, "subregion": "htr" }, "geometry": { "type": "Point", "coordinates": [ 20.39969444, -32.15180556 ] } },
{ "type": "Feature", "properties": { "plot": "HTR_294", "year": 2004, "species_richness": 9, "subregion": "htr" }, "geometry": { "type": "Point", "coordinates": [ 20.69922222, -31.95377778 ] } },
{ "type": "Feature", "properties": { "plot": "HTR_295", "year": 2004, "species_richness": 2, "subregion": "htr" }, "geometry": { "type": "Point", "coordinates": [ 20.75566667, -31.83788889 ] } },
{ "type": "Feature", "properties": { "plot": "HTR_296", "year": 2004, "species_richness": 4, "subregion": "htr" }, "geometry": { "type": "Point", "coordinates": [ 20.82933333, -31.91738889 ] } },
{ "type": "Feature", "properties": { "plot": "HTR_297", "year": 2004, "species_richness": 10, "subregion": "htr" }, "geometry": { "type": "Point", "coordinates": [ 20.86713889, -31.97272222 ] } },
{ "type": "Feature", "properties": { "plot": "HTR_298", "year": 2004, "species_richness": 5, "subregion": "htr" }, "geometry": { "type": "Point", "coordinates": [ 20.78044444, -32.18586111 ] } },
{ "type": "Feature", "properties": { "plot": "HTR_299", "year": 2004, "species_richness": 5, "subregion": "htr" }, "geometry": { "type": "Point", "coordinates": [ 20.916, -32.106 ] } },
{ "type": "Feature", "properties": { "plot": "HTR_29_ak", "year": 2013, "species_richness": 19, "subregion": "htr" }, "geometry": { "type": "Point", "coordinates": [ 19.77744444, -31.42452778 ] } },
{ "type": "Feature", "properties": { "plot": "HTR_2_ak", "year": 2013, "species_richness": 18, "subregion": "htr" }, "geometry": { "type": "Point", "coordinates": [ 19.77327778, -31.44858333 ] } },
{ "type": "Feature", "properties": { "plot": "HTR_2_nieu", "year": 2014, "species_richness": 29, "subregion": "htr" }, "geometry": { "type": "Point", "coordinates": [ 19.03295, -31.28086 ] } },
{ "type": "Feature", "properties": { "plot": "HTR_3", "year": 2004, "species_richness": 19, "subregion": "htr" }, "geometry": { "type": "Point", "coordinates": [ 19.25511111, -31.544 ] } },
{ "type": "Feature", "properties": { "plot": "HTR_30", "year": 2004, "species_richness": 11, "subregion": "htr" }, "geometry": { "type": "Point", "coordinates": [ 19.17416667, -31.47088889 ] } },
{ "type": "Feature", "properties": { "plot": "HTR_300", "year": 2004, "species_richness": 7, "subregion": "htr" }, "geometry": { "type": "Point", "coordinates": [ 20.95794444, -31.99177778 ] } },
{ "type": "Feature", "properties": { "plot": "HTR_301", "year": 2004, "species_richness": 10, "subregion": "htr" }, "geometry": { "type": "Point", "coordinates": [ 21.05063889, -31.91105556 ] } },
{ "type": "Feature", "properties": { "plot": "HTR_302", "year": 2004, "species_richness": 5, "subregion": "htr" }, "geometry": { "type": "Point", "coordinates": [ 21.14325, -32.1415 ] } },
{ "type": "Feature", "properties": { "plot": "HTR_303", "year": 2004, "species_richness": 3, "subregion": "htr" }, "geometry": { "type": "Point", "coordinates": [ 20.96261111, -32.33858333 ] } },
{ "type": "Feature", "properties": { "plot": "HTR_304", "year": 2004, "species_richness": 6, "subregion": "htr" }, "geometry": { "type": "Point", "coordinates": [ 20.95297222, -32.34830556 ] } },
{ "type": "Feature", "properties": { "plot": "HTR_305", "year": 2004, "species_richness": 6, "subregion": "htr" }, "geometry": { "type": "Point", "coordinates": [ 20.93652778, -32.36997222 ] } },
{ "type": "Feature", "properties": { "plot": "HTR_306", "year": 2004, "species_richness": 10, "subregion": "htr" }, "geometry": { "type": "Point", "coordinates": [ 20.88088889, -32.40230556 ] } },
{ "type": "Feature", "properties": { "plot": "HTR_307", "year": 2004, "species_richness": 7, "subregion": "htr" }, "geometry": { "type": "Point", "coordinates": [ 20.81333333, -32.41027778 ] } },
{ "type": "Feature", "properties": { "plot": "HTR_308", "year": 2004, "species_richness": 4, "subregion": "htr" }, "geometry": { "type": "Point", "coordinates": [ 20.96888889, -32.41147222 ] } },
{ "type": "Feature", "properties": { "plot": "HTR_309", "year": 2004, "species_richness": 4, "subregion": "htr" }, "geometry": { "type": "Point", "coordinates": [ 21.00883333, -32.40811111 ] } },
{ "type": "Feature", "properties": { "plot": "HTR_30_ak", "year": 2013, "species_richness": 17, "subregion": "htr" }, "geometry": { "type": "Point", "coordinates": [ 19.77961111, -31.42327778 ] } },
{ "type": "Feature", "properties": { "plot": "HTR_31", "year": 2004, "species_richness": 7, "subregion": "htr" }, "geometry": { "type": "Point", "coordinates": [ 19.18111111, -31.50986111 ] } },
{ "type": "Feature", "properties": { "plot": "HTR_310", "year": 2004, "species_richness": 8, "subregion": "htr" }, "geometry": { "type": "Point", "coordinates": [ 21.02247222, -32.41161111 ] } },
{ "type": "Feature", "properties": { "plot": "HTR_311", "year": 2004, "species_richness": 6, "subregion": "htr" }, "geometry": { "type": "Point", "coordinates": [ 21.12980556, -32.47416667 ] } },
{ "type": "Feature", "properties": { "plot": "HTR_312", "year": 2004, "species_richness": 4, "subregion": "htr" }, "geometry": { "type": "Point", "coordinates": [ 21.16463889, -32.47136111 ] } },
{ "type": "Feature", "properties": { "plot": "HTR_313", "year": 2004, "species_richness": 4, "subregion": "htr" }, "geometry": { "type": "Point", "coordinates": [ 21.17811111, -32.46072222 ] } },
{ "type": "Feature", "properties": { "plot": "HTR_314", "year": 2004, "species_richness": 1, "subregion": "htr" }, "geometry": { "type": "Point", "coordinates": [ 21.19352778, -32.45477778 ] } },
{ "type": "Feature", "properties": { "plot": "HTR_315", "year": 2004, "species_richness": 3, "subregion": "htr" }, "geometry": { "type": "Point", "coordinates": [ 21.20355556, -32.45127778 ] } },
{ "type": "Feature", "properties": { "plot": "HTR_316", "year": 2004, "species_richness": 5, "subregion": "htr" }, "geometry": { "type": "Point", "coordinates": [ 21.21513889, -32.42738889 ] } },
{ "type": "Feature", "properties": { "plot": "HTR_317", "year": 2004, "species_richness": 4, "subregion": "htr" }, "geometry": { "type": "Point", "coordinates": [ 21.21730556, -32.38775 ] } },
{ "type": "Feature", "properties": { "plot": "HTR_318", "year": 2004, "species_richness": 6, "subregion": "htr" }, "geometry": { "type": "Point", "coordinates": [ 21.36366667, -32.24475 ] } },
{ "type": "Feature", "properties": { "plot": "HTR_319", "year": 2004, "species_richness": 6, "subregion": "htr" }, "geometry": { "type": "Point", "coordinates": [ 21.36286111, -32.23944444 ] } },
{ "type": "Feature", "properties": { "plot": "HTR_31_ak", "year": 2013, "species_richness": 10, "subregion": "htr" }, "geometry": { "type": "Point", "coordinates": [ 19.77677778, -31.41013889 ] } },
{ "type": "Feature", "properties": { "plot": "HTR_32", "year": 2004, "species_richness": 7, "subregion": "htr" }, "geometry": { "type": "Point", "coordinates": [ 19.18666667, -31.52880556 ] } },
{ "type": "Feature", "properties": { "plot": "HTR_320", "year": 2004, "species_richness": 4, "subregion": "htr" }, "geometry": { "type": "Point", "coordinates": [ 21.36769444, -31.22186111 ] } },
{ "type": "Feature", "properties": { "plot": "HTR_321", "year": 2004, "species_richness": 7, "subregion": "htr" }, "geometry": { "type": "Point", "coordinates": [ 21.43036111, -32.09886111 ] } },
{ "type": "Feature", "properties": { "plot": "HTR_322", "year": 2004, "species_richness": 8, "subregion": "htr" }, "geometry": { "type": "Point", "coordinates": [ 21.44355556, -32.08566667 ] } },
{ "type": "Feature", "properties": { "plot": "HTR_323", "year": 2004, "species_richness": 4, "subregion": "htr" }, "geometry": { "type": "Point", "coordinates": [ 21.74055556, -32.15594444 ] } },
{ "type": "Feature", "properties": { "plot": "HTR_324", "year": 2004, "species_richness": 4, "subregion": "htr" }, "geometry": { "type": "Point", "coordinates": [ 21.73252778, -32.11533333 ] } },
{ "type": "Feature", "properties": { "plot": "HTR_325", "year": 2004, "species_richness": 6, "subregion": "htr" }, "geometry": { "type": "Point", "coordinates": [ 20.69111111, -32.48508333 ] } },
{ "type": "Feature", "properties": { "plot": "HTR_326", "year": 2004, "species_richness": 4, "subregion": "htr" }, "geometry": { "type": "Point", "coordinates": [ 20.72452778, -32.48761111 ] } },
{ "type": "Feature", "properties": { "plot": "HTR_327", "year": 2004, "species_richness": 3, "subregion": "htr" }, "geometry": { "type": "Point", "coordinates": [ 20.80811111, -32.49913889 ] } },
{ "type": "Feature", "properties": { "plot": "HTR_328", "year": 2004, "species_richness": 4, "subregion": "htr" }, "geometry": { "type": "Point", "coordinates": [ 20.82055556, -32.506 ] } },
{ "type": "Feature", "properties": { "plot": "HTR_329", "year": 2004, "species_richness": 3, "subregion": "htr" }, "geometry": { "type": "Point", "coordinates": [ 20.84294444, -32.50911111 ] } },
{ "type": "Feature", "properties": { "plot": "HTR_32_ak", "year": 2013, "species_richness": 4, "subregion": "htr" }, "geometry": { "type": "Point", "coordinates": [ 19.77583333, -31.41033333 ] } },
{ "type": "Feature", "properties": { "plot": "HTR_33", "year": 2004, "species_richness": 13, "subregion": "htr" }, "geometry": { "type": "Point", "coordinates": [ 19.19013889, -31.54361111 ] } },
{ "type": "Feature", "properties": { "plot": "HTR_330", "year": 2004, "species_richness": 9, "subregion": "htr" }, "geometry": { "type": "Point", "coordinates": [ 20.85775, -32.50986111 ] } },
{ "type": "Feature", "properties": { "plot": "HTR_331", "year": 2004, "species_richness": 7, "subregion": "htr" }, "geometry": { "type": "Point", "coordinates": [ 20.87677778, -32.51052778 ] } },
{ "type": "Feature", "properties": { "plot": "HTR_332", "year": 2004, "species_richness": 8, "subregion": "htr" }, "geometry": { "type": "Point", "coordinates": [ 20.92033333, -32.51783333 ] } },
{ "type": "Feature", "properties": { "plot": "HTR_333", "year": 2004, "species_richness": 10, "subregion": "htr" }, "geometry": { "type": "Point", "coordinates": [ 20.93202778, -32.52127778 ] } },
{ "type": "Feature", "properties": { "plot": "HTR_334", "year": 2004, "species_richness": 7, "subregion": "htr" }, "geometry": { "type": "Point", "coordinates": [ 21.09502778, -32.52861111 ] } },
{ "type": "Feature", "properties": { "plot": "HTR_335", "year": 2004, "species_richness": 5, "subregion": "htr" }, "geometry": { "type": "Point", "coordinates": [ 21.14511111, -32.52894444 ] } },
{ "type": "Feature", "properties": { "plot": "HTR_336", "year": 2004, "species_richness": 7, "subregion": "htr" }, "geometry": { "type": "Point", "coordinates": [ 20.64425, -32.53216667 ] } },
{ "type": "Feature", "properties": { "plot": "HTR_337", "year": 2004, "species_richness": 6, "subregion": "htr" }, "geometry": { "type": "Point", "coordinates": [ 20.73877778, -32.5935 ] } },
{ "type": "Feature", "properties": { "plot": "HTR_338", "year": 2004, "species_richness": 3, "subregion": "htr" }, "geometry": { "type": "Point", "coordinates": [ 20.75827778, -32.63658333 ] } },
{ "type": "Feature", "properties": { "plot": "HTR_339", "year": 2004, "species_richness": 4, "subregion": "htr" }, "geometry": { "type": "Point", "coordinates": [ 20.76238889, -32.67136111 ] } },
{ "type": "Feature", "properties": { "plot": "HTR_33_ak", "year": 2013, "species_richness": 14, "subregion": "htr" }, "geometry": { "type": "Point", "coordinates": [ 19.77672222, -31.41116667 ] } },
{ "type": "Feature", "properties": { "plot": "HTR_34", "year": 2004, "species_richness": 3, "subregion": "htr" }, "geometry": { "type": "Point", "coordinates": [ 19.17572222, -31.59725 ] } },
{ "type": "Feature", "properties": { "plot": "HTR_340", "year": 2004, "species_richness": 11, "subregion": "htr" }, "geometry": { "type": "Point", "coordinates": [ 20.76941667, -32.68444444 ] } },
{ "type": "Feature", "properties": { "plot": "HTR_341", "year": 2004, "species_richness": 7, "subregion": "htr" }, "geometry": { "type": "Point", "coordinates": [ 20.77825, -32.69894444 ] } },
{ "type": "Feature", "properties": { "plot": "HTR_342", "year": 2004, "species_richness": 7, "subregion": "htr" }, "geometry": { "type": "Point", "coordinates": [ 20.78688889, -32.7105 ] } },
{ "type": "Feature", "properties": { "plot": "HTR_343", "year": 2004, "species_richness": 4, "subregion": "htr" }, "geometry": { "type": "Point", "coordinates": [ 20.85730556, -32.70013889 ] } },
{ "type": "Feature", "properties": { "plot": "HTR_344", "year": 2004, "species_richness": 9, "subregion": "htr" }, "geometry": { "type": "Point", "coordinates": [ 20.74358333, -32.72347222 ] } },
{ "type": "Feature", "properties": { "plot": "HTR_345", "year": 2004, "species_richness": 14, "subregion": "htr" }, "geometry": { "type": "Point", "coordinates": [ 20.69872222, -32.81644444 ] } },
{ "type": "Feature", "properties": { "plot": "HTR_346", "year": 2004, "species_richness": 5, "subregion": "htr" }, "geometry": { "type": "Point", "coordinates": [ 20.68872222, -32.86138889 ] } },
{ "type": "Feature", "properties": { "plot": "HTR_347", "year": 2004, "species_richness": 4, "subregion": "htr" }, "geometry": { "type": "Point", "coordinates": [ 20.33580556, -32.76716667 ] } },
{ "type": "Feature", "properties": { "plot": "HTR_348", "year": 2004, "species_richness": 6, "subregion": "htr" }, "geometry": { "type": "Point", "coordinates": [ 20.29544444, -32.78147222 ] } },
{ "type": "Feature", "properties": { "plot": "HTR_349", "year": 2004, "species_richness": 5, "subregion": "htr" }, "geometry": { "type": "Point", "coordinates": [ 20.24869444, -32.78066667 ] } },
{ "type": "Feature", "properties": { "plot": "HTR_34_ak", "year": 2013, "species_richness": 15, "subregion": "htr" }, "geometry": { "type": "Point", "coordinates": [ 19.77627778, -31.41163889 ] } },
{ "type": "Feature", "properties": { "plot": "HTR_35", "year": 2004, "species_richness": 12, "subregion": "htr" }, "geometry": { "type": "Point", "coordinates": [ 19.15630556, -31.83263889 ] } },
{ "type": "Feature", "properties": { "plot": "HTR_350", "year": 2004, "species_richness": 3, "subregion": "htr" }, "geometry": { "type": "Point", "coordinates": [ 20.02888889, -32.82783333 ] } },
{ "type": "Feature", "properties": { "plot": "HTR_351", "year": 2004, "species_richness": 4, "subregion": "htr" }, "geometry": { "type": "Point", "coordinates": [ 19.97908333, -32.85672222 ] } },
{ "type": "Feature", "properties": { "plot": "HTR_352", "year": 2004, "species_richness": 5, "subregion": "htr" }, "geometry": { "type": "Point", "coordinates": [ 19.969, -32.87608333 ] } },
{ "type": "Feature", "properties": { "plot": "HTR_353", "year": 2004, "species_richness": 4, "subregion": "htr" }, "geometry": { "type": "Point", "coordinates": [ 19.92519444, -32.94713889 ] } },
{ "type": "Feature", "properties": { "plot": "HTR_354", "year": 2004, "species_richness": 7, "subregion": "htr" }, "geometry": { "type": "Point", "coordinates": [ 19.88508333, -33.00761111 ] } },
{ "type": "Feature", "properties": { "plot": "HTR_355", "year": 2004, "species_richness": 4, "subregion": "htr" }, "geometry": { "type": "Point", "coordinates": [ 19.78363889, -33.17986111 ] } },
{ "type": "Feature", "properties": { "plot": "HTR_356", "year": 2004, "species_richness": 4, "subregion": "htr" }, "geometry": { "type": "Point", "coordinates": [ 19.75191667, -33.19508333 ] } },
{ "type": "Feature", "properties": { "plot": "HTR_357", "year": 2004, "species_richness": 1, "subregion": "htr" }, "geometry": { "type": "Point", "coordinates": [ 19.77075, -33.09355556 ] } },
{ "type": "Feature", "properties": { "plot": "HTR_359", "year": 2004, "species_richness": 3, "subregion": "htr" }, "geometry": { "type": "Point", "coordinates": [ 19.77411111, -32.86827778 ] } },
{ "type": "Feature", "properties": { "plot": "HTR_35_ak", "year": 2013, "species_richness": 9, "subregion": "htr" }, "geometry": { "type": "Point", "coordinates": [ 19.77061111, -31.40933333 ] } },
{ "type": "Feature", "properties": { "plot": "HTR_36", "year": 2004, "species_richness": 7, "subregion": "htr" }, "geometry": { "type": "Point", "coordinates": [ 19.18263889, -31.85583333 ] } },
{ "type": "Feature", "properties": { "plot": "HTR_362", "year": 2004, "species_richness": 7, "subregion": "htr" }, "geometry": { "type": "Point", "coordinates": [ 20.01988889, -31.98755556 ] } },
{ "type": "Feature", "properties": { "plot": "HTR_363", "year": 2004, "species_richness": 8, "subregion": "htr" }, "geometry": { "type": "Point", "coordinates": [ 20.02397222, -31.97761111 ] } },
{ "type": "Feature", "properties": { "plot": "HTR_364", "year": 2004, "species_richness": 8, "subregion": "htr" }, "geometry": { "type": "Point", "coordinates": [ 20.02633333, -31.9305 ] } },
{ "type": "Feature", "properties": { "plot": "HTR_365", "year": 2004, "species_richness": 16, "subregion": "htr" }, "geometry": { "type": "Point", "coordinates": [ 20.02894444, -31.92222222 ] } },
{ "type": "Feature", "properties": { "plot": "HTR_366", "year": 2004, "species_richness": 6, "subregion": "htr" }, "geometry": { "type": "Point", "coordinates": [ 19.84858333, -31.33497222 ] } },
{ "type": "Feature", "properties": { "plot": "HTR_367", "year": 2004, "species_richness": 5, "subregion": "htr" }, "geometry": { "type": "Point", "coordinates": [ 19.83055556, -31.33705556 ] } },
{ "type": "Feature", "properties": { "plot": "HTR_368", "year": 2004, "species_richness": 4, "subregion": "htr" }, "geometry": { "type": "Point", "coordinates": [ 19.80619444, -31.34602778 ] } },
{ "type": "Feature", "properties": { "plot": "HTR_369", "year": 2004, "species_richness": 8, "subregion": "htr" }, "geometry": { "type": "Point", "coordinates": [ 19.78163889, -31.38569444 ] } },
{ "type": "Feature", "properties": { "plot": "HTR_36_ak", "year": 2013, "species_richness": 7, "subregion": "htr" }, "geometry": { "type": "Point", "coordinates": [ 19.77561111, -31.41191667 ] } },
{ "type": "Feature", "properties": { "plot": "HTR_37", "year": 2004, "species_richness": 5, "subregion": "htr" }, "geometry": { "type": "Point", "coordinates": [ 19.18797222, -31.86041667 ] } },
{ "type": "Feature", "properties": { "plot": "HTR_370", "year": 2004, "species_richness": 13, "subregion": "htr" }, "geometry": { "type": "Point", "coordinates": [ 19.79563889, -31.35775 ] } },
{ "type": "Feature", "properties": { "plot": "HTR_371", "year": 2004, "species_richness": 3, "subregion": "htr" }, "geometry": { "type": "Point", "coordinates": [ 19.81577778, -31.33988889 ] } },
{ "type": "Feature", "properties": { "plot": "HTR_372", "year": 2004, "species_richness": 7, "subregion": "htr" }, "geometry": { "type": "Point", "coordinates": [ 20.56291667, -32.55772222 ] } },
{ "type": "Feature", "properties": { "plot": "HTR_373", "year": 2004, "species_richness": 4, "subregion": "htr" }, "geometry": { "type": "Point", "coordinates": [ 20.02725, -31.43580556 ] } },
{ "type": "Feature", "properties": { "plot": "HTR_374", "year": 2004, "species_richness": 9, "subregion": "htr" }, "geometry": { "type": "Point", "coordinates": [ 20.06022222, -31.39825 ] } },
{ "type": "Feature", "properties": { "plot": "HTR_375", "year": 2004, "species_richness": 3, "subregion": "htr" }, "geometry": { "type": "Point", "coordinates": [ 20.07472222, -31.3815 ] } },
{ "type": "Feature", "properties": { "plot": "HTR_376", "year": 2004, "species_richness": 4, "subregion": "htr" }, "geometry": { "type": "Point", "coordinates": [ 20.01238889, -31.45652778 ] } },
{ "type": "Feature", "properties": { "plot": "HTR_377", "year": 2004, "species_richness": 5, "subregion": "htr" }, "geometry": { "type": "Point", "coordinates": [ 19.02330556, -32.012 ] } },
{ "type": "Feature", "properties": { "plot": "HTR_378", "year": 2004, "species_richness": 6, "subregion": "htr" }, "geometry": { "type": "Point", "coordinates": [ 19.01391667, -31.99933333 ] } },
{ "type": "Feature", "properties": { "plot": "HTR_379", "year": 2004, "species_richness": 4, "subregion": "htr" }, "geometry": { "type": "Point", "coordinates": [ 18.9775, -31.95602778 ] } },
{ "type": "Feature", "properties": { "plot": "HTR_37_ak", "year": 2013, "species_richness": 18, "subregion": "htr" }, "geometry": { "type": "Point", "coordinates": [ 19.77825, -31.41536111 ] } },
{ "type": "Feature", "properties": { "plot": "HTR_38", "year": 2004, "species_richness": 7, "subregion": "htr" }, "geometry": { "type": "Point", "coordinates": [ 19.19597222, -31.86991667 ] } },
{ "type": "Feature", "properties": { "plot": "HTR_380", "year": 2004, "species_richness": 7, "subregion": "htr" }, "geometry": { "type": "Point", "coordinates": [ 18.95336111, -31.94555556 ] } },
{ "type": "Feature", "properties": { "plot": "HTR_381", "year": 2004, "species_richness": 4, "subregion": "htr" }, "geometry": { "type": "Point", "coordinates": [ 19.24905556, -32.14094444 ] } },
{ "type": "Feature", "properties": { "plot": "HTR_384", "year": 2004, "species_richness": 10, "subregion": "htr" }, "geometry": { "type": "Point", "coordinates": [ 18.92544444, -31.72838889 ] } },
{ "type": "Feature", "properties": { "plot": "HTR_385", "year": 2004, "species_richness": 1, "subregion": "htr" }, "geometry": { "type": "Point", "coordinates": [ 19.62111111, -32.32741667 ] } },
{ "type": "Feature", "properties": { "plot": "HTR_386", "year": 2004, "species_richness": 1, "subregion": "htr" }, "geometry": { "type": "Point", "coordinates": [ 19.62147222, -32.32738889 ] } },
{ "type": "Feature", "properties": { "plot": "HTR_388", "year": 2004, "species_richness": 4, "subregion": "htr" }, "geometry": { "type": "Point", "coordinates": [ 19.31441667, -30.94436111 ] } },
{ "type": "Feature", "properties": { "plot": "HTR_389", "year": 2004, "species_richness": 2, "subregion": "htr" }, "geometry": { "type": "Point", "coordinates": [ 19.26325, -30.92319444 ] } },
{ "type": "Feature", "properties": { "plot": "HTR_38_ak", "year": 2013, "species_richness": 10, "subregion": "htr" }, "geometry": { "type": "Point", "coordinates": [ 19.77819444, -31.41491667 ] } },
{ "type": "Feature", "properties": { "plot": "HTR_39", "year": 2004, "species_richness": 13, "subregion": "htr" }, "geometry": { "type": "Point", "coordinates": [ 19.19105556, -31.88480556 ] } },
{ "type": "Feature", "properties": { "plot": "HTR_390", "year": 2004, "species_richness": 7, "subregion": "htr" }, "geometry": { "type": "Point", "coordinates": [ 18.58872222, -30.91644444 ] } },
{ "type": "Feature", "properties": { "plot": "HTR_39_ak", "year": 2013, "species_richness": 14, "subregion": "htr" }, "geometry": { "type": "Point", "coordinates": [ 19.77894444, -31.41522222 ] } },
{ "type": "Feature", "properties": { "plot": "HTR_3_ak", "year": 2013, "species_richness": 18, "subregion": "htr" }, "geometry": { "type": "Point", "coordinates": [ 19.77583333, -31.44594444 ] } },
{ "type": "Feature", "properties": { "plot": "HTR_3_nieu", "year": 2014, "species_richness": 24, "subregion": "htr" }, "geometry": { "type": "Point", "coordinates": [ 19.04081, -31.27577 ] } },
{ "type": "Feature", "properties": { "plot": "HTR_4", "year": 2004, "species_richness": 14, "subregion": "htr" }, "geometry": { "type": "Point", "coordinates": [ 19.24866667, -31.495 ] } },
{ "type": "Feature", "properties": { "plot": "HTR_40", "year": 2004, "species_richness": 8, "subregion": "htr" }, "geometry": { "type": "Point", "coordinates": [ 19.18655556, -31.89472222 ] } },
{ "type": "Feature", "properties": { "plot": "HTR_40_ak", "year": 2013, "species_richness": 14, "subregion": "htr" }, "geometry": { "type": "Point", "coordinates": [ 19.78263889, -31.4245 ] } },
{ "type": "Feature", "properties": { "plot": "HTR_41", "year": 2004, "species_richness": 9, "subregion": "htr" }, "geometry": { "type": "Point", "coordinates": [ 19.20255556, -31.90847222 ] } },
{ "type": "Feature", "properties": { "plot": "HTR_41_ak", "year": 2013, "species_richness": 12, "subregion": "htr" }, "geometry": { "type": "Point", "coordinates": [ 19.76713889, -31.45127778 ] } },
{ "type": "Feature", "properties": { "plot": "HTR_42", "year": 2004, "species_richness": 3, "subregion": "htr" }, "geometry": { "type": "Point", "coordinates": [ 19.20441667, -31.93983333 ] } },
{ "type": "Feature", "properties": { "plot": "HTR_42_ak", "year": 2013, "species_richness": 14, "subregion": "htr" }, "geometry": { "type": "Point", "coordinates": [ 19.76758333, -31.45075 ] } },
{ "type": "Feature", "properties": { "plot": "HTR_43", "year": 2004, "species_richness": 14, "subregion": "htr" }, "geometry": { "type": "Point", "coordinates": [ 19.17886111, -32.051 ] } },
{ "type": "Feature", "properties": { "plot": "HTR_43_ak", "year": 2013, "species_richness": 15, "subregion": "htr" }, "geometry": { "type": "Point", "coordinates": [ 19.76077778, -31.44527778 ] } },
{ "type": "Feature", "properties": { "plot": "HTR_44", "year": 2004, "species_richness": 6, "subregion": "htr" }, "geometry": { "type": "Point", "coordinates": [ 19.22108333, -32.01863889 ] } },
{ "type": "Feature", "properties": { "plot": "HTR_44_ak", "year": 2013, "species_richness": 8, "subregion": "htr" }, "geometry": { "type": "Point", "coordinates": [ 19.75627778, -31.44286111 ] } },
{ "type": "Feature", "properties": { "plot": "HTR_45", "year": 2004, "species_richness": 5, "subregion": "htr" }, "geometry": { "type": "Point", "coordinates": [ 19.22833333, -32.00669444 ] } },
{ "type": "Feature", "properties": { "plot": "HTR_45_ak", "year": 2013, "species_richness": 10, "subregion": "htr" }, "geometry": { "type": "Point", "coordinates": [ 19.75616667, -31.442 ] } },
{ "type": "Feature", "properties": { "plot": "HTR_46", "year": 2004, "species_richness": 9, "subregion": "htr" }, "geometry": { "type": "Point", "coordinates": [ 19.22783333, -31.99894444 ] } },
{ "type": "Feature", "properties": { "plot": "HTR_46_ak", "year": 2013, "species_richness": 15, "subregion": "htr" }, "geometry": { "type": "Point", "coordinates": [ 19.75769444, -31.44266667 ] } },
{ "type": "Feature", "properties": { "plot": "HTR_47", "year": 2004, "species_richness": 10, "subregion": "htr" }, "geometry": { "type": "Point", "coordinates": [ 19.23961111, -31.94319444 ] } },
{ "type": "Feature", "properties": { "plot": "HTR_47_ak", "year": 2013, "species_richness": 17, "subregion": "htr" }, "geometry": { "type": "Point", "coordinates": [ 19.75902778, -31.443 ] } },
{ "type": "Feature", "properties": { "plot": "HTR_48", "year": 2004, "species_richness": 8, "subregion": "htr" }, "geometry": { "type": "Point", "coordinates": [ 19.27263889, -31.88052778 ] } },
{ "type": "Feature", "properties": { "plot": "HTR_48_ak", "year": 2013, "species_richness": 12, "subregion": "htr" }, "geometry": { "type": "Point", "coordinates": [ 19.7595, -31.44305556 ] } },
{ "type": "Feature", "properties": { "plot": "HTR_49", "year": 2004, "species_richness": 8, "subregion": "htr" }, "geometry": { "type": "Point", "coordinates": [ 19.2715, -31.8505 ] } },
{ "type": "Feature", "properties": { "plot": "HTR_49_ak", "year": 2013, "species_richness": 23, "subregion": "htr" }, "geometry": { "type": "Point", "coordinates": [ 19.76011111, -31.44311111 ] } },
{ "type": "Feature", "properties": { "plot": "HTR_4_ak", "year": 2013, "species_richness": 18, "subregion": "htr" }, "geometry": { "type": "Point", "coordinates": [ 19.77680556, -31.445 ] } },
{ "type": "Feature", "properties": { "plot": "HTR_4_nieu", "year": 2014, "species_richness": 27, "subregion": "htr" }, "geometry": { "type": "Point", "coordinates": [ 19.04072, -31.27538 ] } },
{ "type": "Feature", "properties": { "plot": "HTR_5", "year": 2004, "species_richness": 13, "subregion": "htr" }, "geometry": { "type": "Point", "coordinates": [ 19.47972222, -31.48455556 ] } },
{ "type": "Feature", "properties": { "plot": "HTR_50", "year": 2004, "species_richness": 4, "subregion": "htr" }, "geometry": { "type": "Point", "coordinates": [ 19.28622222, -31.78011111 ] } },
{ "type": "Feature", "properties": { "plot": "HTR_50_ak", "year": 2013, "species_richness": 15, "subregion": "htr" }, "geometry": { "type": "Point", "coordinates": [ 19.77541667, -31.42680556 ] } },
{ "type": "Feature", "properties": { "plot": "HTR_51", "year": 2004, "species_richness": 8, "subregion": "htr" }, "geometry": { "type": "Point", "coordinates": [ 19.30280556, -31.71975 ] } },
{ "type": "Feature", "properties": { "plot": "HTR_51_ak", "year": 2013, "species_richness": 12, "subregion": "htr" }, "geometry": { "type": "Point", "coordinates": [ 19.77547222, -31.42666667 ] } },
{ "type": "Feature", "properties": { "plot": "HTR_52", "year": 2004, "species_richness": 8, "subregion": "htr" }, "geometry": { "type": "Point", "coordinates": [ 19.2895, -31.70286111 ] } },
{ "type": "Feature", "properties": { "plot": "HTR_52_ak", "year": 2013, "species_richness": 9, "subregion": "htr" }, "geometry": { "type": "Point", "coordinates": [ 19.77325, -31.42519444 ] } },
{ "type": "Feature", "properties": { "plot": "HTR_53", "year": 2004, "species_richness": 5, "subregion": "htr" }, "geometry": { "type": "Point", "coordinates": [ 19.246, -31.63588889 ] } },
{ "type": "Feature", "properties": { "plot": "HTR_53_ak", "year": 2013, "species_richness": 15, "subregion": "htr" }, "geometry": { "type": "Point", "coordinates": [ 19.77311111, -31.42522222 ] } },
{ "type": "Feature", "properties": { "plot": "HTR_54", "year": 2004, "species_richness": 8, "subregion": "htr" }, "geometry": { "type": "Point", "coordinates": [ 19.37202778, -31.55213889 ] } },
{ "type": "Feature", "properties": { "plot": "HTR_54_ak", "year": 2013, "species_richness": 5, "subregion": "htr" }, "geometry": { "type": "Point", "coordinates": [ 19.77122222, -31.42597222 ] } },
{ "type": "Feature", "properties": { "plot": "HTR_55", "year": 2004, "species_richness": 9, "subregion": "htr" }, "geometry": { "type": "Point", "coordinates": [ 19.51188889, -31.30133333 ] } },
{ "type": "Feature", "properties": { "plot": "HTR_55_ak", "year": 2013, "species_richness": 14, "subregion": "htr" }, "geometry": { "type": "Point", "coordinates": [ 19.77233333, -31.42663889 ] } },
{ "type": "Feature", "properties": { "plot": "HTR_56", "year": 2004, "species_richness": 9, "subregion": "htr" }, "geometry": { "type": "Point", "coordinates": [ 19.52661111, -31.24852778 ] } },
{ "type": "Feature", "properties": { "plot": "HTR_56_ak", "year": 2013, "species_richness": 22, "subregion": "htr" }, "geometry": { "type": "Point", "coordinates": [ 19.78097222, -31.41447222 ] } },
{ "type": "Feature", "properties": { "plot": "HTR_57", "year": 2004, "species_richness": 7, "subregion": "htr" }, "geometry": { "type": "Point", "coordinates": [ 19.58055556, -31.21269444 ] } },
{ "type": "Feature", "properties": { "plot": "HTR_57_ak", "year": 2013, "species_richness": 12, "subregion": "htr" }, "geometry": { "type": "Point", "coordinates": [ 19.78275, -31.41461111 ] } },
{ "type": "Feature", "properties": { "plot": "HTR_58", "year": 2004, "species_richness": 9, "subregion": "htr" }, "geometry": { "type": "Point", "coordinates": [ 19.598, -31.20655556 ] } },
{ "type": "Feature", "properties": { "plot": "HTR_58_ak", "year": 2013, "species_richness": 13, "subregion": "htr" }, "geometry": { "type": "Point", "coordinates": [ 19.78344444, -31.41466667 ] } },
{ "type": "Feature", "properties": { "plot": "HTR_59", "year": 2004, "species_richness": 5, "subregion": "htr" }, "geometry": { "type": "Point", "coordinates": [ 19.63783333, -31.18211111 ] } },
{ "type": "Feature", "properties": { "plot": "HTR_59_ak", "year": 2013, "species_richness": 21, "subregion": "htr" }, "geometry": { "type": "Point", "coordinates": [ 19.78363889, -31.41369444 ] } },
{ "type": "Feature", "properties": { "plot": "HTR_5_ak", "year": 2013, "species_richness": 15, "subregion": "htr" }, "geometry": { "type": "Point", "coordinates": [ 19.77569444, -31.451 ] } },
{ "type": "Feature", "properties": { "plot": "HTR_5_nieu", "year": 2014, "species_richness": 37, "subregion": "htr" }, "geometry": { "type": "Point", "coordinates": [ 19.04989, -31.27247 ] } },
{ "type": "Feature", "properties": { "plot": "HTR_6", "year": 2004, "species_richness": 13, "subregion": "htr" }, "geometry": { "type": "Point", "coordinates": [ 19.47680556, -31.45755556 ] } },
{ "type": "Feature", "properties": { "plot": "HTR_60", "year": 2004, "species_richness": 4, "subregion": "htr" }, "geometry": { "type": "Point", "coordinates": [ 19.65544444, -31.16361111 ] } },
{ "type": "Feature", "properties": { "plot": "HTR_60_ak", "year": 2013, "species_richness": 11, "subregion": "htr" }, "geometry": { "type": "Point", "coordinates": [ 19.78355556, -31.41263889 ] } },
{ "type": "Feature", "properties": { "plot": "HTR_61", "year": 2004, "species_richness": 9, "subregion": "htr" }, "geometry": { "type": "Point", "coordinates": [ 19.68611111, -31.18397222 ] } },
{ "type": "Feature", "properties": { "plot": "HTR_61_ak", "year": 2013, "species_richness": 17, "subregion": "htr" }, "geometry": { "type": "Point", "coordinates": [ 19.78283333, -31.41302778 ] } },
{ "type": "Feature", "properties": { "plot": "HTR_62", "year": 2004, "species_richness": 1, "subregion": "htr" }, "geometry": { "type": "Point", "coordinates": [ 19.78094444, -31.135 ] } },
{ "type": "Feature", "properties": { "plot": "HTR_62_ak", "year": 2013, "species_richness": 16, "subregion": "htr" }, "geometry": { "type": "Point", "coordinates": [ 19.76241667, -31.43525 ] } },
{ "type": "Feature", "properties": { "plot": "HTR_63", "year": 2004, "species_richness": 6, "subregion": "htr" }, "geometry": { "type": "Point", "coordinates": [ 19.80852778, -31.12238889 ] } },
{ "type": "Feature", "properties": { "plot": "HTR_63_ak", "year": 2013, "species_richness": 12, "subregion": "htr" }, "geometry": { "type": "Point", "coordinates": [ 19.75852778, -31.43519444 ] } },
{ "type": "Feature", "properties": { "plot": "HTR_64", "year": 2004, "species_richness": 7, "subregion": "htr" }, "geometry": { "type": "Point", "coordinates": [ 19.83933333, -31.12519444 ] } },
{ "type": "Feature", "properties": { "plot": "HTR_64_ak", "year": 2013, "species_richness": 12, "subregion": "htr" }, "geometry": { "type": "Point", "coordinates": [ 19.75511111, -31.43541667 ] } },
{ "type": "Feature", "properties": { "plot": "HTR_65", "year": 2004, "species_richness": 9, "subregion": "htr" }, "geometry": { "type": "Point", "coordinates": [ 19.86266667, -31.13055556 ] } },
{ "type": "Feature", "properties": { "plot": "HTR_65_ak", "year": 2013, "species_richness": 17, "subregion": "htr" }, "geometry": { "type": "Point", "coordinates": [ 19.75288889, -31.43563889 ] } },
{ "type": "Feature", "properties": { "plot": "HTR_66", "year": 2004, "species_richness": 5, "subregion": "htr" }, "geometry": { "type": "Point", "coordinates": [ 19.87708333, -31.146 ] } },
{ "type": "Feature", "properties": { "plot": "HTR_66_ak", "year": 2013, "species_richness": 16, "subregion": "htr" }, "geometry": { "type": "Point", "coordinates": [ 19.75077778, -31.43722222 ] } },
{ "type": "Feature", "properties": { "plot": "HTR_67", "year": 2004, "species_richness": 4, "subregion": "htr" }, "geometry": { "type": "Point", "coordinates": [ 19.81141667, -31.21919444 ] } },
{ "type": "Feature", "properties": { "plot": "HTR_67_ak", "year": 2013, "species_richness": 10, "subregion": "htr" }, "geometry": { "type": "Point", "coordinates": [ 19.74925, -31.43808333 ] } },
{ "type": "Feature", "properties": { "plot": "HTR_68", "year": 2004, "species_richness": 13, "subregion": "htr" }, "geometry": { "type": "Point", "coordinates": [ 19.74702778, -31.27430556 ] } },
{ "type": "Feature", "properties": { "plot": "HTR_68_ak", "year": 2013, "species_richness": 15, "subregion": "htr" }, "geometry": { "type": "Point", "coordinates": [ 19.74763889, -31.43813889 ] } },
{ "type": "Feature", "properties": { "plot": "HTR_69", "year": 2004, "species_richness": 10, "subregion": "htr" }, "geometry": { "type": "Point", "coordinates": [ 19.74344444, -31.49730556 ] } },
{ "type": "Feature", "properties": { "plot": "HTR_69_ak", "year": 2013, "species_richness": 12, "subregion": "htr" }, "geometry": { "type": "Point", "coordinates": [ 19.74583333, -31.43663889 ] } },
{ "type": "Feature", "properties": { "plot": "HTR_6_ak", "year": 2013, "species_richness": 14, "subregion": "htr" }, "geometry": { "type": "Point", "coordinates": [ 19.77672222, -31.44961111 ] } },
{ "type": "Feature", "properties": { "plot": "HTR_6_nieu", "year": 2014, "species_richness": 17, "subregion": "htr" }, "geometry": { "type": "Point", "coordinates": [ 19.07369, -31.4326 ] } },
{ "type": "Feature", "properties": { "plot": "HTR_7", "year": 2004, "species_richness": 8, "subregion": "htr" }, "geometry": { "type": "Point", "coordinates": [ 19.45408333, -31.46044444 ] } },
{ "type": "Feature", "properties": { "plot": "HTR_70", "year": 2004, "species_richness": 9, "subregion": "htr" }, "geometry": { "type": "Point", "coordinates": [ 19.65905556, -31.50191667 ] } },
{ "type": "Feature", "properties": { "plot": "HTR_70_ak", "year": 2013, "species_richness": 12, "subregion": "htr" }, "geometry": { "type": "Point", "coordinates": [ 19.74352778, -31.43572222 ] } },
{ "type": "Feature", "properties": { "plot": "HTR_71", "year": 2004, "species_richness": 10, "subregion": "htr" }, "geometry": { "type": "Point", "coordinates": [ 19.60116667, -31.49536111 ] } },
{ "type": "Feature", "properties": { "plot": "HTR_71_ak", "year": 2013, "species_richness": 15, "subregion": "htr" }, "geometry": { "type": "Point", "coordinates": [ 19.74358333, -31.43458333 ] } },
{ "type": "Feature", "properties": { "plot": "HTR_72", "year": 2004, "species_richness": 7, "subregion": "htr" }, "geometry": { "type": "Point", "coordinates": [ 20.14772222, -32.05211111 ] } },
{ "type": "Feature", "properties": { "plot": "HTR_72_ak", "year": 2013, "species_richness": 7, "subregion": "htr" }, "geometry": { "type": "Point", "coordinates": [ 19.74255556, -31.43252778 ] } },
{ "type": "Feature", "properties": { "plot": "HTR_73", "year": 2004, "species_richness": 5, "subregion": "htr" }, "geometry": { "type": "Point", "coordinates": [ 20.15897222, -32.03811111 ] } },
{ "type": "Feature", "properties": { "plot": "HTR_73_ak", "year": 2013, "species_richness": 13, "subregion": "htr" }, "geometry": { "type": "Point", "coordinates": [ 19.74105556, -31.432 ] } },
{ "type": "Feature", "properties": { "plot": "HTR_74", "year": 2004, "species_richness": 7, "subregion": "htr" }, "geometry": { "type": "Point", "coordinates": [ 20.17594444, -32.02483333 ] } },
{ "type": "Feature", "properties": { "plot": "HTR_74_ak", "year": 2013, "species_richness": 7, "subregion": "htr" }, "geometry": { "type": "Point", "coordinates": [ 19.74202778, -31.42991667 ] } },
{ "type": "Feature", "properties": { "plot": "HTR_75", "year": 2004, "species_richness": 9, "subregion": "htr" }, "geometry": { "type": "Point", "coordinates": [ 20.19697222, -32.01594444 ] } },
{ "type": "Feature", "properties": { "plot": "HTR_75_ak", "year": 2013, "species_richness": 5, "subregion": "htr" }, "geometry": { "type": "Point", "coordinates": [ 19.74275, -31.42894444 ] } },
{ "type": "Feature", "properties": { "plot": "HTR_76", "year": 2004, "species_richness": 9, "subregion": "htr" }, "geometry": { "type": "Point", "coordinates": [ 20.21263889, -31.98819444 ] } },
{ "type": "Feature", "properties": { "plot": "HTR_76_ak", "year": 2013, "species_richness": 10, "subregion": "htr" }, "geometry": { "type": "Point", "coordinates": [ 19.74269444, -31.42775 ] } },
{ "type": "Feature", "properties": { "plot": "HTR_77", "year": 2004, "species_richness": 6, "subregion": "htr" }, "geometry": { "type": "Point", "coordinates": [ 20.20488889, -31.95383333 ] } },
{ "type": "Feature", "properties": { "plot": "HTR_77_ak", "year": 2013, "species_richness": 14, "subregion": "htr" }, "geometry": { "type": "Point", "coordinates": [ 19.74338889, -31.42183333 ] } },
{ "type": "Feature", "properties": { "plot": "HTR_78", "year": 2004, "species_richness": 9, "subregion": "htr" }, "geometry": { "type": "Point", "coordinates": [ 20.20458333, -31.944 ] } },
{ "type": "Feature", "properties": { "plot": "HTR_78_ak", "year": 2013, "species_richness": 13, "subregion": "htr" }, "geometry": { "type": "Point", "coordinates": [ 19.74313889, -31.42 ] } },
{ "type": "Feature", "properties": { "plot": "HTR_79", "year": 2004, "species_richness": 6, "subregion": "htr" }, "geometry": { "type": "Point", "coordinates": [ 20.20302778, -31.939 ] } },
{ "type": "Feature", "properties": { "plot": "HTR_79_ak", "year": 2013, "species_richness": 6, "subregion": "htr" }, "geometry": { "type": "Point", "coordinates": [ 19.74288889, -31.41655556 ] } },
{ "type": "Feature", "properties": { "plot": "HTR_7_ak", "year": 2013, "species_richness": 20, "subregion": "htr" }, "geometry": { "type": "Point", "coordinates": [ 19.77811111, -31.45011111 ] } },
{ "type": "Feature", "properties": { "plot": "HTR_7_nieu", "year": 2014, "species_richness": 18, "subregion": "htr" }, "geometry": { "type": "Point", "coordinates": [ 19.07603, -31.43571 ] } },
{ "type": "Feature", "properties": { "plot": "HTR_8", "year": 2004, "species_richness": 13, "subregion": "htr" }, "geometry": { "type": "Point", "coordinates": [ 19.44813889, -31.41975 ] } },
{ "type": "Feature", "properties": { "plot": "HTR_80", "year": 2004, "species_richness": 8, "subregion": "htr" }, "geometry": { "type": "Point", "coordinates": [ 20.21066667, -31.92844444 ] } },
{ "type": "Feature", "properties": { "plot": "HTR_80_ak", "year": 2013, "species_richness": 9, "subregion": "htr" }, "geometry": { "type": "Point", "coordinates": [ 19.74458333, -31.41908333 ] } },
{ "type": "Feature", "properties": { "plot": "HTR_81", "year": 2004, "species_richness": 8, "subregion": "htr" }, "geometry": { "type": "Point", "coordinates": [ 20.16388889, -32.05794444 ] } },
{ "type": "Feature", "properties": { "plot": "HTR_81_ak", "year": 2013, "species_richness": 6, "subregion": "htr" }, "geometry": { "type": "Point", "coordinates": [ 19.75138889, -31.39794444 ] } },
{ "type": "Feature", "properties": { "plot": "HTR_82", "year": 2004, "species_richness": 12, "subregion": "htr" }, "geometry": { "type": "Point", "coordinates": [ 20.13513889, -32.06441667 ] } },
{ "type": "Feature", "properties": { "plot": "HTR_82_ak", "year": 2013, "species_richness": 3, "subregion": "htr" }, "geometry": { "type": "Point", "coordinates": [ 19.75072222, -31.39933333 ] } },
{ "type": "Feature", "properties": { "plot": "HTR_83", "year": 2004, "species_richness": 8, "subregion": "htr" }, "geometry": { "type": "Point", "coordinates": [ 20.13047222, -32.10091667 ] } },
{ "type": "Feature", "properties": { "plot": "HTR_83_ak", "year": 2013, "species_richness": 5, "subregion": "htr" }, "geometry": { "type": "Point", "coordinates": [ 19.75047222, -31.40061111 ] } },
{ "type": "Feature", "properties": { "plot": "HTR_84", "year": 2004, "species_richness": 8, "subregion": "htr" }, "geometry": { "type": "Point", "coordinates": [ 20.12155556, -32.11647222 ] } },
{ "type": "Feature", "properties": { "plot": "HTR_84_ak", "year": 2013, "species_richness": 4, "subregion": "htr" }, "geometry": { "type": "Point", "coordinates": [ 19.74958333, -31.40208333 ] } },
{ "type": "Feature", "properties": { "plot": "HTR_85", "year": 2004, "species_richness": 14, "subregion": "htr" }, "geometry": { "type": "Point", "coordinates": [ 20.11658333, -32.12897222 ] } },
{ "type": "Feature", "properties": { "plot": "HTR_85_ak", "year": 2013, "species_richness": 2, "subregion": "htr" }, "geometry": { "type": "Point", "coordinates": [ 19.74930556, -31.40363889 ] } },
{ "type": "Feature", "properties": { "plot": "HTR_86", "year": 2004, "species_richness": 11, "subregion": "htr" }, "geometry": { "type": "Point", "coordinates": [ 20.11475, -32.12836111 ] } },
{ "type": "Feature", "properties": { "plot": "HTR_86_ak", "year": 2013, "species_richness": 2, "subregion": "htr" }, "geometry": { "type": "Point", "coordinates": [ 19.74869444, -31.40397222 ] } },
{ "type": "Feature", "properties": { "plot": "HTR_87", "year": 2004, "species_richness": 10, "subregion": "htr" }, "geometry": { "type": "Point", "coordinates": [ 20.10705556, -32.12475 ] } },
{ "type": "Feature", "properties": { "plot": "HTR_87_ak", "year": 2013, "species_richness": 9, "subregion": "htr" }, "geometry": { "type": "Point", "coordinates": [ 19.74513889, -31.40183333 ] } },
{ "type": "Feature", "properties": { "plot": "HTR_88", "year": 2004, "species_richness": 9, "subregion": "htr" }, "geometry": { "type": "Point", "coordinates": [ 20.09722222, -32.12713889 ] } },
{ "type": "Feature", "properties": { "plot": "HTR_88_ak", "year": 2013, "species_richness": 13, "subregion": "htr" }, "geometry": { "type": "Point", "coordinates": [ 19.73463889, -31.45319444 ] } },
{ "type": "Feature", "properties": { "plot": "HTR_89", "year": 2004, "species_richness": 11, "subregion": "htr" }, "geometry": { "type": "Point", "coordinates": [ 20.08716667, -32.12663889 ] } },
{ "type": "Feature", "properties": { "plot": "HTR_89_ak", "year": 2013, "species_richness": 16, "subregion": "htr" }, "geometry": { "type": "Point", "coordinates": [ 19.73338889, -31.45261111 ] } },
{ "type": "Feature", "properties": { "plot": "HTR_8_ak", "year": 2013, "species_richness": 16, "subregion": "htr" }, "geometry": { "type": "Point", "coordinates": [ 19.78055556, -31.44805556 ] } },
{ "type": "Feature", "properties": { "plot": "HTR_8_nieu", "year": 2014, "species_richness": 17, "subregion": "htr" }, "geometry": { "type": "Point", "coordinates": [ 19.07554, -31.4367 ] } },
{ "type": "Feature", "properties": { "plot": "HTR_9", "year": 2004, "species_richness": 12, "subregion": "htr" }, "geometry": { "type": "Point", "coordinates": [ 19.46666667, -31.42155556 ] } },
{ "type": "Feature", "properties": { "plot": "HTR_90", "year": 2004, "species_richness": 10, "subregion": "htr" }, "geometry": { "type": "Point", "coordinates": [ 20.07744444, -32.13352778 ] } },
{ "type": "Feature", "properties": { "plot": "HTR_90_ak", "year": 2013, "species_richness": 18, "subregion": "htr" }, "geometry": { "type": "Point", "coordinates": [ 19.73277778, -31.45102778 ] } },
{ "type": "Feature", "properties": { "plot": "HTR_91", "year": 2004, "species_richness": 9, "subregion": "htr" }, "geometry": { "type": "Point", "coordinates": [ 20.07052778, -32.13722222 ] } },
{ "type": "Feature", "properties": { "plot": "HTR_91_ak", "year": 2013, "species_richness": 14, "subregion": "htr" }, "geometry": { "type": "Point", "coordinates": [ 19.73894444, -31.45513889 ] } },
{ "type": "Feature", "properties": { "plot": "HTR_92", "year": 2004, "species_richness": 5, "subregion": "htr" }, "geometry": { "type": "Point", "coordinates": [ 20.04802778, -32.15977778 ] } },
{ "type": "Feature", "properties": { "plot": "HTR_92_ak", "year": 2013, "species_richness": 14, "subregion": "htr" }, "geometry": { "type": "Point", "coordinates": [ 19.74166667, -31.45772222 ] } },
{ "type": "Feature", "properties": { "plot": "HTR_93", "year": 2004, "species_richness": 7, "subregion": "htr" }, "geometry": { "type": "Point", "coordinates": [ 20.06241667, -32.19844444 ] } },
{ "type": "Feature", "properties": { "plot": "HTR_93_ak", "year": 2013, "species_richness": 18, "subregion": "htr" }, "geometry": { "type": "Point", "coordinates": [ 19.73663889, -31.4575 ] } },
{ "type": "Feature", "properties": { "plot": "HTR_94", "year": 2004, "species_richness": 11, "subregion": "htr" }, "geometry": { "type": "Point", "coordinates": [ 20.022, -32.18902778 ] } },
{ "type": "Feature", "properties": { "plot": "HTR_94_ak", "year": 2013, "species_richness": 14, "subregion": "htr" }, "geometry": { "type": "Point", "coordinates": [ 19.73494444, -31.45788889 ] } },
{ "type": "Feature", "properties": { "plot": "HTR_95", "year": 2004, "species_richness": 12, "subregion": "htr" }, "geometry": { "type": "Point", "coordinates": [ 19.99013889, -32.14511111 ] } },
{ "type": "Feature", "properties": { "plot": "HTR_95_ak", "year": 2013, "species_richness": 20, "subregion": "htr" }, "geometry": { "type": "Point", "coordinates": [ 19.73441667, -31.45727778 ] } },
{ "type": "Feature", "properties": { "plot": "HTR_96", "year": 2004, "species_richness": 8, "subregion": "htr" }, "geometry": { "type": "Point", "coordinates": [ 19.96888889, -32.12291667 ] } },
{ "type": "Feature", "properties": { "plot": "HTR_96_ak", "year": 2013, "species_richness": 16, "subregion": "htr" }, "geometry": { "type": "Point", "coordinates": [ 19.73508333, -31.45644444 ] } },
{ "type": "Feature", "properties": { "plot": "HTR_97", "year": 2004, "species_richness": 4, "subregion": "htr" }, "geometry": { "type": "Point", "coordinates": [ 19.84041667, -31.96472222 ] } },
{ "type": "Feature", "properties": { "plot": "HTR_97_ak", "year": 2013, "species_richness": 9, "subregion": "htr" }, "geometry": { "type": "Point", "coordinates": [ 19.77680556, -31.40855556 ] } },
{ "type": "Feature", "properties": { "plot": "HTR_98", "year": 2004, "species_richness": 10, "subregion": "htr" }, "geometry": { "type": "Point", "coordinates": [ 20.17086111, -31.87458333 ] } },
{ "type": "Feature", "properties": { "plot": "HTR_98_ak", "year": 2013, "species_richness": 13, "subregion": "htr" }, "geometry": { "type": "Point", "coordinates": [ 19.77638889, -31.40755556 ] } },
{ "type": "Feature", "properties": { "plot": "HTR_99", "year": 2004, "species_richness": 10, "subregion": "htr" }, "geometry": { "type": "Point", "coordinates": [ 20.12333333, -31.85877778 ] } },
{ "type": "Feature", "properties": { "plot": "HTR_99_ak", "year": 2013, "species_richness": 11, "subregion": "htr" }, "geometry": { "type": "Point", "coordinates": [ 19.77686111, -31.40741667 ] } },
{ "type": "Feature", "properties": { "plot": "HTR_9_ak", "year": 2013, "species_richness": 10, "subregion": "htr" }, "geometry": { "type": "Point", "coordinates": [ 19.77686111, -31.44647222 ] } }
]
}
